[
{
"Name": "Mariehamns stad",
"Code": "211",
"Provinces": [
{
"Name": "Mariehamn",
"Code": "478",
"Communities": [
{
"Places": [
{
"Name": "Mariehamn",
"PostCode": "22100",
"LatLong": "60.1007,19.9438"
},
{
"Name": "Mariehamn",
"PostCode": "22101",
"LatLong": "60.0628,19.9533"
}
]
}
]
}
]
},
{
"Name": "Ålands landsbygd",
"Code": "212",
"Provinces": [
{
"Name": "Eckerö",
"Code": "043",
"Communities": [
{
"Places": [
{
"Name": "Eckerö",
"PostCode": "22270",
"LatLong": "60.2203,19.6263"
}
]
}
]
},
{
"Name": "Finström",
"Code": "060",
"Communities": [
{
"Places": [
{
"Name": "Emkarby",
"PostCode": "22220",
"LatLong": "60.2394,19.848"
},
{
"Name": "Pålsböle",
"PostCode": "22310",
"LatLong": "60.2756,19.9057"
},
{
"Name": "Tjudö",
"PostCode": "22330",
"LatLong": "60.3398,19.9382"
},
{
"Name": "Godby",
"PostCode": "22410",
"LatLong": "60.2294,19.982"
},
{
"Name": "Godby",
"PostCode": "22411",
"LatLong": "60.2235,19.9794"
}
]
}
]
},
{
"Name": "Geta",
"Code": "065",
"Communities": [
{
"Places": [
{
"Name": "Geta",
"PostCode": "22340",
"LatLong": "60.3791,19.8878"
}
]
}
]
},
{
"Name": "Hammarland",
"Code": "076",
"Communities": [
{
"Places": [
{
"Name": "Hammarland",
"PostCode": "22240",
"LatLong": "60.2286,19.7396"
}
]
}
]
},
{
"Name": "Jomala",
"Code": "170",
"Communities": [
{
"Places": [
{
"Name": "Mariehamn",
"PostCode": "22120",
"LatLong": "60.1141,19.913"
},
{
"Name": "Gottby",
"PostCode": "22130",
"LatLong": "60.1253,19.8285"
},
{
"Name": "Mariehamn",
"PostCode": "22140",
"LatLong": "60.1109,19.9898"
},
{
"Name": "Jomala",
"PostCode": "22150",
"LatLong": "60.1617,19.9602"
},
{
"Name": "Jomala",
"PostCode": "22151",
"LatLong": "60.1497,19.9521"
}
]
}
]
},
{
"Name": "Lemland",
"Code": "417",
"Communities": [
{
"Places": [
{
"Name": "Mariehamn",
"PostCode": "22160",
"LatLong": "60.0314,20.0036"
},
{
"Name": "Lemland",
"PostCode": "22610",
"LatLong": "60.0491,20.1232"
}
]
}
]
},
{
"Name": "Lumparland",
"Code": "438",
"Communities": [
{
"Places": [
{
"Name": "Lumparland",
"PostCode": "22630",
"LatLong": "60.1204,20.2616"
}
]
}
]
},
{
"Name": "Saltvik",
"Code": "736",
"Communities": [
{
"Places": [
{
"Name": "Ödkarby",
"PostCode": "22320",
"LatLong": "60.3162,20.0054"
},
{
"Name": "Saltvik",
"PostCode": "22430",
"LatLong": "60.3146,20.1073"
}
]
}
]
},
{
"Name": "Sund",
"Code": "771",
"Communities": [
{
"Places": [
{
"Name": "Kastelholm",
"PostCode": "22520",
"LatLong": "60.2383,20.1013"
},
{
"Name": "Sund",
"PostCode": "22530",
"LatLong": "60.2275,20.1999"
}
]
}
]
}
]
},
{
"Name": "Ålands skärgård",
"Code": "213",
"Provinces": [
{
"Name": "Brändö",
"Code": "035",
"Communities": [
{
"Places": [
{
"Name": "Lappo",
"PostCode": "22840",
"LatLong": "60.3107,20.9895"
},
{
"Name": "Torsholma",
"PostCode": "22910",
"LatLong": "60.3556,21.0648"
},
{
"Name": "Brändö",
"PostCode": "22920",
"LatLong": "60.4138,21.039"
},
{
"Name": "Fiskö",
"PostCode": "22930",
"LatLong": "60.4525,21.0695"
},
{
"Name": "Åva",
"PostCode": "22940",
"LatLong": "60.4588,21.1607"
},
{
"Name": "Jurmo",
"PostCode": "22950",
"LatLong": "60.5196,21.0717"
}
]
}
]
},
{
"Name": "Föglö",
"Code": "062",
"Communities": [
{
"Places": [
{
"Name": "Föglö",
"PostCode": "22710",
"LatLong": "60.0316,20.4605"
}
]
}
]
},
{
"Name": "Kumlinge",
"Code": "295",
"Communities": [
{
"Places": [
{
"Name": "Seglinge",
"PostCode": "22810",
"LatLong": "60.2018,20.7098"
},
{
"Name": "Kumlinge",
"PostCode": "22820",
"LatLong": "60.261,20.7934"
},
{
"Name": "Enklinge",
"PostCode": "22830",
"LatLong": "60.3349,20.758"
}
]
}
]
},
{
"Name": "Kökar",
"Code": "318",
"Communities": [
{
"Places": [
{
"Name": "Kökar",
"PostCode": "22730",
"LatLong": "59.9345,20.9298"
}
]
}
]
},
{
"Name": "Sottunga",
"Code": "766",
"Communities": [
{
"Places": [
{
"Name": "Sottunga",
"PostCode": "22720",
"LatLong": "60.1248,20.6751"
}
]
}
]
},
{
"Name": "Vårdö",
"Code": "941",
"Communities": [
{
"Places": [
{
"Name": "Vårdö",
"PostCode": "22550",
"LatLong": "60.2607,20.3725"
}
]
}
]
}
]
}
]