[
{
"Name": "Región de Valparaíso",
"Code": "01",
"Provinces": [
{
"Name": "Provincia de Valparaíso",
"Code": "51",
"Communities": [
{
"Name": "Valparaíso",
"Code": "05101",
"Places": [
{
"Name": "Valparaíso",
"PostCode": "2340000",
"LatLong": "-33.1298,-71.5735"
}
]
},
{
"Name": "Casablanca",
"Code": "05102",
"Places": [
{
"Name": "Casablanca",
"PostCode": "2480000",
"LatLong": "-33.3158,-71.4353"
}
]
},
{
"Name": "Concón",
"Code": "05103",
"Places": [
{
"Name": "Concón",
"PostCode": "2510000",
"LatLong": "-32.9534,-71.4678"
}
]
},
{
"Name": "Juan Fernández",
"Code": "05104",
"Places": [
{
"Name": "Juan Fernández",
"PostCode": "2600000",
"LatLong": "-33.6387,-78.8583"
}
]
},
{
"Name": "Puchuncaví",
"Code": "05105",
"Places": [
{
"Name": "Puchuncaví",
"PostCode": "2500000",
"LatLong": "-32.7176,-71.4111"
}
]
},
{
"Name": "Quintero",
"Code": "05107",
"Places": [
{
"Name": "Quintero",
"PostCode": "2490000",
"LatLong": "-32.843,-71.4738"
}
]
},
{
"Name": "Viña Del Mar",
"Code": "05109",
"Places": [
{
"Name": "Viña Del Mar",
"PostCode": "2520000",
"LatLong": "-33.0288,-71.5159"
}
]
}
]
},
{
"Name": "Provincia de Isla de Pascua",
"Code": "52",
"Communities": [
{
"Name": "Isla De Pascua",
"Code": "05201",
"Places": [
{
"Name": "Isla De Pascua",
"PostCode": "2770000",
"LatLong": "-27.1288,-109.36"
}
]
}
]
},
{
"Name": "Provincia de Los Andes",
"Code": "53",
"Communities": [
{
"Name": "Los Andes",
"Code": "05301",
"Places": [
{
"Name": "Los Andes",
"PostCode": "2100000",
"LatLong": "-32.9503,-70.2398"
}
]
},
{
"Name": "Calle Larga",
"Code": "05302",
"Places": [
{
"Name": "Calle Larga",
"PostCode": "2130000",
"LatLong": "-32.9504,-70.545"
}
]
},
{
"Name": "Rinconada",
"Code": "05303",
"Places": [
{
"Name": "Rinconada",
"PostCode": "2140000",
"LatLong": "-32.876,-70.7068"
}
]
},
{
"Name": "San Esteban",
"Code": "05304",
"Places": [
{
"Name": "San Esteban",
"PostCode": "2120000",
"LatLong": "-32.6859,-70.3484"
}
]
}
]
},
{
"Name": "Petorca Province",
"Code": "54",
"Communities": [
{
"Name": "La Ligua",
"Code": "05401",
"Places": [
{
"Name": "La Ligua",
"PostCode": "2030000",
"LatLong": "-32.3537,-71.2721"
}
]
},
{
"Name": "Cabildo",
"Code": "05402",
"Places": [
{
"Name": "Cabildo",
"PostCode": "2050000",
"LatLong": "-32.4174,-70.8243"
}
]
},
{
"Name": "Papudo",
"Code": "05403",
"Places": [
{
"Name": "Papudo",
"PostCode": "2070000",
"LatLong": "-32.5075,-71.4431"
}
]
},
{
"Name": "Petorca",
"Code": "05404",
"Places": [
{
"Name": "Petorca",
"PostCode": "2040000",
"LatLong": "-32.1903,-70.8704"
}
]
},
{
"Name": "Zapallar",
"Code": "05405",
"Places": [
{
"Name": "Zapallar",
"PostCode": "2060000",
"LatLong": "-32.5549,-71.4547"
}
]
}
]
},
{
"Name": "Provincia de Quillota",
"Code": "55",
"Communities": [
{
"Name": "Quillota",
"Code": "05501",
"Places": [
{
"Name": "Quillota",
"PostCode": "2260000",
"LatLong": "-32.9046,-71.273"
}
]
},
{
"Name": "Calera",
"Code": "05502",
"Places": [
{
"Name": "Calera",
"PostCode": "2290000",
"LatLong": "-32.8077,-71.1881"
}
]
},
{
"Name": "Hijuelas",
"Code": "05503",
"Places": [
{
"Name": "Hijuelas",
"PostCode": "2310000",
"LatLong": "-32.8693,-71.0816"
}
]
},
{
"Name": "La Cruz",
"Code": "05504",
"Places": [
{
"Name": "La Cruz",
"PostCode": "2280000",
"LatLong": "-32.8251,-71.2413"
}
]
},
{
"Name": "Nogales",
"Code": "05506",
"Places": [
{
"Name": "Nogales",
"PostCode": "2300000",
"LatLong": "-32.6915,-71.1768"
}
]
}
]
},
{
"Name": "San Antonio Province",
"Code": "56",
"Communities": [
{
"Name": "San Antonio",
"Code": "05601",
"Places": [
{
"Name": "San Antonio",
"PostCode": "2660000",
"LatLong": "-33.571,-71.6096"
}
]
},
{
"Name": "Algarrobo",
"Code": "05602",
"Places": [
{
"Name": "Algarrobo",
"PostCode": "2710000",
"LatLong": "-33.33,-71.6005"
}
]
},
{
"Name": "Cartagena",
"Code": "05603",
"Places": [
{
"Name": "Cartagena",
"PostCode": "2680000",
"LatLong": "-33.5338,-71.4424"
}
]
},
{
"Name": "El Quisco",
"Code": "05604",
"Places": [
{
"Name": "El Quisco",
"PostCode": "2700000",
"LatLong": "-33.4161,-71.6512"
}
]
},
{
"Name": "El Tabo",
"Code": "05605",
"Places": [
{
"Name": "El Tabo",
"PostCode": "2690000",
"LatLong": "-33.4586,-71.6619"
}
]
},
{
"Name": "Santo Domingo",
"Code": "05606",
"Places": [
{
"Name": "Santo Domingo",
"PostCode": "2720000",
"LatLong": "-33.8093,-71.6766"
}
]
}
]
},
{
"Name": "Provincia de San Felipe de Aconcagua",
"Code": "57",
"Communities": [
{
"Name": "San Felipe",
"Code": "05701",
"Places": [
{
"Name": "San Felipe",
"PostCode": "2170000",
"LatLong": "-32.7364,-70.7537"
}
]
},
{
"Name": "Catemu",
"Code": "05702",
"Places": [
{
"Name": "Catemu",
"PostCode": "2230000",
"LatLong": "-32.7073,-70.9452"
}
]
},
{
"Name": "Llaillay",
"Code": "05703",
"Places": [
{
"Name": "Llaillay",
"PostCode": "2220000",
"LatLong": "-32.8879,-70.9024"
}
]
},
{
"Name": "Panquehue",
"Code": "05704",
"Places": [
{
"Name": "Panquehue",
"PostCode": "2210000",
"LatLong": "-32.7938,-70.829"
}
]
},
{
"Name": "Putaendo",
"Code": "05705",
"Places": [
{
"Name": "Putaendo",
"PostCode": "2190000",
"LatLong": "-32.4808,-70.5214"
}
]
},
{
"Name": "Santa María",
"Code": "05706",
"Places": [
{
"Name": "Santa María",
"PostCode": "2200000",
"LatLong": "-32.6855,-70.6103"
}
]
}
]
},
{
"Name": "Provincia de Marga Marga",
"Code": "58",
"Communities": [
{
"Name": "Quilpue",
"Code": "05801",
"Places": [
{
"Name": "Quilpue",
"PostCode": "2430000",
"LatLong": "-33.1473,-71.2543"
}
]
},
{
"Name": "Limache",
"Code": "05802",
"Places": [
{
"Name": "Limache",
"PostCode": "2240000",
"LatLong": "-33.0309,-71.2793"
}
]
},
{
"Name": "Olmué",
"Code": "05803",
"Places": [
{
"Name": "Olmué",
"PostCode": "2330000",
"LatLong": "-33.0358,-71.1107"
}
]
},
{
"Name": "Villa Alemana",
"Code": "05804",
"Places": [
{
"Name": "Villa Alemana",
"PostCode": "6500000",
"LatLong": "-33.0679,-71.3305"
}
]
}
]
}
]
},
{
"Name": "Región Aysén",
"Code": "02",
"Provinces": [
{
"Name": "Provincia de Coyhaique",
"Code": "111",
"Communities": [
{
"Name": "Coyhaique",
"Code": "11101",
"Places": [
{
"Name": "Coyhaique",
"PostCode": "5950000",
"LatLong": "-45.5539,-71.9913"
}
]
},
{
"Name": "Lago Verde",
"Code": "11102",
"Places": [
{
"Name": "Lago Verde",
"PostCode": "5960000",
"LatLong": "-44.4923,-71.8323"
}
]
}
]
},
{
"Name": "Provincia de Aisén",
"Code": "112",
"Communities": [
{
"Name": "Aysén",
"Code": "11201",
"Places": [
{
"Name": "Aysén",
"PostCode": "6000000",
"LatLong": "-45.9887,-73.7735"
}
]
},
{
"Name": "Cisnes",
"Code": "11202",
"Places": [
{
"Name": "Cisnes",
"PostCode": "6010000",
"LatLong": "-44.4577,-73.1374"
}
]
},
{
"Name": "Guaitecas",
"Code": "11203",
"Places": [
{
"Name": "Guaitecas",
"PostCode": "6020000",
"LatLong": "-43.8665,-74.0516"
}
]
}
]
},
{
"Name": "Provincia Capitán Prat",
"Code": "113",
"Communities": [
{
"Name": "Cochrane",
"Code": "11301",
"Places": [
{
"Name": "Cochrane",
"PostCode": "6100000",
"LatLong": "-47.3601,-72.7418"
}
]
},
{
"Name": "O’Higgins",
"Code": "11302",
"Places": [
{
"Name": "O’Higgins",
"PostCode": "6110000",
"LatLong": "-48.4862,-72.9106"
}
]
},
{
"Name": "Tortel",
"Code": "11303",
"Places": [
{
"Name": "Tortel",
"PostCode": "6120000",
"LatLong": "-48.0271,-74.1592"
}
]
}
]
},
{
"Name": "Provincia General Carrera",
"Code": "114",
"Communities": [
{
"Name": "Chile Chico",
"Code": "11401",
"Places": [
{
"Name": "Chile Chico",
"PostCode": "6050000",
"LatLong": "-46.7668,-72.5847"
}
]
},
{
"Name": "Río Ibanez",
"Code": "11402",
"Places": [
{
"Name": "Río Ibanez",
"PostCode": "6060000",
"LatLong": "-46.2993,-72.4866"
}
]
}
]
}
]
},
{
"Name": "Región de Antofagasta",
"Code": "03",
"Provinces": [
{
"Name": "Provincia de Antofagasta",
"Code": "21",
"Communities": [
{
"Name": "Antofagasta",
"Code": "02101",
"Places": [
{
"Name": "Antofagasta",
"PostCode": "1240000",
"LatLong": "-24.2739,-69.4097"
}
]
},
{
"Name": "Mejillones",
"Code": "02102",
"Places": [
{
"Name": "Mejillones",
"PostCode": "1310000",
"LatLong": "-22.936,-70.1986"
}
]
},
{
"Name": "Sierra Gorda",
"Code": "02103",
"Places": [
{
"Name": "Sierra Gorda",
"PostCode": "1320000",
"LatLong": "-23.2542,-69.3072"
}
]
},
{
"Name": "Taltal",
"Code": "02104",
"Places": [
{
"Name": "Taltal",
"PostCode": "1300000",
"LatLong": "-25.3136,-69.8657"
}
]
}
]
},
{
"Name": "Provincia de El Loa",
"Code": "22",
"Communities": [
{
"Name": "Calama",
"Code": "02201",
"Places": [
{
"Name": "Calama",
"PostCode": "1390000",
"LatLong": "-22.1639,-68.6295"
}
]
},
{
"Name": "Ollague",
"Code": "02202",
"Places": [
{
"Name": "Ollague",
"PostCode": "1420000",
"LatLong": "-21.4566,-68.3134"
}
]
},
{
"Name": "San Pedro De Atacama",
"Code": "02203",
"Places": [
{
"Name": "San Pedro De Atacama",
"PostCode": "1410000",
"LatLong": "-23.4011,-67.9111"
}
]
}
]
},
{
"Name": "Provincia de Tocopilla",
"Code": "23",
"Communities": [
{
"Name": "Tocopilla",
"Code": "02301",
"Places": [
{
"Name": "Tocopilla",
"PostCode": "1340000",
"LatLong": "-22.002,-70.0146"
}
]
},
{
"Name": "María Elena",
"Code": "02302",
"Places": [
{
"Name": "María Elena",
"PostCode": "1360000",
"LatLong": "-22.0904,-69.4613"
}
]
}
]
}
]
},
{
"Name": "Región de la Araucanía",
"Code": "04",
"Provinces": [
{
"Name": "Provincia de Cautín",
"Code": "91",
"Communities": [
{
"Name": "Temuco",
"Code": "09101",
"Places": [
{
"Name": "Temuco",
"PostCode": "4780000",
"LatLong": "-38.6731,-72.6633"
}
]
},
{
"Name": "Carahue",
"Code": "09102",
"Places": [
{
"Name": "Carahue",
"PostCode": "5010000",
"LatLong": "-38.6109,-73.2698"
}
]
},
{
"Name": "Cunco",
"Code": "09103",
"Places": [
{
"Name": "Cunco",
"PostCode": "4890000",
"LatLong": "-38.977,-71.9917"
}
]
},
{
"Name": "Curarrehue",
"Code": "09104",
"Places": [
{
"Name": "Curarrehue",
"PostCode": "4910000",
"LatLong": "-39.3358,-71.5393"
}
]
},
{
"Name": "Freire",
"Code": "09105",
"Places": [
{
"Name": "Freire",
"PostCode": "4940000",
"LatLong": "-38.9496,-72.5758"
}
]
},
{
"Name": "Galvarino",
"Code": "09106",
"Places": [
{
"Name": "Galvarino",
"PostCode": "5030000",
"LatLong": "-38.4479,-72.7912"
}
]
},
{
"Name": "Gorbea",
"Code": "09107",
"Places": [
{
"Name": "Gorbea",
"PostCode": "4960000",
"LatLong": "-39.1717,-72.6692"
}
]
},
{
"Name": "Lautaro",
"Code": "09108",
"Places": [
{
"Name": "Lautaro",
"PostCode": "4860000",
"LatLong": "-38.5432,-72.2894"
}
]
},
{
"Name": "Loncoche",
"Code": "09109",
"Places": [
{
"Name": "Loncoche",
"PostCode": "4970000",
"LatLong": "-39.3561,-72.5825"
}
]
},
{
"Name": "Melipeuco",
"Code": "09110",
"Places": [
{
"Name": "Melipeuco",
"PostCode": "4900000",
"LatLong": "-38.8248,-71.611"
}
]
},
{
"Name": "Nueva Imperial",
"Code": "09111",
"Places": [
{
"Name": "Nueva Imperial",
"PostCode": "5020000",
"LatLong": "-38.7509,-72.9725"
}
]
},
{
"Name": "Padre Las Casas",
"Code": "09112",
"Places": [
{
"Name": "Padre Las Casas",
"PostCode": "4850000",
"LatLong": "-38.792,-72.5792"
}
]
},
{
"Name": "Perquenco",
"Code": "09113",
"Places": [
{
"Name": "Perquenco",
"PostCode": "4870000",
"LatLong": "-38.4283,-72.4365"
}
]
},
{
"Name": "Pitrufquén",
"Code": "09114",
"Places": [
{
"Name": "Pitrufquén",
"PostCode": "4950000",
"LatLong": "-39.105,-72.9019"
}
]
},
{
"Name": "Pucón",
"Code": "09115",
"Places": [
{
"Name": "Pucón",
"PostCode": "4920000",
"LatLong": "-39.2702,-71.7905"
}
]
},
{
"Name": "Saavedra",
"Code": "09116",
"Places": [
{
"Name": "Saavedra",
"PostCode": "5000000",
"LatLong": "-38.8325,-73.2955"
}
]
},
{
"Name": "Teodoro Schmidt",
"Code": "09117",
"Places": [
{
"Name": "Teodoro Schmidt",
"PostCode": "4990000",
"LatLong": "-38.9848,-73.1147"
}
]
},
{
"Name": "Toltén",
"Code": "09118",
"Places": [
{
"Name": "Toltén",
"PostCode": "4980000",
"LatLong": "-39.2121,-73.0784"
}
]
},
{
"Name": "Vilcún",
"Code": "09119",
"Places": [
{
"Name": "Vilcún",
"PostCode": "4880000",
"LatLong": "-38.7047,-72.1136"
}
]
},
{
"Name": "Villarrica",
"Code": "09120",
"Places": [
{
"Name": "Villarrica",
"PostCode": "4930000",
"LatLong": "-39.3009,-72.1822"
}
]
},
{
"Name": "Chol Chol",
"Code": "09121",
"Places": [
{
"Name": "Chol Chol",
"PostCode": "5040000",
"LatLong": "-38.5832,-72.9019"
}
]
}
]
},
{
"Name": "Provincia de Malleco",
"Code": "92",
"Communities": [
{
"Name": "Angol",
"Code": "09201",
"Places": [
{
"Name": "Angol",
"PostCode": "4650000",
"LatLong": "-37.769,-72.7954"
}
]
},
{
"Name": "Collipulli",
"Code": "09202",
"Places": [
{
"Name": "Collipulli",
"PostCode": "4680000",
"LatLong": "-38.0318,-72.1152"
}
]
},
{
"Name": "Curacautín",
"Code": "09203",
"Places": [
{
"Name": "Curacautín",
"PostCode": "4700000",
"LatLong": "-38.4326,-71.7711"
}
]
},
{
"Name": "Ercilla",
"Code": "09204",
"Places": [
{
"Name": "Ercilla",
"PostCode": "4710000",
"LatLong": "-38.0828,-72.3535"
}
]
},
{
"Name": "Lonquimay",
"Code": "09205",
"Places": [
{
"Name": "Lonquimay",
"PostCode": "4690000",
"LatLong": "-38.4747,-71.2392"
}
]
},
{
"Name": "Los Sauces",
"Code": "09206",
"Places": [
{
"Name": "Los Sauces",
"PostCode": "4760000",
"LatLong": "-37.9831,-72.7968"
}
]
},
{
"Name": "Lumaco",
"Code": "09207",
"Places": [
{
"Name": "Lumaco",
"PostCode": "4740000",
"LatLong": "-38.2871,-73.0459"
}
]
},
{
"Name": "Purén",
"Code": "09208",
"Places": [
{
"Name": "Purén",
"PostCode": "4750000",
"LatLong": "-38.0121,-73.0504"
}
]
},
{
"Name": "Renaico",
"Code": "09209",
"Places": [
{
"Name": "Renaico",
"PostCode": "4670000",
"LatLong": "-37.7178,-72.5757"
}
]
},
{
"Name": "Traiguén",
"Code": "09210",
"Places": [
{
"Name": "Traiguén",
"PostCode": "4730000",
"LatLong": "-38.2471,-72.6551"
}
]
},
{
"Name": "Victoria",
"Code": "09211",
"Places": [
{
"Name": "Victoria",
"PostCode": "4720000",
"LatLong": "-38.2805,-72.234"
}
]
}
]
}
]
},
{
"Name": "Región de Atacama",
"Code": "05",
"Provinces": [
{
"Name": "Provincia de Copiapó",
"Code": "31",
"Communities": [
{
"Name": "Copiapó",
"Code": "03101",
"Places": [
{
"Name": "Copiapó",
"PostCode": "1530000",
"LatLong": "-27.3202,-69.8277"
}
]
},
{
"Name": "Caldera",
"Code": "03102",
"Places": [
{
"Name": "Caldera",
"PostCode": "1570000",
"LatLong": "-27.1423,-70.6837"
}
]
},
{
"Name": "Tierra Amarilla",
"Code": "03103",
"Places": [
{
"Name": "Tierra Amarilla",
"PostCode": "1580000",
"LatLong": "-27.8657,-69.672"
}
]
}
]
},
{
"Name": "Provincia de Chañaral",
"Code": "32",
"Communities": [
{
"Name": "Chañaral",
"Code": "03201",
"Places": [
{
"Name": "Chañaral",
"PostCode": "1490000",
"LatLong": "-26.3737,-70.3383"
}
]
},
{
"Name": "Diego De Almagro",
"Code": "03202",
"Places": [
{
"Name": "Diego De Almagro",
"PostCode": "1500000",
"LatLong": "-26.2373,-69.1873"
}
]
}
]
},
{
"Name": "Provincia de Huasco",
"Code": "33",
"Communities": [
{
"Name": "Vallenar",
"Code": "03301",
"Places": [
{
"Name": "Vallenar",
"PostCode": "1610000",
"LatLong": "-28.5948,-70.6025"
}
]
},
{
"Name": "Alto Del Carmen",
"Code": "03302",
"Places": [
{
"Name": "Alto Del Carmen",
"PostCode": "1650000",
"LatLong": "-28.9936,-70.153"
}
]
},
{
"Name": "Freirina",
"Code": "03303",
"Places": [
{
"Name": "Freirina",
"PostCode": "1630000",
"LatLong": "-28.8442,-71.1954"
}
]
},
{
"Name": "Huasco",
"Code": "03304",
"Places": [
{
"Name": "Huasco",
"PostCode": "1640000",
"LatLong": "-28.2584,-71.0178"
}
]
}
]
}
]
},
{
"Name": "Región del Biobío",
"Code": "06",
"Provinces": [
{
"Name": "Provincia de Concepción",
"Code": "81",
"Communities": [
{
"Name": "Concepción",
"Code": "08101",
"Places": [
{
"Name": "Concepción",
"PostCode": "4030000",
"LatLong": "-36.82,-73.0445"
}
]
},
{
"Name": "Coronel",
"Code": "08102",
"Places": [
{
"Name": "Coronel",
"PostCode": "4190000",
"LatLong": "-37.007,-73.1252"
}
]
},
{
"Name": "Chiguayante",
"Code": "08103",
"Places": [
{
"Name": "Chiguayante",
"PostCode": "4100000",
"LatLong": "-36.9008,-73.005"
}
]
},
{
"Name": "Florida",
"Code": "08104",
"Places": [
{
"Name": "Florida",
"PostCode": "4170000",
"LatLong": "-36.8224,-72.7177"
}
]
},
{
"Name": "Hualqui",
"Code": "08105",
"Places": [
{
"Name": "Hualqui",
"PostCode": "4180000",
"LatLong": "-37.0447,-72.8704"
}
]
},
{
"Name": "Lota",
"Code": "08106",
"Places": [
{
"Name": "Lota",
"PostCode": "4210000",
"LatLong": "-37.1195,-73.1049"
}
]
},
{
"Name": "Penco",
"Code": "08107",
"Places": [
{
"Name": "Penco",
"PostCode": "4150000",
"LatLong": "-36.7484,-72.9437"
}
]
},
{
"Name": "San Pedro De La Paz",
"Code": "08108",
"Places": [
{
"Name": "San Pedro De La Paz",
"PostCode": "4130000",
"LatLong": "-36.8408,-73.1031"
}
]
},
{
"Name": "Santa Juana",
"Code": "08109",
"Places": [
{
"Name": "Santa Juana",
"PostCode": "4230000",
"LatLong": "-37.2764,-72.9598"
}
]
},
{
"Name": "Talcahuano",
"Code": "08110",
"Places": [
{
"Name": "Talcahuano",
"PostCode": "4260000",
"LatLong": "-36.7434,-73.0982"
}
]
},
{
"Name": "Tomé",
"Code": "08111",
"Places": [
{
"Name": "Tomé",
"PostCode": "4160000",
"LatLong": "-36.6171,-72.858"
}
]
},
{
"Name": "Hualpén",
"Code": "08112",
"Places": [
{
"Name": "Hualpén",
"PostCode": "4600000",
"LatLong": "-36.7869,-73.1052"
}
]
}
]
},
{
"Name": "Provincia de Arauco",
"Code": "82",
"Communities": [
{
"Name": "Lebu",
"Code": "08201",
"Places": [
{
"Name": "Lebu",
"PostCode": "4350000",
"LatLong": "-37.6778,-73.5906"
}
]
},
{
"Name": "Arauco",
"Code": "08202",
"Places": [
{
"Name": "Arauco",
"PostCode": "4360000",
"LatLong": "-37.2886,-73.3994"
}
]
},
{
"Name": "Canete",
"Code": "08203",
"Places": [
{
"Name": "Canete",
"PostCode": "4390000",
"LatLong": "-37.8741,-73.3177"
}
]
},
{
"Name": "Contulmo",
"Code": "08204",
"Places": [
{
"Name": "Contulmo",
"PostCode": "4400000",
"LatLong": "-38.0527,-73.2124"
}
]
},
{
"Name": "Curanilahue",
"Code": "08205",
"Places": [
{
"Name": "Curanilahue",
"PostCode": "4370000",
"LatLong": "-37.483,-73.2351"
}
]
},
{
"Name": "Los Alamos",
"Code": "08206",
"Places": [
{
"Name": "Los Alamos",
"PostCode": "4380000",
"LatLong": "-37.6736,-73.3569"
}
]
},
{
"Name": "Tirua",
"Code": "08207",
"Places": [
{
"Name": "Tirua",
"PostCode": "4410000",
"LatLong": "-38.2975,-73.3957"
}
]
}
]
},
{
"Name": "Provincia de Biobío",
"Code": "83",
"Communities": [
{
"Name": "Los Angeles",
"Code": "08301",
"Places": [
{
"Name": "Los Angeles",
"PostCode": "4440000",
"LatLong": "-37.4079,-72.3277"
}
]
},
{
"Name": "Antuco",
"Code": "08302",
"Places": [
{
"Name": "Antuco",
"PostCode": "4490000",
"LatLong": "-37.3277,-71.3666"
}
]
},
{
"Name": "Cabrero",
"Code": "08303",
"Places": [
{
"Name": "Cabrero",
"PostCode": "4470000",
"LatLong": "-37.0621,-72.3814"
}
]
},
{
"Name": "Laja",
"Code": "08304",
"Places": [
{
"Name": "Laja",
"PostCode": "4560000",
"LatLong": "-37.3125,-72.5825"
}
]
},
{
"Name": "Mulchén",
"Code": "08305",
"Places": [
{
"Name": "Mulchén",
"PostCode": "4530000",
"LatLong": "-37.8384,-72.0972"
}
]
},
{
"Name": "Nacimiento",
"Code": "08306",
"Places": [
{
"Name": "Nacimiento",
"PostCode": "4550000",
"LatLong": "-37.4856,-72.8236"
}
]
},
{
"Name": "Negrete",
"Code": "08307",
"Places": [
{
"Name": "Negrete",
"PostCode": "4540000",
"LatLong": "-37.6083,-72.5766"
}
]
},
{
"Name": "Quilaco",
"Code": "08308",
"Places": [
{
"Name": "Quilaco",
"PostCode": "4520000",
"LatLong": "-37.982,-71.5973"
}
]
},
{
"Name": "Quilleco",
"Code": "08309",
"Places": [
{
"Name": "Quilleco",
"PostCode": "4500000",
"LatLong": "-37.4368,-71.8614"
}
]
},
{
"Name": "San Rosendo",
"Code": "08310",
"Places": [
{
"Name": "San Rosendo",
"PostCode": "4570000",
"LatLong": "-37.213,-72.7211"
}
]
},
{
"Name": "Santa Bárbara",
"Code": "08311",
"Places": [
{
"Name": "Santa Bárbara",
"PostCode": "4510000",
"LatLong": "-37.623,-71.7492"
}
]
},
{
"Name": "Tucapel",
"Code": "08312",
"Places": [
{
"Name": "Tucapel",
"PostCode": "4480000",
"LatLong": "-37.2253,-71.7455"
}
]
},
{
"Name": "Yumbel",
"Code": "08313",
"Places": [
{
"Name": "Yumbel",
"PostCode": "4580000",
"LatLong": "-37.0884,-72.616"
}
]
},
{
"Name": "Alto Biobío",
"Code": "08314",
"Places": [
{
"Name": "Alto Biobío",
"PostCode": "4590000",
"LatLong": "-37.8654,-71.3474"
}
]
}
]
},
{
"Name": "Provincia de Ñuble",
"Code": "84",
"Communities": [
{
"Name": "Chillán",
"Code": "08401",
"Places": [
{
"Name": "Chillán",
"PostCode": "3780000",
"LatLong": "-36.6288,-72.0496"
}
]
},
{
"Name": "Bulnes",
"Code": "08402",
"Places": [
{
"Name": "Bulnes",
"PostCode": "3930000",
"LatLong": "-36.7905,-72.2901"
}
]
},
{
"Name": "Cobquecura",
"Code": "08403",
"Places": [
{
"Name": "Cobquecura",
"PostCode": "3990000",
"LatLong": "-36.1811,-72.721"
}
]
},
{
"Name": "Coelemu",
"Code": "08404",
"Places": [
{
"Name": "Coelemu",
"PostCode": "3970000",
"LatLong": "-36.5051,-72.7503"
}
]
},
{
"Name": "Coihueco",
"Code": "08405",
"Places": [
{
"Name": "Coihueco",
"PostCode": "3870000",
"LatLong": "-36.7021,-71.5811"
}
]
},
{
"Name": "Chillán Viejo",
"Code": "08406",
"Places": [
{
"Name": "Chillán Viejo",
"PostCode": "3820000",
"LatLong": "-36.6803,-72.199"
}
]
},
{
"Name": "El Carmen",
"Code": "08407",
"Places": [
{
"Name": "El Carmen",
"PostCode": "3900000",
"LatLong": "-36.9251,-71.8469"
}
]
},
{
"Name": "Ninhue",
"Code": "08408",
"Places": [
{
"Name": "Ninhue",
"PostCode": "4010000",
"LatLong": "-36.3568,-72.4097"
}
]
},
{
"Name": "Niquén",
"Code": "08409",
"Places": [
{
"Name": "Niquén",
"PostCode": "3850000",
"LatLong": "-36.3024,-71.8974"
}
]
},
{
"Name": "Pemuco",
"Code": "08410",
"Places": [
{
"Name": "Pemuco",
"PostCode": "3910000",
"LatLong": "-36.9829,-72.0675"
}
]
},
{
"Name": "Pinto",
"Code": "08411",
"Places": [
{
"Name": "Pinto",
"PostCode": "3880000",
"LatLong": "-36.9214,-71.4994"
}
]
},
{
"Name": "Portezuelo",
"Code": "08412",
"Places": [
{
"Name": "Portezuelo",
"PostCode": "3960000",
"LatLong": "-36.5464,-72.4665"
}
]
},
{
"Name": "Quillón",
"Code": "08413",
"Places": [
{
"Name": "Quillón",
"PostCode": "3940000",
"LatLong": "-36.8186,-72.5017"
}
]
},
{
"Name": "Quirihue",
"Code": "08414",
"Places": [
{
"Name": "Quirihue",
"PostCode": "4000000",
"LatLong": "-36.2819,-72.5441"
}
]
},
{
"Name": "Ranquil",
"Code": "08415",
"Places": [
{
"Name": "Ranquil",
"PostCode": "3950000",
"LatLong": "-36.6406,-72.5878"
}
]
},
{
"Name": "San Carlos",
"Code": "08416",
"Places": [
{
"Name": "San Carlos",
"PostCode": "3840000",
"LatLong": "-36.3856,-72.0186"
}
]
},
{
"Name": "San Fabián",
"Code": "08417",
"Places": [
{
"Name": "San Fabián",
"PostCode": "3860000",
"LatLong": "-36.5799,-71.2874"
}
]
},
{
"Name": "San Ignacio",
"Code": "08418",
"Places": [
{
"Name": "San Ignacio",
"PostCode": "3890000",
"LatLong": "-36.8225,-72.0298"
}
]
},
{
"Name": "San Nicolás",
"Code": "08419",
"Places": [
{
"Name": "San Nicolás",
"PostCode": "4020000",
"LatLong": "-36.4798,-72.2282"
}
]
},
{
"Name": "Treguaco",
"Code": "08420",
"Places": [
{
"Name": "Treguaco",
"PostCode": "3980000",
"LatLong": "-36.4281,-72.6595"
}
]
},
{
"Name": "Yungay",
"Code": "08421",
"Places": [
{
"Name": "Yungay",
"PostCode": "3920000",
"LatLong": "-37.1044,-71.9308"
}
]
}
]
}
]
},
{
"Name": "Región de Coquimbo",
"Code": "07",
"Provinces": [
{
"Name": "Provincia de Elqui",
"Code": "41",
"Communities": [
{
"Name": "La Serena",
"Code": "04101",
"Places": [
{
"Name": "La Serena",
"PostCode": "1700000",
"LatLong": "-29.7892,-71.0612"
}
]
},
{
"Name": "Coquimbo",
"Code": "04102",
"Places": [
{
"Name": "Coquimbo",
"PostCode": "1780000",
"LatLong": "-30.2288,-71.3598"
}
]
},
{
"Name": "Andacollo",
"Code": "04103",
"Places": [
{
"Name": "Andacollo",
"PostCode": "1750000",
"LatLong": "-30.2606,-71.1005"
}
]
},
{
"Name": "La Higuera",
"Code": "04104",
"Places": [
{
"Name": "La Higuera",
"PostCode": "1740000",
"LatLong": "-29.3749,-70.9014"
}
]
},
{
"Name": "Paiguano",
"Code": "04105",
"Places": [
{
"Name": "Paiguano",
"PostCode": "1770000",
"LatLong": "-30.2384,-70.3707"
}
]
},
{
"Name": "Vicuña",
"Code": "04106",
"Places": [
{
"Name": "Vicuña",
"PostCode": "1760000",
"LatLong": "-29.892,-70.3827"
}
]
}
]
},
{
"Name": "Provincia de Choapa",
"Code": "42",
"Communities": [
{
"Name": "Illapel",
"Code": "04201",
"Places": [
{
"Name": "Illapel",
"PostCode": "1930000",
"LatLong": "-31.5493,-70.9706"
}
]
},
{
"Name": "Canela",
"Code": "04202",
"Places": [
{
"Name": "Canela",
"PostCode": "1960000",
"LatLong": "-31.4019,-71.3944"
}
]
},
{
"Name": "Los Vilos",
"Code": "04203",
"Places": [
{
"Name": "Los Vilos",
"PostCode": "1940000",
"LatLong": "-31.9778,-71.3041"
}
]
},
{
"Name": "Salamanca",
"Code": "04204",
"Places": [
{
"Name": "Salamanca",
"PostCode": "1950000",
"LatLong": "-31.8931,-70.6608"
}
]
}
]
},
{
"Name": "Provincia de Limarí",
"Code": "43",
"Communities": [
{
"Name": "Ovalle",
"Code": "04301",
"Places": [
{
"Name": "Ovalle",
"PostCode": "1840000",
"LatLong": "-30.674,-71.4062"
}
]
},
{
"Name": "Combarbalá",
"Code": "04302",
"Places": [
{
"Name": "Combarbalá",
"PostCode": "1890000",
"LatLong": "-31.1469,-70.9657"
}
]
},
{
"Name": "Monte Patria",
"Code": "04303",
"Places": [
{
"Name": "Monte Patria",
"PostCode": "1880000",
"LatLong": "-30.8352,-70.6509"
}
]
},
{
"Name": "Punitaqui",
"Code": "04304",
"Places": [
{
"Name": "Punitaqui",
"PostCode": "1900000",
"LatLong": "-30.9464,-71.3331"
}
]
},
{
"Name": "Río Hurtado",
"Code": "04305",
"Places": [
{
"Name": "Río Hurtado",
"PostCode": "1870000",
"LatLong": "-30.2667,-70.6667"
}
]
}
]
}
]
},
{
"Name": "Región del Libertador General Bernardo O’Higgins",
"Code": "08",
"Provinces": [
{
"Name": "Provincia de Cachapoal",
"Code": "61",
"Communities": [
{
"Name": "Rancagua",
"Code": "06101",
"Places": [
{
"Name": "Rancagua",
"PostCode": "2820000",
"LatLong": "-34.1261,-70.8166"
}
]
},
{
"Name": "Codegua",
"Code": "06102",
"Places": [
{
"Name": "Codegua",
"PostCode": "2900000",
"LatLong": "-34.0574,-70.5471"
}
]
},
{
"Name": "Coinco",
"Code": "06103",
"Places": [
{
"Name": "Coinco",
"PostCode": "3010000",
"LatLong": "-34.2822,-70.9711"
}
]
},
{
"Name": "Coltauco",
"Code": "06104",
"Places": [
{
"Name": "Coltauco",
"PostCode": "3000000",
"LatLong": "-34.26,-71.0779"
}
]
},
{
"Name": "Doñihue",
"Code": "06105",
"Places": [
{
"Name": "Doñihue",
"PostCode": "3020000",
"LatLong": "-34.197,-70.9236"
}
]
},
{
"Name": "Graneros",
"Code": "06106",
"Places": [
{
"Name": "Graneros",
"PostCode": "2880000",
"LatLong": "-34.0657,-70.747"
}
]
},
{
"Name": "Las Cabras",
"Code": "06107",
"Places": [
{
"Name": "Las Cabras",
"PostCode": "3030000",
"LatLong": "-34.165,-71.3327"
}
]
},
{
"Name": "Machalí",
"Code": "06108",
"Places": [
{
"Name": "Machalí",
"PostCode": "2910000",
"LatLong": "-34.3207,-70.3196"
}
]
},
{
"Name": "Malloa",
"Code": "06109",
"Places": [
{
"Name": "Malloa",
"PostCode": "2950000",
"LatLong": "-34.4762,-70.8734"
}
]
},
{
"Name": "Mostazal",
"Code": "06110",
"Places": [
{
"Name": "Mostazal",
"PostCode": "2890000",
"LatLong": "-33.956,-70.5694"
}
]
},
{
"Name": "Olivar",
"Code": "06111",
"Places": [
{
"Name": "Olivar",
"PostCode": "2920000",
"LatLong": "-34.2116,-70.8201"
}
]
},
{
"Name": "Peumo",
"Code": "06112",
"Places": [
{
"Name": "Peumo",
"PostCode": "2990000",
"LatLong": "-34.3294,-71.2219"
}
]
},
{
"Name": "Pichidegua",
"Code": "06113",
"Places": [
{
"Name": "Pichidegua",
"PostCode": "2980000",
"LatLong": "-34.3712,-71.3394"
}
]
},
{
"Name": "Quinta De Tilcoco",
"Code": "06114",
"Places": [
{
"Name": "Quinta De Tilcoco",
"PostCode": "2960000",
"LatLong": "-34.3592,-70.9982"
}
]
},
{
"Name": "Rengo",
"Code": "06115",
"Places": [
{
"Name": "Rengo",
"PostCode": "2940000",
"LatLong": "-34.4547,-70.7185"
}
]
},
{
"Name": "Requinoa",
"Code": "06116",
"Places": [
{
"Name": "Requinoa",
"PostCode": "2930000",
"LatLong": "-34.335,-70.6591"
}
]
},
{
"Name": "San Vicente",
"Code": "06117",
"Places": [
{
"Name": "San Vicente",
"PostCode": "2970000",
"LatLong": "-34.4778,-71.1233"
}
]
}
]
},
{
"Name": "Provincia de Cardenal Caro",
"Code": "62",
"Communities": [
{
"Name": "Pichilemu",
"Code": "06201",
"Places": [
{
"Name": "Pichilemu",
"PostCode": "3220000",
"LatLong": "-34.3841,-71.9106"
}
]
},
{
"Name": "La Estrella",
"Code": "06202",
"Places": [
{
"Name": "La Estrella",
"PostCode": "3250000",
"LatLong": "-34.2233,-71.6026"
}
]
},
{
"Name": "Litueche",
"Code": "06203",
"Places": [
{
"Name": "Litueche",
"PostCode": "3240000",
"LatLong": "-34.1074,-71.7336"
}
]
},
{
"Name": "Marchihue",
"Code": "06204",
"Places": [
{
"Name": "Marchihue",
"PostCode": "3260000",
"LatLong": "-34.3727,-71.6716"
}
]
},
{
"Name": "Navidad",
"Code": "06205",
"Places": [
{
"Name": "Navidad",
"PostCode": "3230000",
"LatLong": "-34.0123,-71.8203"
}
]
},
{
"Name": "Paredones",
"Code": "06206",
"Places": [
{
"Name": "Paredones",
"PostCode": "3270000",
"LatLong": "-34.6733,-71.9112"
}
]
}
]
},
{
"Name": "Provincia de Colchagua",
"Code": "63",
"Communities": [
{
"Name": "San Fernando",
"Code": "06301",
"Places": [
{
"Name": "San Fernando",
"PostCode": "3070000",
"LatLong": "-34.7433,-70.6033"
}
]
},
{
"Name": "Chépica",
"Code": "06302",
"Places": [
{
"Name": "Chépica",
"PostCode": "3120000",
"LatLong": "-34.7913,-71.3593"
}
]
},
{
"Name": "Chimbarongo",
"Code": "06303",
"Places": [
{
"Name": "Chimbarongo",
"PostCode": "3090000",
"LatLong": "-34.7517,-70.9811"
}
]
},
{
"Name": "Lolol",
"Code": "06304",
"Places": [
{
"Name": "Lolol",
"PostCode": "3140000",
"LatLong": "-34.7684,-71.6484"
}
]
},
{
"Name": "Nancagua",
"Code": "06305",
"Places": [
{
"Name": "Nancagua",
"PostCode": "3110000",
"LatLong": "-34.6678,-71.1919"
}
]
},
{
"Name": "Palmilla",
"Code": "06306",
"Places": [
{
"Name": "Palmilla",
"PostCode": "3160000",
"LatLong": "-34.5282,-71.3529"
}
]
},
{
"Name": "Peralillo",
"Code": "06307",
"Places": [
{
"Name": "Peralillo",
"PostCode": "3170000",
"LatLong": "-34.4662,-71.4967"
}
]
},
{
"Name": "Placilla",
"Code": "06308",
"Places": [
{
"Name": "Placilla",
"PostCode": "3100000",
"LatLong": "-34.6192,-71.0862"
}
]
},
{
"Name": "Pumanque",
"Code": "06309",
"Places": [
{
"Name": "Pumanque",
"PostCode": "3150000",
"LatLong": "-34.5962,-71.6915"
}
]
},
{
"Name": "Santa Cruz",
"Code": "06310",
"Places": [
{
"Name": "Santa Cruz",
"PostCode": "3130000",
"LatLong": "-34.6432,-71.4025"
}
]
}
]
}
]
},
{
"Name": "Región de Magallanes y Antártica Chilena",
"Code": "10",
"Provinces": [
{
"Name": "Provincia de Magallanes",
"Code": "121",
"Communities": [
{
"Name": "Punta Arenas",
"Code": "12101",
"Places": [
{
"Name": "Punta Arenas",
"PostCode": "6200000",
"LatLong": "-53.6415,-72.0385"
}
]
},
{
"Name": "Laguna Blanca",
"Code": "12102",
"Places": [
{
"Name": "Laguna Blanca",
"PostCode": "6250000",
"LatLong": "-52.3294,-71.2398"
}
]
},
{
"Name": "Río Verde",
"Code": "12103",
"Places": [
{
"Name": "Río Verde",
"PostCode": "6240000",
"LatLong": "-52.8467,-72.4633"
}
]
},
{
"Name": "San Gregorio",
"Code": "12104",
"Places": [
{
"Name": "San Gregorio",
"PostCode": "6260000",
"LatLong": "-52.3223,-70.2272"
}
]
}
]
},
{
"Name": "Provincia Antártica Chilena",
"Code": "122",
"Communities": [
{
"Name": "Cabo De Hornos",
"Code": "12201",
"Places": [
{
"Name": "Cabo De Hornos",
"PostCode": "6350000",
"LatLong": "-55.0225,-69.2283"
}
]
},
{
"Name": "Antártica",
"Code": "12202",
"Places": [
{
"Name": "Antártica",
"PostCode": "6360000",
"LatLong": "-75.0009,-71.5931"
}
]
}
]
},
{
"Name": "Provincia de Tierra del Fuego",
"Code": "123",
"Communities": [
{
"Name": "Porvenir",
"Code": "12301",
"Places": [
{
"Name": "Porvenir",
"PostCode": "6300000",
"LatLong": "-53.304,-69.3928"
}
]
},
{
"Name": "Primavera",
"Code": "12302",
"Places": [
{
"Name": "Primavera",
"PostCode": "6310000",
"LatLong": "-52.8202,-69.3335"
}
]
},
{
"Name": "Timaukel",
"Code": "12303",
"Places": [
{
"Name": "Timaukel",
"PostCode": "6320000",
"LatLong": "-54.195,-69.5323"
}
]
}
]
},
{
"Name": "Provincia de Última Esperanza",
"Code": "124",
"Communities": [
{
"Name": "Natales",
"Code": "12401",
"Places": [
{
"Name": "Natales",
"PostCode": "6160000",
"LatLong": "-50.6742,-73.9259"
}
]
},
{
"Name": "Torres Del Paine",
"Code": "12402",
"Places": [
{
"Name": "Torres Del Paine",
"PostCode": "6170000",
"LatLong": "-51.0503,-72.8295"
}
]
}
]
}
]
},
{
"Name": "Región del Maule",
"Code": "11",
"Provinces": [
{
"Name": "Provincia de Talca",
"Code": "71",
"Communities": [
{
"Name": "Talca",
"Code": "07101",
"Places": [
{
"Name": "Talca",
"PostCode": "3460000",
"LatLong": "-35.428,-71.6028"
}
]
},
{
"Name": "Constitución",
"Code": "07102",
"Places": [
{
"Name": "Constitución",
"PostCode": "3560000",
"LatLong": "-35.3631,-72.2762"
}
]
},
{
"Name": "Curepto",
"Code": "07103",
"Places": [
{
"Name": "Curepto",
"PostCode": "3570000",
"LatLong": "-35.1297,-71.9533"
}
]
},
{
"Name": "Empedrado",
"Code": "07104",
"Places": [
{
"Name": "Empedrado",
"PostCode": "3540000",
"LatLong": "-35.6135,-72.2843"
}
]
},
{
"Name": "Maule",
"Code": "07105",
"Places": [
{
"Name": "Maule",
"PostCode": "3530000",
"LatLong": "-35.5085,-71.7126"
}
]
},
{
"Name": "Pelarco",
"Code": "07106",
"Places": [
{
"Name": "Pelarco",
"PostCode": "3500000",
"LatLong": "-35.3832,-71.3506"
}
]
},
{
"Name": "Pencahue",
"Code": "07107",
"Places": [
{
"Name": "Pencahue",
"PostCode": "3550000",
"LatLong": "-35.3277,-71.8171"
}
]
},
{
"Name": "Río Claro",
"Code": "07108",
"Places": [
{
"Name": "Río Claro",
"PostCode": "3510000",
"LatLong": "-35.2609,-71.2695"
}
]
},
{
"Name": "San Clemente",
"Code": "07109",
"Places": [
{
"Name": "San Clemente",
"PostCode": "3520000",
"LatLong": "-35.7121,-70.8485"
}
]
},
{
"Name": "San Rafael",
"Code": "07110",
"Places": [
{
"Name": "San Rafael",
"PostCode": "3490000",
"LatLong": "-35.3019,-71.5011"
}
]
}
]
},
{
"Name": "Provincia de Cauquenes",
"Code": "72",
"Communities": [
{
"Name": "Cauquenes",
"Code": "07201",
"Places": [
{
"Name": "Cauquenes",
"PostCode": "3690000",
"LatLong": "-35.9713,-72.28"
}
]
},
{
"Name": "Chanco",
"Code": "07202",
"Places": [
{
"Name": "Chanco",
"PostCode": "3720000",
"LatLong": "-35.6988,-72.4849"
}
]
},
{
"Name": "Pelluhue",
"Code": "07203",
"Places": [
{
"Name": "Pelluhue",
"PostCode": "3710000",
"LatLong": "-35.9115,-72.6076"
}
]
}
]
},
{
"Name": "Provincia de Curicó",
"Code": "73",
"Communities": [
{
"Name": "Curicó",
"Code": "07301",
"Places": [
{
"Name": "Curicó",
"PostCode": "3340000",
"LatLong": "-35.1991,-70.8957"
}
]
},
{
"Name": "Hualañé",
"Code": "07302",
"Places": [
{
"Name": "Hualañé",
"PostCode": "3400000",
"LatLong": "-34.9525,-71.709"
}
]
},
{
"Name": "Licantén",
"Code": "07303",
"Places": [
{
"Name": "Licantén",
"PostCode": "3410000",
"LatLong": "-34.9743,-72.0604"
}
]
},
{
"Name": "Molina",
"Code": "07304",
"Places": [
{
"Name": "Molina",
"PostCode": "3380000",
"LatLong": "-35.3534,-70.9095"
}
]
},
{
"Name": "Rauco",
"Code": "07305",
"Places": [
{
"Name": "Rauco",
"PostCode": "3430000",
"LatLong": "-34.9382,-71.4264"
}
]
},
{
"Name": "Romeral",
"Code": "07306",
"Places": [
{
"Name": "Romeral",
"PostCode": "3370000",
"LatLong": "-35.0683,-70.7112"
}
]
},
{
"Name": "Sagrada Familia",
"Code": "07307",
"Places": [
{
"Name": "Sagrada Familia",
"PostCode": "3390000",
"LatLong": "-35.1043,-71.4959"
}
]
},
{
"Name": "Teno",
"Code": "07308",
"Places": [
{
"Name": "Teno",
"PostCode": "3360000",
"LatLong": "-34.8879,-71.0224"
}
]
},
{
"Name": "Vichuquén",
"Code": "07309",
"Places": [
{
"Name": "Vichuquén",
"PostCode": "3420000",
"LatLong": "-34.841,-72.0228"
}
]
}
]
},
{
"Name": "Provincia de Linares",
"Code": "74",
"Communities": [
{
"Name": "Linares",
"Code": "07401",
"Places": [
{
"Name": "Linares",
"PostCode": "3580000",
"LatLong": "-35.9581,-71.3321"
}
]
},
{
"Name": "Colbún",
"Code": "07402",
"Places": [
{
"Name": "Colbún",
"PostCode": "3610000",
"LatLong": "-36.0777,-70.9783"
}
]
},
{
"Name": "Longaví",
"Code": "07403",
"Places": [
{
"Name": "Longaví",
"PostCode": "3620000",
"LatLong": "-36.1107,-71.4412"
}
]
},
{
"Name": "Parral",
"Code": "07404",
"Places": [
{
"Name": "Parral",
"PostCode": "3630000",
"LatLong": "-36.2623,-71.645"
}
]
},
{
"Name": "Retiro",
"Code": "07405",
"Places": [
{
"Name": "Retiro",
"PostCode": "3640000",
"LatLong": "-36.0023,-71.8293"
}
]
},
{
"Name": "San Javier",
"Code": "07406",
"Places": [
{
"Name": "San Javier",
"PostCode": "3660000",
"LatLong": "-35.629,-71.9271"
}
]
},
{
"Name": "Villa Alegre",
"Code": "07407",
"Places": [
{
"Name": "Villa Alegre",
"PostCode": "3650000",
"LatLong": "-35.6853,-71.6829"
}
]
},
{
"Name": "Yerbas Buenas",
"Code": "07408",
"Places": [
{
"Name": "Yerbas Buenas",
"PostCode": "3600000",
"LatLong": "-35.6892,-71.5444"
}
]
}
]
}
]
},
{
"Name": "Región Metropolitana",
"Code": "12",
"Provinces": [
{
"Name": "Provincia de Santiago",
"Code": "131",
"Communities": [
{
"Name": "Santiago",
"Code": "13101",
"Places": [
{
"Name": "Santiago",
"PostCode": "8320000",
"LatLong": "-33.4541,-70.656"
}
]
},
{
"Name": "Cerrillos",
"Code": "13102",
"Places": [
{
"Name": "Cerrillos",
"PostCode": "9200000",
"LatLong": "-33.5003,-70.7174"
}
]
},
{
"Name": "Cerro Navia",
"Code": "13103",
"Places": [
{
"Name": "Cerro Navia",
"PostCode": "9080000",
"LatLong": "-33.4228,-70.745"
}
]
},
{
"Name": "Conchalí",
"Code": "13104",
"Places": [
{
"Name": "Conchalí",
"PostCode": "8540000",
"LatLong": "-33.3837,-70.6774"
}
]
},
{
"Name": "El Bosque",
"Code": "13105",
"Places": [
{
"Name": "El Bosque",
"PostCode": "8010000",
"LatLong": "-33.5629,-70.6764"
}
]
},
{
"Name": "Estación Central",
"Code": "13106",
"Places": [
{
"Name": "Estación Central",
"PostCode": "9160000",
"LatLong": "-33.4645,-70.6986"
}
]
},
{
"Name": "Huechuraba",
"Code": "13107",
"Places": [
{
"Name": "Huechuraba",
"PostCode": "8580000",
"LatLong": "-33.3603,-70.6375"
}
]
},
{
"Name": "Independencia",
"Code": "13108",
"Places": [
{
"Name": "Independencia",
"PostCode": "8380000",
"LatLong": "-33.4151,-70.6657"
}
]
},
{
"Name": "La Cisterna",
"Code": "13109",
"Places": [
{
"Name": "La Cisterna",
"PostCode": "7970000",
"LatLong": "-33.5302,-70.6641"
}
]
},
{
"Name": "La Florida",
"Code": "13110",
"Places": [
{
"Name": "La Florida",
"PostCode": "8240000",
"LatLong": "-33.5286,-70.5396"
}
]
},
{
"Name": "La Granja",
"Code": "13111",
"Places": [
{
"Name": "La Granja",
"PostCode": "8780000",
"LatLong": "-33.5354,-70.6223"
}
]
},
{
"Name": "La Pintana",
"Code": "13112",
"Places": [
{
"Name": "La Pintana",
"PostCode": "8820000",
"LatLong": "-33.5843,-70.6376"
}
]
},
{
"Name": "La Reina",
"Code": "13113",
"Places": [
{
"Name": "La Reina",
"PostCode": "7850000",
"LatLong": "-33.4486,-70.5358"
}
]
},
{
"Name": "Las Condes",
"Code": "13114",
"Places": [
{
"Name": "Las Condes",
"PostCode": "7550000",
"LatLong": "-33.4207,-70.5019"
}
]
},
{
"Name": "Lo Barnechea",
"Code": "13115",
"Places": [
{
"Name": "Lo Barnechea",
"PostCode": "7690000",
"LatLong": "-33.2991,-70.3687"
}
]
},
{
"Name": "Lo Espejo",
"Code": "13116",
"Places": [
{
"Name": "Lo Espejo",
"PostCode": "9120000",
"LatLong": "-33.5209,-70.6901"
}
]
},
{
"Name": "Lo Prado",
"Code": "13117",
"Places": [
{
"Name": "Lo Prado",
"PostCode": "8980000",
"LatLong": "-33.4473,-70.7235"
}
]
},
{
"Name": "Macul",
"Code": "13118",
"Places": [
{
"Name": "Macul",
"PostCode": "7810000",
"LatLong": "-33.4902,-70.6011"
}
]
},
{
"Name": "Maipu",
"Code": "13119",
"Places": [
{
"Name": "Maipu",
"PostCode": "9250000",
"LatLong": "-33.5066,-70.8123"
}
]
},
{
"Name": "Ñuñoa",
"Code": "13120",
"Places": [
{
"Name": "Ñuñoa",
"PostCode": "7750000",
"LatLong": "-33.4593,-70.6003"
}
]
},
{
"Name": "Pedro Aguirre Cerda",
"Code": "13121",
"Places": [
{
"Name": "Pedro Aguirre Cerda",
"PostCode": "8460000",
"LatLong": "-33.4919,-70.6762"
}
]
},
{
"Name": "Penalolén",
"Code": "13122",
"Places": [
{
"Name": "Penalolén",
"PostCode": "7910000",
"LatLong": "-33.4862,-70.5249"
}
]
},
{
"Name": "Providencia",
"Code": "13123",
"Places": [
{
"Name": "Providencia",
"PostCode": "7500000",
"LatLong": "-33.4362,-70.609"
}
]
},
{
"Name": "Pudahuel",
"Code": "13124",
"Places": [
{
"Name": "Pudahuel",
"PostCode": "9020000",
"LatLong": "-33.424,-70.8549"
}
]
},
{
"Name": "Quilicura",
"Code": "13125",
"Places": [
{
"Name": "Quilicura",
"PostCode": "8700000",
"LatLong": "-33.3554,-70.7361"
}
]
},
{
"Name": "Quinta Normal",
"Code": "13126",
"Places": [
{
"Name": "Quinta Normal",
"PostCode": "8500000",
"LatLong": "-33.4284,-70.7008"
}
]
},
{
"Name": "Recoleta",
"Code": "13127",
"Places": [
{
"Name": "Recoleta",
"PostCode": "8420000",
"LatLong": "-33.4088,-70.6364"
}
]
},
{
"Name": "Renca",
"Code": "13128",
"Places": [
{
"Name": "Renca",
"PostCode": "8640000",
"LatLong": "-33.4021,-70.7279"
}
]
},
{
"Name": "San Joaquín",
"Code": "13129",
"Places": [
{
"Name": "San Joaquín",
"PostCode": "8940000",
"LatLong": "-33.4963,-70.6288"
}
]
},
{
"Name": "San Miguel",
"Code": "13130",
"Places": [
{
"Name": "San Miguel",
"PostCode": "8900000",
"LatLong": "-33.4991,-70.6517"
}
]
},
{
"Name": "San Ramón",
"Code": "13131",
"Places": [
{
"Name": "San Ramón",
"PostCode": "8860000",
"LatLong": "-33.5314,-70.6422"
}
]
},
{
"Name": "Vitacura",
"Code": "13132",
"Places": [
{
"Name": "Vitacura",
"PostCode": "7630000",
"LatLong": "-33.3799,-70.5724"
}
]
}
]
},
{
"Name": "Provincia de Cordillera",
"Code": "132",
"Communities": [
{
"Name": "Puente Alto",
"Code": "13201",
"Places": [
{
"Name": "Puente Alto",
"PostCode": "8150000",
"LatLong": "-33.591,-70.5575"
}
]
},
{
"Name": "Pirque",
"Code": "13202",
"Places": [
{
"Name": "Pirque",
"PostCode": "9480000",
"LatLong": "-33.7187,-70.5066"
}
]
},
{
"Name": "San Jose De Maipo",
"Code": "13203",
"Places": [
{
"Name": "San Jose De Maipo",
"PostCode": "9460000",
"LatLong": "-33.7048,-70.0969"
}
]
}
]
},
{
"Name": "Provincia de Chacabuco",
"Code": "133",
"Communities": [
{
"Name": "Colina",
"Code": "13301",
"Places": [
{
"Name": "Colina",
"PostCode": "9340000",
"LatLong": "-33.1342,-70.6157"
}
]
},
{
"Name": "Lampa",
"Code": "13302",
"Places": [
{
"Name": "Lampa",
"PostCode": "9380000",
"LatLong": "-33.2778,-70.8748"
}
]
},
{
"Name": "Tiltil",
"Code": "13303",
"Places": [
{
"Name": "Tiltil",
"PostCode": "9420000",
"LatLong": "-33.0624,-70.876"
}
]
}
]
},
{
"Name": "Provincia de Maipo",
"Code": "134",
"Communities": [
{
"Name": "San Bernardo",
"Code": "13401",
"Places": [
{
"Name": "San Bernardo",
"PostCode": "8050000",
"LatLong": "-33.6289,-70.7243"
}
]
},
{
"Name": "Buin",
"Code": "13402",
"Places": [
{
"Name": "Buin",
"PostCode": "9500000",
"LatLong": "-33.7481,-70.7393"
}
]
},
{
"Name": "Calera De Tango",
"Code": "13403",
"Places": [
{
"Name": "Calera De Tango",
"PostCode": "9560000",
"LatLong": "-33.6234,-70.7904"
}
]
},
{
"Name": "Paine",
"Code": "13404",
"Places": [
{
"Name": "Paine",
"PostCode": "9540000",
"LatLong": "-33.8637,-70.7581"
}
]
}
]
},
{
"Name": "Provincia de Melipilla",
"Code": "135",
"Communities": [
{
"Name": "Melipilla",
"Code": "13501",
"Places": [
{
"Name": "Melipilla",
"PostCode": "9580000",
"LatLong": "-33.7439,-71.194"
}
]
},
{
"Name": "Alhue",
"Code": "13502",
"Places": [
{
"Name": "Alhue",
"PostCode": "9650000",
"LatLong": "-34.043,-71.0566"
}
]
},
{
"Name": "Curacaví",
"Code": "13503",
"Places": [
{
"Name": "Curacaví",
"PostCode": "9630000",
"LatLong": "-33.3664,-71.0802"
}
]
},
{
"Name": "María Pinto",
"Code": "13504",
"Places": [
{
"Name": "María Pinto",
"PostCode": "9620000",
"LatLong": "-33.4981,-71.2108"
}
]
},
{
"Name": "San Pedro",
"Code": "13505",
"Places": [
{
"Name": "San Pedro",
"PostCode": "9660000",
"LatLong": "-33.9318,-71.4529"
}
]
}
]
},
{
"Name": "Provincia de Talagante",
"Code": "136",
"Communities": [
{
"Name": "Talagante",
"Code": "13601",
"Places": [
{
"Name": "Talagante",
"PostCode": "9670000",
"LatLong": "-33.6823,-70.8951"
}
]
},
{
"Name": "El Monte",
"Code": "13602",
"Places": [
{
"Name": "El Monte",
"PostCode": "9810000",
"LatLong": "-33.6671,-71.0324"
}
]
},
{
"Name": "Isla De Maipo",
"Code": "13603",
"Places": [
{
"Name": "Isla De Maipo",
"PostCode": "9790000",
"LatLong": "-33.7485,-70.9457"
}
]
},
{
"Name": "Padre Hurtado",
"Code": "13604",
"Places": [
{
"Name": "Padre Hurtado",
"PostCode": "9710000",
"LatLong": "-33.5572,-70.8708"
}
]
},
{
"Name": "Peñaflor",
"Code": "13605",
"Places": [
{
"Name": "Peñaflor",
"PostCode": "9750000",
"LatLong": "-33.6109,-70.894"
}
]
}
]
}
]
},
{
"Name": "Región de los Lagos",
"Code": "14",
"Provinces": [
{
"Name": "Provincia de Llanquihue",
"Code": "101",
"Communities": [
{
"Name": "Puerto Montt",
"Code": "10101",
"Places": [
{
"Name": "Puerto Montt",
"PostCode": "5480000",
"LatLong": "-41.4892,-72.7953"
}
]
},
{
"Name": "Calbuco",
"Code": "10102",
"Places": [
{
"Name": "Calbuco",
"PostCode": "5570000",
"LatLong": "-41.7231,-73.1951"
}
]
},
{
"Name": "Cochamo",
"Code": "10103",
"Places": [
{
"Name": "Cochamo",
"PostCode": "5560000",
"LatLong": "-41.7611,-72.0929"
}
]
},
{
"Name": "Fresia",
"Code": "10104",
"Places": [
{
"Name": "Fresia",
"PostCode": "5600000",
"LatLong": "-41.1544,-73.6065"
}
]
},
{
"Name": "Frutillar",
"Code": "10105",
"Places": [
{
"Name": "Frutillar",
"PostCode": "5620000",
"LatLong": "-41.0872,-73.0956"
}
]
},
{
"Name": "Los Muermos",
"Code": "10106",
"Places": [
{
"Name": "Los Muermos",
"PostCode": "5590000",
"LatLong": "-41.398,-73.5826"
}
]
},
{
"Name": "Llanquihue",
"Code": "10107",
"Places": [
{
"Name": "Llanquihue",
"PostCode": "5610000",
"LatLong": "-41.2381,-73.1396"
}
]
},
{
"Name": "Maullín",
"Code": "10108",
"Places": [
{
"Name": "Maullín",
"PostCode": "5580000",
"LatLong": "-41.6324,-73.5083"
}
]
},
{
"Name": "Puerto Varas",
"Code": "10109",
"Places": [
{
"Name": "Puerto Varas",
"PostCode": "5550000",
"LatLong": "-41.1914,-72.3881"
}
]
}
]
},
{
"Name": "Provincia de Chiloé",
"Code": "102",
"Communities": [
{
"Name": "Castro",
"Code": "10201",
"Places": [
{
"Name": "Castro",
"PostCode": "5700000",
"LatLong": "-42.4741,-73.8041"
}
]
},
{
"Name": "Ancud",
"Code": "10202",
"Places": [
{
"Name": "Ancud",
"PostCode": "5710000",
"LatLong": "-42.0176,-73.8022"
}
]
},
{
"Name": "Chonchi",
"Code": "10203",
"Places": [
{
"Name": "Chonchi",
"PostCode": "5770000",
"LatLong": "-42.6821,-73.9306"
}
]
},
{
"Name": "Curaco De Vélez",
"Code": "10204",
"Places": [
{
"Name": "Curaco De Vélez",
"PostCode": "5740000",
"LatLong": "-42.4268,-73.5787"
}
]
},
{
"Name": "Dalcahue",
"Code": "10205",
"Places": [
{
"Name": "Dalcahue",
"PostCode": "5730000",
"LatLong": "-42.309,-73.8338"
}
]
},
{
"Name": "Puqueldón",
"Code": "10206",
"Places": [
{
"Name": "Puqueldón",
"PostCode": "5760000",
"LatLong": "-42.627,-73.6369"
}
]
},
{
"Name": "Queilen",
"Code": "10207",
"Places": [
{
"Name": "Queilen",
"PostCode": "5780000",
"LatLong": "-42.8557,-73.5644"
}
]
},
{
"Name": "Quellón",
"Code": "10208",
"Places": [
{
"Name": "Quellón",
"PostCode": "5790000",
"LatLong": "-43.1518,-73.9954"
}
]
},
{
"Name": "Quemchi",
"Code": "10209",
"Places": [
{
"Name": "Quemchi",
"PostCode": "5720000",
"LatLong": "-42.1338,-73.5172"
}
]
},
{
"Name": "Quinchao",
"Code": "10210",
"Places": [
{
"Name": "Quinchao",
"PostCode": "5750000",
"LatLong": "-42.6446,-73.2776"
}
]
}
]
},
{
"Name": "Provincia de Osorno",
"Code": "103",
"Communities": [
{
"Name": "Osorno",
"Code": "10301",
"Places": [
{
"Name": "Osorno",
"PostCode": "5290000",
"LatLong": "-40.6108,-73.0877"
}
]
},
{
"Name": "Puerto Octay",
"Code": "10302",
"Places": [
{
"Name": "Puerto Octay",
"PostCode": "5370000",
"LatLong": "-40.9336,-72.5994"
}
]
},
{
"Name": "Purranque",
"Code": "10303",
"Places": [
{
"Name": "Purranque",
"PostCode": "5380000",
"LatLong": "-40.9351,-73.4583"
}
]
},
{
"Name": "Puyehue",
"Code": "10304",
"Places": [
{
"Name": "Puyehue",
"PostCode": "5360000",
"LatLong": "-40.7255,-72.3841"
}
]
},
{
"Name": "Río Negro",
"Code": "10305",
"Places": [
{
"Name": "Río Negro",
"PostCode": "5390000",
"LatLong": "-40.7702,-73.4175"
}
]
},
{
"Name": "San Juan De La Costa",
"Code": "10306",
"Places": [
{
"Name": "San Juan De La Costa",
"PostCode": "5400000",
"LatLong": "-40.5086,-73.5594"
}
]
},
{
"Name": "San Pablo",
"Code": "10307",
"Places": [
{
"Name": "San Pablo",
"PostCode": "5350000",
"LatLong": "-40.4267,-73.1621"
}
]
}
]
},
{
"Name": "Provincia de Palena",
"Code": "104",
"Communities": [
{
"Name": "Chaitén",
"Code": "10401",
"Places": [
{
"Name": "Chaitén",
"PostCode": "5850000",
"LatLong": "-43.0941,-72.5759"
}
]
},
{
"Name": "Futaleufú",
"Code": "10402",
"Places": [
{
"Name": "Futaleufú",
"PostCode": "5870000",
"LatLong": "-43.1811,-72.0071"
}
]
},
{
"Name": "Hualaihue",
"Code": "10403",
"Places": [
{
"Name": "Hualaihue",
"PostCode": "5860000",
"LatLong": "-42.1772,-72.377"
}
]
},
{
"Name": "Palena",
"Code": "10404",
"Places": [
{
"Name": "Palena",
"PostCode": "5880000",
"LatLong": "-43.6824,-71.9833"
}
]
}
]
}
]
},
{
"Name": "Región de Tarapacá",
"Code": "15",
"Provinces": [
{
"Name": "Provincia de Iquique",
"Code": "11",
"Communities": [
{
"Name": "Iquique",
"Code": "01101",
"Places": [
{
"Name": "Iquique",
"PostCode": "1100000",
"LatLong": "-20.9409,-70.0412"
}
]
},
{
"Name": "Alto Hospicio",
"Code": "01107",
"Places": [
{
"Name": "Alto Hospicio",
"PostCode": "1130000",
"LatLong": "-20.1913,-70.0119"
}
]
}
]
},
{
"Name": "Provincia del Tamarugal",
"Code": "14",
"Communities": [
{
"Name": "Pozo Almonte",
"Code": "01401",
"Places": [
{
"Name": "Pozo Almonte",
"PostCode": "1180000",
"LatLong": "-20.7702,-69.5045"
}
]
},
{
"Name": "Camina",
"Code": "01402",
"Places": [
{
"Name": "Camina",
"PostCode": "1150000",
"LatLong": "-19.3737,-69.5056"
}
]
},
{
"Name": "Colchane",
"Code": "01403",
"Places": [
{
"Name": "Colchane",
"PostCode": "1160000",
"LatLong": "-19.3531,-68.847"
}
]
},
{
"Name": "Huara",
"Code": "01404",
"Places": [
{
"Name": "Huara",
"PostCode": "1140000",
"LatLong": "-19.5359,-69.9848"
}
]
},
{
"Name": "Pica",
"Code": "01405",
"Places": [
{
"Name": "Pica",
"PostCode": "1170000",
"LatLong": "-20.4796,-68.9119"
}
]
}
]
}
]
},
{
"Name": "Región de Arica y Parinacota",
"Code": "16",
"Provinces": [
{
"Name": "Provincia de Arica",
"Code": "151",
"Communities": [
{
"Name": "Arica",
"Code": "15101",
"Places": [
{
"Name": "Arica",
"PostCode": "1000000",
"LatLong": "-18.5377,-69.9746"
}
]
},
{
"Name": "Camarones",
"Code": "15102",
"Places": [
{
"Name": "Camarones",
"PostCode": "1040000",
"LatLong": "-18.93,-69.6991"
}
]
}
]
},
{
"Name": "Provincia de Parinacota",
"Code": "152",
"Communities": [
{
"Name": "Putre",
"Code": "15201",
"Places": [
{
"Name": "Putre",
"PostCode": "1070000",
"LatLong": "-18.4287,-69.3116"
}
]
},
{
"Name": "General Lagos",
"Code": "15202",
"Places": [
{
"Name": "General Lagos",
"PostCode": "1080000",
"LatLong": "-17.8286,-69.5749"
}
]
}
]
}
]
},
{
"Name": "Región de los Ríos",
"Code": "17",
"Provinces": [
{
"Name": "Provincia de Valdivia",
"Code": "141",
"Communities": [
{
"Name": "Valdivia",
"Code": "14101",
"Places": [
{
"Name": "Valdivia",
"PostCode": "5090000",
"LatLong": "-39.8178,-73.1751"
}
]
},
{
"Name": "Corral",
"Code": "14102",
"Places": [
{
"Name": "Corral",
"PostCode": "5190000",
"LatLong": "-39.9849,-73.3715"
}
]
},
{
"Name": "Lanco",
"Code": "14103",
"Places": [
{
"Name": "Lanco",
"PostCode": "5160000",
"LatLong": "-39.5121,-72.6215"
}
]
},
{
"Name": "Los Lagos",
"Code": "14104",
"Places": [
{
"Name": "Los Lagos",
"PostCode": "5170000",
"LatLong": "-39.8784,-72.5546"
}
]
},
{
"Name": "Mafil",
"Code": "14105",
"Places": [
{
"Name": "Mafil",
"PostCode": "5200000",
"LatLong": "-39.692,-72.8638"
}
]
},
{
"Name": "Mariquina",
"Code": "14106",
"Places": [
{
"Name": "Mariquina",
"PostCode": "5150000",
"LatLong": "-39.5131,-73.0196"
}
]
},
{
"Name": "Paillaco",
"Code": "14107",
"Places": [
{
"Name": "Paillaco",
"PostCode": "5230000",
"LatLong": "-40.0741,-72.8436"
}
]
},
{
"Name": "Panguipulli",
"Code": "14108",
"Places": [
{
"Name": "Panguipulli",
"PostCode": "5210000",
"LatLong": "-39.7146,-72.0299"
}
]
}
]
},
{
"Name": "Provincia del Ranco",
"Code": "142",
"Communities": [
{
"Name": "La Unión",
"Code": "14201",
"Places": [
{
"Name": "La Unión",
"PostCode": "5220000",
"LatLong": "-40.2013,-73.2223"
}
]
},
{
"Name": "Futrono",
"Code": "14202",
"Places": [
{
"Name": "Futrono",
"PostCode": "5180000",
"LatLong": "-40.1189,-72.1154"
}
]
},
{
"Name": "Lago Ranco",
"Code": "14203",
"Places": [
{
"Name": "Lago Ranco",
"PostCode": "5250000",
"LatLong": "-40.3732,-72.1658"
}
]
},
{
"Name": "Río Bueno",
"Code": "14204",
"Places": [
{
"Name": "Río Bueno",
"PostCode": "5240000",
"LatLong": "-40.4959,-72.5357"
}
]
}
]
}
]
}
]