{
"Structure": "State/Province/Community/Place",
"States": [
{
"Name": "Guyane",
"Code": "GF",
"Provinces": [
{
"Name": "Guyane",
"Code": "973",
"Communities": [
{
"Name": "Arrondissement de Cayenne",
"Code": "9731",
"Places": [
{
"Name": "Cayenne",
"PostCode": "97300",
"LatLong": "4.9333,-52.3333"
},
{
"Name": "Cayenne",
"PostCode": "97305 CEDEX",
"LatLong": "4.9333,-52.3333"
},
{
"Name": "Cayenne",
"PostCode": "97306 CEDEX",
"LatLong": "4.9333,-52.3333"
},
{
"Name": "Cayenne",
"PostCode": "97307 CEDEX",
"LatLong": "4.9333,-52.3333"
},
{
"Name": "Cayenne",
"PostCode": "97308 CEDEX",
"LatLong": "4.9333,-52.3333"
},
{
"Name": "Cayenne",
"PostCode": "97309 CEDEX",
"LatLong": "4.9333,-52.3333"
},
{
"Name": "Kourou",
"PostCode": "97310",
"LatLong": "5.1628,-52.6427"
},
{
"Name": "Roura",
"PostCode": "97311",
"LatLong": "4.7252,-52.3262"
},
{
"Name": "Saint-Élie",
"PostCode": "97312",
"LatLong": "4.8243,-53.2882"
},
{
"Name": "Saint-Georges",
"PostCode": "97313",
"LatLong": "3.9,-51.8"
},
{
"Name": "Sinnamary",
"PostCode": "97315",
"LatLong": "5.3768,-52.9568"
},
{
"Name": "Cayenne",
"PostCode": "97321 CEDEX",
"LatLong": "4.9333,-52.3333"
},
{
"Name": "Cayenne",
"PostCode": "97322 CEDEX",
"LatLong": "4.9333,-52.3333"
},
{
"Name": "Cayenne",
"PostCode": "97323 CEDEX",
"LatLong": "4.9333,-52.3333"
},
{
"Name": "Cayenne",
"PostCode": "97324 CEDEX",
"LatLong": "4.9333,-52.3333"
},
{
"Name": "Cayenne",
"PostCode": "97325 CEDEX",
"LatLong": "4.9333,-52.3333"
},
{
"Name": "Cayenne",
"PostCode": "97326 CEDEX",
"LatLong": "4.9333,-52.3333"
},
{
"Name": "Cayenne",
"PostCode": "97327 CEDEX",
"LatLong": "4.9333,-52.3333"
},
{
"Name": "Cayenne",
"PostCode": "97328 CEDEX",
"LatLong": "4.9333,-52.3333"
},
{
"Name": "Cayenne",
"PostCode": "97329 CEDEX",
"LatLong": "4.9333,-52.3333"
},
{
"Name": "Camopi",
"PostCode": "97330",
"LatLong": "3.1689,-52.3353"
},
{
"Name": "Cayenne",
"PostCode": "97331 CEDEX",
"LatLong": "4.9333,-52.3333"
},
{
"Name": "Cayenne",
"PostCode": "97332 CEDEX",
"LatLong": "4.9333,-52.3333"
},
{
"Name": "Cayenne",
"PostCode": "97333 CEDEX",
"LatLong": "4.9333,-52.3333"
},
{
"Name": "Cayenne",
"PostCode": "97334 CEDEX",
"LatLong": "4.9333,-52.3333"
},
{
"Name": "Cayenne",
"PostCode": "97335 CEDEX",
"LatLong": "4.9333,-52.3333"
},
{
"Name": "Cayenne",
"PostCode": "97336 CEDEX",
"LatLong": "4.9333,-52.3333"
},
{
"Name": "Cayenne",
"PostCode": "97337 CEDEX",
"LatLong": "4.9333,-52.3333"
},
{
"Name": "Cayenne",
"PostCode": "97338 CEDEX",
"LatLong": "4.9333,-52.3333"
},
{
"Name": "Cayenne",
"PostCode": "97339 CEDEX",
"LatLong": "4.9333,-52.3333"
},
{
"Name": "Cayenne",
"PostCode": "97341 CEDEX",
"LatLong": "4.9333,-52.3333"
},
{
"Name": "Cayenne",
"PostCode": "97342 CEDEX",
"LatLong": "4.9333,-52.3333"
},
{
"Name": "Cayenne",
"PostCode": "97343 CEDEX",
"LatLong": "4.9333,-52.3333"
},
{
"Name": "Cayenne",
"PostCode": "97344 CEDEX",
"LatLong": "4.9333,-52.3333"
},
{
"Name": "Cayenne",
"PostCode": "97345 CEDEX",
"LatLong": "4.9333,-52.3333"
},
{
"Name": "Cayenne",
"PostCode": "97346 CEDEX",
"LatLong": "4.9333,-52.3333"
},
{
"Name": "Cayenne",
"PostCode": "97347 CEDEX",
"LatLong": "4.9333,-52.3333"
},
{
"Name": "Iracoubo",
"PostCode": "97350",
"LatLong": "5.4787,-53.2052"
},
{
"Name": "Matoury",
"PostCode": "97351",
"LatLong": "4.8487,-52.3257"
},
{
"Name": "Roura",
"PostCode": "97352",
"LatLong": "4.7252,-52.3262"
},
{
"Name": "Régina",
"PostCode": "97353",
"LatLong": "4.313,-52.1308"
},
{
"Name": "Rémire-Montjoly",
"PostCode": "97354",
"LatLong": "4.9167,-52.2667"
},
{
"Name": "Macouria",
"PostCode": "97355",
"LatLong": "5.0136,-52.4739"
},
{
"Name": "Montsinéry-Tonnegrande",
"PostCode": "97356",
"LatLong": "4.9,-52.5"
},
{
"Name": "Matoury",
"PostCode": "97357 CEDEX",
"LatLong": "4.8487,-52.3257"
},
{
"Name": "Kourou",
"PostCode": "97371 CEDEX",
"LatLong": "5.1628,-52.6427"
},
{
"Name": "Kourou",
"PostCode": "97372 CEDEX",
"LatLong": "5.1628,-52.6427"
},
{
"Name": "Kourou",
"PostCode": "97373 CEDEX",
"LatLong": "5.1628,-52.6427"
},
{
"Name": "Kourou",
"PostCode": "97374 CEDEX",
"LatLong": "5.1628,-52.6427"
},
{
"Name": "Kourou",
"PostCode": "97375 CEDEX",
"LatLong": "5.1628,-52.6427"
},
{
"Name": "Kourou",
"PostCode": "97376 CEDEX",
"LatLong": "5.1628,-52.6427"
},
{
"Name": "Kourou",
"PostCode": "97377 CEDEX",
"LatLong": "5.1628,-52.6427"
},
{
"Name": "Kourou",
"PostCode": "97378 CEDEX",
"LatLong": "5.1628,-52.6427"
},
{
"Name": "Kourou",
"PostCode": "97379 CEDEX",
"LatLong": "5.1628,-52.6427"
},
{
"Name": "Ouanary",
"PostCode": "97380",
"LatLong": "4.2087,-51.6741"
},
{
"Name": "Kourou",
"PostCode": "97381 CEDEX",
"LatLong": "5.1628,-52.6427"
},
{
"Name": "Kourou",
"PostCode": "97382 CEDEX",
"LatLong": "5.1628,-52.6427"
},
{
"Name": "Kourou",
"PostCode": "97383 CEDEX",
"LatLong": "5.1628,-52.6427"
},
{
"Name": "Kourou",
"PostCode": "97384 CEDEX",
"LatLong": "5.1628,-52.6427"
},
{
"Name": "Kourou",
"PostCode": "97387 CEDEX",
"LatLong": "5.1628,-52.6427"
},
{
"Name": "Kourou",
"PostCode": "97388 CEDEX",
"LatLong": "5.1628,-52.6427"
},
{
"Name": "Kourou",
"PostCode": "97389 CEDEX",
"LatLong": "5.1628,-52.6427"
},
{
"Name": "Régina",
"PostCode": "97390",
"LatLong": "4.313,-52.1308"
},
{
"Name": "Cayenne",
"PostCode": "97391 CEDEX 2",
"LatLong": "4.9333,-52.3333"
},
{
"Name": "Cayenne",
"PostCode": "97392 CEDEX 2",
"LatLong": "4.9333,-52.3333"
},
{
"Name": "Rémire-Montjoly",
"PostCode": "97394 CEDEX",
"LatLong": "4.9167,-52.2667"
},
{
"Name": "Cayenne",
"PostCode": "97399 CEDEX",
"LatLong": "4.9333,-52.3333"
}
]
},
{
"Name": "Arrondissement de Saint-Laurent-du-Maroni",
"Code": "9732",
"Places": [
{
"Name": "Saül",
"PostCode": "97314",
"LatLong": "3.6231,-53.2092"
},
{
"Name": "Papaïchton",
"PostCode": "97316",
"LatLong": "3.8058,-54.1446"
},
{
"Name": "Apatou",
"PostCode": "97317",
"LatLong": "5.1553,-54.3431"
},
{
"Name": "Mana",
"PostCode": "97318",
"LatLong": "5.6677,-53.7783"
},
{
"Name": "Awala-Yalimapo",
"PostCode": "97319",
"LatLong": "5.7364,-53.9087"
},
{
"Name": "Saint-Laurent-du-Maroni",
"PostCode": "97320",
"LatLong": "5.501,-54.0294"
},
{
"Name": "Grand-Santi",
"PostCode": "97340",
"LatLong": "4.2729,-54.3815"
},
{
"Name": "Mana",
"PostCode": "97360",
"LatLong": "5.6677,-53.7783"
},
{
"Name": "Maripasoula",
"PostCode": "97370",
"LatLong": "3.6416,-54.0317"
},
{
"Name": "Saint-Laurent-du-Maroni",
"PostCode": "97393 CEDEX",
"LatLong": "5.501,-54.0294"
}
]
}
]
}
]
}
]
}