[
{
"Name": "Guadeloupe",
"Code": "GP",
"Provinces": [
{
"Name": "Guadeloupe",
"Code": "971",
"Communities": [
{
"Name": "Arrondissement de la Basse-Terre",
"Code": "9711",
"Places": [
{
"Name": "Baie-Mahault",
"PostCode": "97122",
"LatLong": "16.2674,-61.5854"
},
{
"Name": "Baillif",
"PostCode": "97123",
"LatLong": "16.0202,-61.7463"
},
{
"Name": "Basse-Terre",
"PostCode": "97023 CEDEX",
"LatLong": "15.9985,-61.7255"
},
{
"Name": "Basse-Terre",
"PostCode": "97029 CEDEX",
"LatLong": "15.9985,-61.7255"
},
{
"Name": "Basse-Terre",
"PostCode": "97100",
"LatLong": "15.9985,-61.7255"
},
{
"Name": "Basse-Terre",
"PostCode": "97101 CEDEX",
"LatLong": "15.9985,-61.7255"
},
{
"Name": "Basse-Terre",
"PostCode": "97102 CEDEX",
"LatLong": "15.9985,-61.7255"
},
{
"Name": "Basse-Terre",
"PostCode": "97103 CEDEX",
"LatLong": "15.9985,-61.7255"
},
{
"Name": "Basse-Terre",
"PostCode": "97104 CEDEX",
"LatLong": "15.9985,-61.7255"
},
{
"Name": "Basse-Terre",
"PostCode": "97105 CEDEX",
"LatLong": "15.9985,-61.7255"
},
{
"Name": "Basse-Terre",
"PostCode": "97106 CEDEX",
"LatLong": "15.9985,-61.7255"
},
{
"Name": "Basse-Terre",
"PostCode": "97107 CEDEX",
"LatLong": "15.9985,-61.7255"
},
{
"Name": "Basse-Terre",
"PostCode": "97108 CEDEX",
"LatLong": "15.9985,-61.7255"
},
{
"Name": "Basse-Terre",
"PostCode": "97109 CEDEX",
"LatLong": "15.9985,-61.7255"
},
{
"Name": "Bouillante",
"PostCode": "97125",
"LatLong": "16.1304,-61.7692"
},
{
"Name": "Capesterre-Belle-Eau",
"PostCode": "97130",
"LatLong": "16.0432,-61.566"
},
{
"Name": "Deshaies",
"PostCode": "97126",
"LatLong": "16.3065,-61.7942"
},
{
"Name": "Gourbeyre",
"PostCode": "97113",
"LatLong": "15.9938,-61.6914"
},
{
"Name": "Goyave",
"PostCode": "97128",
"LatLong": "16.1352,-61.574"
},
{
"Name": "Lamentin",
"PostCode": "97129",
"LatLong": "16.271,-61.6312"
},
{
"Name": "Petit-Bourg",
"PostCode": "97082 CEDEX",
"LatLong": "16.1914,-61.5916"
},
{
"Name": "Petit-Bourg",
"PostCode": "97170",
"LatLong": "16.1914,-61.5916"
},
{
"Name": "Pointe-Noire",
"PostCode": "97116",
"LatLong": "16.2309,-61.7878"
},
{
"Name": "Saint-Claude",
"PostCode": "97120",
"LatLong": "16.0241,-61.7022"
},
{
"Name": "Sainte-Rose",
"PostCode": "97115",
"LatLong": "16.3324,-61.6979"
},
{
"Name": "Terre-de-Bas",
"PostCode": "97136",
"LatLong": "15.8501,-61.6442"
},
{
"Name": "Terre-de-Haut",
"PostCode": "97137",
"LatLong": "15.8663,-61.5827"
},
{
"Name": "Trois-Rivières",
"PostCode": "97114",
"LatLong": "15.9757,-61.6451"
},
{
"Name": "Vieux-Fort",
"PostCode": "97141",
"LatLong": "15.9513,-61.6991"
},
{
"Name": "Vieux-Habitants",
"PostCode": "97119",
"LatLong": "16.0589,-61.766"
}
]
},
{
"Name": "Arrondissement de Pointe-à-Pitre",
"Code": "9712",
"Places": [
{
"Name": "Anse-Bertrand",
"PostCode": "97121",
"LatLong": "16.4721,-61.5078"
},
{
"Name": "Capesterre-de-Marie-Galante",
"PostCode": "97140",
"LatLong": "15.8833,-61.2167"
},
{
"Name": "Grand-Bourg",
"PostCode": "97112",
"LatLong": "15.8835,-61.3148"
},
{
"Name": "Jarry",
"PostCode": "97084 CEDEX",
"LatLong": "16.2359,-61.558"
},
{
"Name": "Jarry",
"PostCode": "97085 CEDEX",
"LatLong": "16.2359,-61.558"
},
{
"Name": "Jarry",
"PostCode": "97086 CEDEX",
"LatLong": "16.2359,-61.558"
},
{
"Name": "Jarry",
"PostCode": "97187 CEDEX",
"LatLong": "16.2359,-61.558"
},
{
"Name": "Jarry",
"PostCode": "97188 CEDEX",
"LatLong": "16.2359,-61.558"
},
{
"Name": "Jarry",
"PostCode": "97189 CEDEX",
"LatLong": "16.2359,-61.558"
},
{
"Name": "Jarry",
"PostCode": "97191 CEDEX",
"LatLong": "16.2359,-61.558"
},
{
"Name": "Jarry",
"PostCode": "97192 CEDEX",
"LatLong": "16.2359,-61.558"
},
{
"Name": "Jarry",
"PostCode": "97193 CEDEX",
"LatLong": "16.2359,-61.558"
},
{
"Name": "Jarry",
"PostCode": "97194 CEDEX",
"LatLong": "16.2359,-61.558"
},
{
"Name": "Jarry",
"PostCode": "97195 CEDEX",
"LatLong": "16.2359,-61.558"
},
{
"Name": "Jarry",
"PostCode": "97196 CEDEX",
"LatLong": "16.2359,-61.558"
},
{
"Name": "Jarry",
"PostCode": "97197 CEDEX",
"LatLong": "16.2359,-61.558"
},
{
"Name": "Jarry",
"PostCode": "97198 CEDEX",
"LatLong": "16.2359,-61.558"
},
{
"Name": "Jarry",
"PostCode": "97199 CEDEX",
"LatLong": "16.2359,-61.558"
},
{
"Name": "La Désirade",
"PostCode": "97127",
"LatLong": "16.3167,-61.0333"
},
{
"Name": "Le Gosier",
"PostCode": "97190",
"LatLong": "16.2069,-61.4933"
},
{
"Name": "Le Moule",
"PostCode": "97160",
"LatLong": "16.3332,-61.3473"
},
{
"Name": "Les Abymes",
"PostCode": "97001 CEDEX",
"LatLong": "16.271,-61.5045"
},
{
"Name": "Les Abymes",
"PostCode": "97009 CEDEX",
"LatLong": "16.271,-61.5045"
},
{
"Name": "Les Abymes",
"PostCode": "97139",
"LatLong": "16.271,-61.5045"
},
{
"Name": "Les Abymes",
"PostCode": "97142",
"LatLong": "16.271,-61.5045"
},
{
"Name": "Les Abymes",
"PostCode": "97175 CEDEX",
"LatLong": "16.271,-61.5045"
},
{
"Name": "Les Abymes",
"PostCode": "97176 CEDEX",
"LatLong": "16.271,-61.5045"
},
{
"Name": "Les Abymes",
"PostCode": "97177 CEDEX",
"LatLong": "16.271,-61.5045"
},
{
"Name": "Les Abymes",
"PostCode": "97178 CEDEX",
"LatLong": "16.271,-61.5045"
},
{
"Name": "Les Abymes",
"PostCode": "97181 CEDEX",
"LatLong": "16.271,-61.5045"
},
{
"Name": "Les Abymes",
"PostCode": "97182 CEDEX",
"LatLong": "16.271,-61.5045"
},
{
"Name": "Les Abymes",
"PostCode": "97183 CEDEX",
"LatLong": "16.271,-61.5045"
},
{
"Name": "Les Abymes",
"PostCode": "97184 CEDEX",
"LatLong": "16.271,-61.5045"
},
{
"Name": "Les Abymes",
"PostCode": "97185 CEDEX",
"LatLong": "16.271,-61.5045"
},
{
"Name": "Les Abymes",
"PostCode": "97186 CEDEX",
"LatLong": "16.271,-61.5045"
},
{
"Name": "Morne-à-l'Eau",
"PostCode": "97111",
"LatLong": "16.3334,-61.4588"
},
{
"Name": "Petit-Canal",
"PostCode": "97131",
"LatLong": "16.3784,-61.4879"
},
{
"Name": "Pointe-à-Pitre",
"PostCode": "97002 CEDEX",
"LatLong": "16.2422,-61.5343"
},
{
"Name": "Pointe-à-Pitre",
"PostCode": "97003 CEDEX",
"LatLong": "16.2422,-61.5343"
},
{
"Name": "Pointe-à-Pitre",
"PostCode": "97004 CEDEX",
"LatLong": "16.2422,-61.5343"
},
{
"Name": "Pointe-à-Pitre",
"PostCode": "97005 CEDEX",
"LatLong": "16.2422,-61.5343"
},
{
"Name": "Pointe-à-Pitre",
"PostCode": "97006 CEDEX",
"LatLong": "16.2422,-61.5343"
},
{
"Name": "Pointe-à-Pitre",
"PostCode": "97007 CEDEX",
"LatLong": "16.2422,-61.5343"
},
{
"Name": "Pointe-à-Pitre",
"PostCode": "97008 CEDEX",
"LatLong": "16.2422,-61.5343"
},
{
"Name": "Pointe-à-Pitre",
"PostCode": "97010 CEDEX",
"LatLong": "16.2422,-61.5343"
},
{
"Name": "Pointe-à-Pitre",
"PostCode": "97011 CEDEX",
"LatLong": "16.2422,-61.5343"
},
{
"Name": "Pointe-à-Pitre",
"PostCode": "97019 CEDEX",
"LatLong": "16.2422,-61.5343"
},
{
"Name": "Pointe-à-Pitre",
"PostCode": "97110",
"LatLong": "16.2422,-61.5343"
},
{
"Name": "Pointe-à-Pitre",
"PostCode": "97151 CEDEX",
"LatLong": "16.2422,-61.5343"
},
{
"Name": "Pointe-à-Pitre",
"PostCode": "97152 CEDEX",
"LatLong": "16.2422,-61.5343"
},
{
"Name": "Pointe-à-Pitre",
"PostCode": "97153 CEDEX",
"LatLong": "16.2422,-61.5343"
},
{
"Name": "Pointe-à-Pitre",
"PostCode": "97154 CEDEX",
"LatLong": "16.2422,-61.5343"
},
{
"Name": "Pointe-à-Pitre",
"PostCode": "97155 CEDEX",
"LatLong": "16.2422,-61.5343"
},
{
"Name": "Pointe-à-Pitre",
"PostCode": "97156 CEDEX",
"LatLong": "16.2422,-61.5343"
},
{
"Name": "Pointe-à-Pitre",
"PostCode": "97157 CEDEX",
"LatLong": "16.2422,-61.5343"
},
{
"Name": "Pointe-à-Pitre",
"PostCode": "97158 CEDEX",
"LatLong": "16.2422,-61.5343"
},
{
"Name": "Pointe-à-Pitre",
"PostCode": "97159 CEDEX",
"LatLong": "16.2422,-61.5343"
},
{
"Name": "Pointe-à-Pitre",
"PostCode": "97161 CEDEX",
"LatLong": "16.2422,-61.5343"
},
{
"Name": "Pointe-à-Pitre",
"PostCode": "97162 CEDEX",
"LatLong": "16.2422,-61.5343"
},
{
"Name": "Pointe-à-Pitre",
"PostCode": "97163 CEDEX",
"LatLong": "16.2422,-61.5343"
},
{
"Name": "Pointe-à-Pitre",
"PostCode": "97164 CEDEX",
"LatLong": "16.2422,-61.5343"
},
{
"Name": "Pointe-à-Pitre",
"PostCode": "97165 CEDEX",
"LatLong": "16.2422,-61.5343"
},
{
"Name": "Pointe-à-Pitre",
"PostCode": "97166 CEDEX",
"LatLong": "16.2422,-61.5343"
},
{
"Name": "Pointe-à-Pitre",
"PostCode": "97167 CEDEX",
"LatLong": "16.2422,-61.5343"
},
{
"Name": "Pointe-à-Pitre",
"PostCode": "97168 CEDEX",
"LatLong": "16.2422,-61.5343"
},
{
"Name": "Pointe-à-Pitre",
"PostCode": "97169 CEDEX",
"LatLong": "16.2422,-61.5343"
},
{
"Name": "Pointe-à-Pitre",
"PostCode": "97171 CEDEX",
"LatLong": "16.2422,-61.5343"
},
{
"Name": "Pointe-à-Pitre",
"PostCode": "97172 CEDEX",
"LatLong": "16.2422,-61.5343"
},
{
"Name": "Pointe-à-Pitre",
"PostCode": "97173 CEDEX",
"LatLong": "16.2422,-61.5343"
},
{
"Name": "Pointe-à-Pitre",
"PostCode": "97174 CEDEX",
"LatLong": "16.2422,-61.5343"
},
{
"Name": "Pointe-à-Pitre",
"PostCode": "97179 CEDEX",
"LatLong": "16.2422,-61.5343"
},
{
"Name": "Port-Louis",
"PostCode": "97117",
"LatLong": "16.419,-61.5313"
},
{
"Name": "Sainte-Anne",
"PostCode": "97180",
"LatLong": "16.2264,-61.3792"
},
{
"Name": "Saint-François",
"PostCode": "97118",
"LatLong": "16.2526,-61.2741"
},
{
"Name": "Saint-Louis",
"PostCode": "97134",
"LatLong": "15.9549,-61.3178"
}
]
}
]
}
]
}
]