{
 "Structure": "Province/Place",
 "Provinces": [
  {
   "Name": "Isle of Man",
   "Places": [
    {
     "Name": "Douglas",
     "PostCode": "IM1",
     "LatLong": "54.1515,-4.4819"
    },
    {
     "Name": "Onchan",
     "PostCode": "IM3",
     "LatLong": "54.173,-4.447"
    },
    {
     "Name": "Baldrine",
     "PostCode": "IM4",
     "LatLong": "54.1929,-4.4832"
    },
    {
     "Name": "Baldwin",
     "PostCode": "IM4",
     "LatLong": "54.1929,-4.4832"
    },
    {
     "Name": "Quine's Hill",
     "PostCode": "IM4",
     "LatLong": "54.1929,-4.4832"
    },
    {
     "Name": "Stuggadhoo",
     "PostCode": "IM4",
     "LatLong": "54.1929,-4.4832"
    },
    {
     "Name": "Garth",
     "PostCode": "IM4",
     "LatLong": "54.1929,-4.4832"
    },
    {
     "Name": "Laxey",
     "PostCode": "IM4",
     "LatLong": "54.1929,-4.4832"
    },
    {
     "Name": "Glen Vine",
     "PostCode": "IM4",
     "LatLong": "54.1929,-4.4832"
    },
    {
     "Name": "Foxdale",
     "PostCode": "IM4",
     "LatLong": "54.1929,-4.4832"
    },
    {
     "Name": "Eairy",
     "PostCode": "IM4",
     "LatLong": "54.1929,-4.4832"
    },
    {
     "Name": "Hillberry",
     "PostCode": "IM4",
     "LatLong": "54.1929,-4.4832"
    },
    {
     "Name": "Newtown",
     "PostCode": "IM4",
     "LatLong": "54.1929,-4.4832"
    },
    {
     "Name": "Ballacannell",
     "PostCode": "IM4",
     "LatLong": "54.1929,-4.4832"
    },
    {
     "Name": "Lambfell Moar",
     "PostCode": "IM4",
     "LatLong": "54.1929,-4.4832"
    },
    {
     "Name": "Crosby",
     "PostCode": "IM4",
     "LatLong": "54.1929,-4.4832"
    },
    {
     "Name": "Ballaveare",
     "PostCode": "IM4",
     "LatLong": "54.1929,-4.4832"
    },
    {
     "Name": "Strang",
     "PostCode": "IM4",
     "LatLong": "54.1929,-4.4832"
    },
    {
     "Name": "Braaid",
     "PostCode": "IM4",
     "LatLong": "54.1929,-4.4832"
    },
    {
     "Name": "Injebreck",
     "PostCode": "IM4",
     "LatLong": "54.1929,-4.4832"
    },
    {
     "Name": "Ballig",
     "PostCode": "IM4",
     "LatLong": "54.1929,-4.4832"
    },
    {
     "Name": "St John's",
     "PostCode": "IM4",
     "LatLong": "54.1929,-4.4832"
    },
    {
     "Name": "Union Mills",
     "PostCode": "IM4",
     "LatLong": "54.1929,-4.4832"
    },
    {
     "Name": "Dalby",
     "PostCode": "IM5",
     "LatLong": "54.1694,-4.7276"
    },
    {
     "Name": "Knocksharry",
     "PostCode": "IM5",
     "LatLong": "54.1694,-4.7276"
    },
    {
     "Name": "Glenmaye",
     "PostCode": "IM5",
     "LatLong": "54.1694,-4.7276"
    },
    {
     "Name": "Knockaloe Moar",
     "PostCode": "IM5",
     "LatLong": "54.1694,-4.7276"
    },
    {
     "Name": "Patrick",
     "PostCode": "IM5",
     "LatLong": "54.1694,-4.7276"
    },
    {
     "Name": "Peel",
     "PostCode": "IM5",
     "LatLong": "54.1694,-4.7276"
    },
    {
     "Name": "Ballagyr",
     "PostCode": "IM5",
     "LatLong": "54.1694,-4.7276"
    },
    {
     "Name": "Barregarrow",
     "PostCode": "IM6",
     "LatLong": "54.2801,-4.5858"
    },
    {
     "Name": "Orrisdale",
     "PostCode": "IM6",
     "LatLong": "54.2801,-4.5858"
    },
    {
     "Name": "Cronk-y-Voddy",
     "PostCode": "IM6",
     "LatLong": "54.2801,-4.5858"
    },
    {
     "Name": "Kirk Michael",
     "PostCode": "IM6",
     "LatLong": "54.2801,-4.5858"
    },
    {
     "Name": "Little London",
     "PostCode": "IM6",
     "LatLong": "54.2801,-4.5858"
    },
    {
     "Name": "Ballacarnane Beg",
     "PostCode": "IM6",
     "LatLong": "54.2801,-4.5858"
    },
    {
     "Name": "Shoughlaige-e-Caine",
     "PostCode": "IM6",
     "LatLong": "54.2801,-4.5858"
    },
    {
     "Name": "Jurby East",
     "PostCode": "IM7",
     "LatLong": "54.3815,-4.4273"
    },
    {
     "Name": "Churchtown",
     "PostCode": "IM7",
     "LatLong": "54.3815,-4.4273"
    },
    {
     "Name": "Bride",
     "PostCode": "IM7",
     "LatLong": "54.3815,-4.4273"
    },
    {
     "Name": "Dhoon",
     "PostCode": "IM7",
     "LatLong": "54.3815,-4.4273"
    },
    {
     "Name": "Port e Vullen",
     "PostCode": "IM7",
     "LatLong": "54.3815,-4.4273"
    },
    {
     "Name": "Maughold",
     "PostCode": "IM7",
     "LatLong": "54.3815,-4.4273"
    },
    {
     "Name": "Sulby",
     "PostCode": "IM7",
     "LatLong": "54.3815,-4.4273"
    },
    {
     "Name": "St Judes",
     "PostCode": "IM7",
     "LatLong": "54.3815,-4.4273"
    },
    {
     "Name": "Sartfield",
     "PostCode": "IM7",
     "LatLong": "54.3815,-4.4273"
    },
    {
     "Name": "Dhowin",
     "PostCode": "IM7",
     "LatLong": "54.3815,-4.4273"
    },
    {
     "Name": "Glen Auldyn",
     "PostCode": "IM7",
     "LatLong": "54.3815,-4.4273"
    },
    {
     "Name": "Corrany",
     "PostCode": "IM7",
     "LatLong": "54.3815,-4.4273"
    },
    {
     "Name": "Andreas",
     "PostCode": "IM7",
     "LatLong": "54.3815,-4.4273"
    },
    {
     "Name": "Dhoor",
     "PostCode": "IM7",
     "LatLong": "54.3815,-4.4273"
    },
    {
     "Name": "The Lhen",
     "PostCode": "IM7",
     "LatLong": "54.3815,-4.4273"
    },
    {
     "Name": "Ravensdale",
     "PostCode": "IM7",
     "LatLong": "54.3815,-4.4273"
    },
    {
     "Name": "Ballajora",
     "PostCode": "IM7",
     "LatLong": "54.3815,-4.4273"
    },
    {
     "Name": "Regaby",
     "PostCode": "IM7",
     "LatLong": "54.3815,-4.4273"
    },
    {
     "Name": "Crawyn",
     "PostCode": "IM7",
     "LatLong": "54.3815,-4.4273"
    },
    {
     "Name": "Dreemskerry",
     "PostCode": "IM7",
     "LatLong": "54.3815,-4.4273"
    },
    {
     "Name": "Ballasalla",
     "PostCode": "IM7",
     "LatLong": "54.3815,-4.4273"
    },
    {
     "Name": "Jurby West",
     "PostCode": "IM7",
     "LatLong": "54.3815,-4.4273"
    },
    {
     "Name": "Smeale",
     "PostCode": "IM7",
     "LatLong": "54.3815,-4.4273"
    },
    {
     "Name": "Ballaugh",
     "PostCode": "IM7",
     "LatLong": "54.3815,-4.4273"
    },
    {
     "Name": "Sandygate",
     "PostCode": "IM7",
     "LatLong": "54.3815,-4.4273"
    },
    {
     "Name": "The Cronk",
     "PostCode": "IM7",
     "LatLong": "54.3815,-4.4273"
    },
    {
     "Name": "Glentruan",
     "PostCode": "IM7",
     "LatLong": "54.3815,-4.4273"
    },
    {
     "Name": "Cranstal",
     "PostCode": "IM7",
     "LatLong": "54.3815,-4.4273"
    },
    {
     "Name": "Ramsey",
     "PostCode": "IM8",
     "LatLong": "54.2948,-4.3895"
    },
    {
     "Name": "Colby",
     "PostCode": "IM9",
     "LatLong": "54.0951,-4.6929"
    },
    {
     "Name": "Grenaby",
     "PostCode": "IM9",
     "LatLong": "54.0951,-4.6929"
    },
    {
     "Name": "Port Erin",
     "PostCode": "IM9",
     "LatLong": "54.0951,-4.6929"
    },
    {
     "Name": "St Mark's",
     "PostCode": "IM9",
     "LatLong": "54.0951,-4.6929"
    },
    {
     "Name": "Balladoole",
     "PostCode": "IM9",
     "LatLong": "54.0951,-4.6929"
    },
    {
     "Name": "Croit e Caley",
     "PostCode": "IM9",
     "LatLong": "54.0951,-4.6929"
    },
    {
     "Name": "Bradda",
     "PostCode": "IM9",
     "LatLong": "54.0951,-4.6929"
    },
    {
     "Name": "Ballafesson",
     "PostCode": "IM9",
     "LatLong": "54.0951,-4.6929"
    },
    {
     "Name": "Derbyhaven",
     "PostCode": "IM9",
     "LatLong": "54.0951,-4.6929"
    },
    {
     "Name": "Ballasalla",
     "PostCode": "IM9",
     "LatLong": "54.0951,-4.6929"
    },
    {
     "Name": "Ballabeg",
     "PostCode": "IM9",
     "LatLong": "54.0951,-4.6929"
    },
    {
     "Name": "Cregneish",
     "PostCode": "IM9",
     "LatLong": "54.0951,-4.6929"
    },
    {
     "Name": "Close Clark",
     "PostCode": "IM9",
     "LatLong": "54.0951,-4.6929"
    },
    {
     "Name": "Lingague",
     "PostCode": "IM9",
     "LatLong": "54.0951,-4.6929"
    },
    {
     "Name": "Castletown",
     "PostCode": "IM9",
     "LatLong": "54.0951,-4.6929"
    },
    {
     "Name": "Ballakilpheric",
     "PostCode": "IM9",
     "LatLong": "54.0951,-4.6929"
    },
    {
     "Name": "The Howe",
     "PostCode": "IM9",
     "LatLong": "54.0951,-4.6929"
    },
    {
     "Name": "Ballamodha",
     "PostCode": "IM9",
     "LatLong": "54.0951,-4.6929"
    },
    {
     "Name": "Port St Mary",
     "PostCode": "IM9",
     "LatLong": "54.0951,-4.6929"
    },
    {
     "Name": "Ronague",
     "PostCode": "IM9",
     "LatLong": "54.0951,-4.6929"
    }
   ]
  },
  {
   "Places": [
    {
     "Name": "Douglas",
     "PostCode": "IM2",
     "LatLong": "54.15,-4.4833"
    }
   ]
  }
 ]
}