[
{
"Name": "Vaduz",
"Code": "7001",
"Provinces": [
{
"Communities": [
{
"Places": [
{
"Name": "Vaduz",
"PostCode": "9490",
"LatLong": "47.1431,9.5256"
}
]
}
]
}
]
},
{
"Name": "Triesen",
"Code": "7002",
"Provinces": [
{
"Communities": [
{
"Places": [
{
"Name": "Triesen",
"PostCode": "9495",
"LatLong": "47.0805,9.5515"
}
]
}
]
}
]
},
{
"Name": "Balzers",
"Code": "7003",
"Provinces": [
{
"Communities": [
{
"Places": [
{
"Name": "Balzers",
"PostCode": "9496",
"LatLong": "47.067,9.5078"
}
]
}
]
}
]
},
{
"Name": "Triesenberg",
"Code": "7004",
"Provinces": [
{
"Communities": [
{
"Places": [
{
"Name": "Triesenberg",
"PostCode": "9497",
"LatLong": "47.115,9.5831"
}
]
}
]
}
]
},
{
"Name": "Schaan",
"Code": "7005",
"Provinces": [
{
"Communities": [
{
"Places": [
{
"Name": "Schaan",
"PostCode": "9494",
"LatLong": "47.1746,9.5247"
}
]
}
]
}
]
},
{
"Name": "Planken",
"Code": "7006",
"Provinces": [
{
"Communities": [
{
"Places": [
{
"Name": "Planken",
"PostCode": "9498",
"LatLong": "47.1821,9.5574"
}
]
}
]
}
]
},
{
"Name": "Eschen",
"Code": "7007",
"Provinces": [
{
"Communities": [
{
"Places": [
{
"Name": "Eschen",
"PostCode": "9492",
"LatLong": "47.209,9.5223"
},
{
"Name": "Nendeln",
"PostCode": "9485",
"LatLong": "47.1984,9.5501"
}
]
}
]
}
]
},
{
"Name": "Mauren",
"Code": "7008",
"Provinces": [
{
"Communities": [
{
"Places": [
{
"Name": "Mauren FL",
"PostCode": "9493",
"LatLong": "47.2191,9.5464"
},
{
"Name": "Schaanwald",
"PostCode": "9486",
"LatLong": "47.2151,9.562"
}
]
}
]
}
]
},
{
"Name": "Gamprin",
"Code": "7009",
"Provinces": [
{
"Communities": [
{
"Places": [
{
"Name": "Gamprin-Bendern",
"PostCode": "9487",
"LatLong": "47.2249,9.5135"
}
]
}
]
}
]
},
{
"Name": "Ruggell",
"Code": "7010",
"Provinces": [
{
"Communities": [
{
"Places": [
{
"Name": "Ruggell",
"PostCode": "9491",
"LatLong": "47.2484,9.5345"
}
]
}
]
}
]
},
{
"Name": "Schellenberg",
"Code": "7011",
"Provinces": [
{
"Communities": [
{
"Places": [
{
"Name": "Schellenberg",
"PostCode": "9488",
"LatLong": "47.2318,9.5478"
}
]
}
]
}
]
}
]