[
{
"Provinces": [
{
"Communities": [
{
"Places": [
{
"Name": "Aohanga",
"PostCode": "4991",
"LatLong": "-40.4885,175.9457"
},
{
"Name": "Berwen",
"PostCode": "9412",
"LatLong": "-45.3184,170.8101"
},
{
"Name": "Cliff Road",
"PostCode": "4787",
"LatLong": "-39.9582,175.5461"
},
{
"Name": "Haast",
"PostCode": "7844",
"LatLong": "-42.3489,171.5086"
},
{
"Name": "Half-moon Bay",
"PostCode": "9846",
"LatLong": "-46.4024,168.4223"
},
{
"Name": "Harihari",
"PostCode": "7863",
"LatLong": "-42.1545,171.3757"
},
{
"Name": "Katikati",
"PostCode": "3166",
"LatLong": "-38.0255,176.9425"
},
{
"Name": "Mahitahi",
"PostCode": "7886",
"LatLong": "-42.9033,170.8867"
},
{
"Name": "Market Cross",
"PostCode": "7864",
"LatLong": "-42.1545,171.3757"
},
{
"Name": "Maruia",
"PostCode": "7862",
"LatLong": "-42.1545,171.3757"
},
{
"Name": "Mataura",
"PostCode": "9356",
"LatLong": "-45.0095,169.5072"
},
{
"Name": "Murchison",
"PostCode": "7007",
"LatLong": "-41.25,173.1"
},
{
"Name": "Murchison",
"PostCode": "7049",
"LatLong": "-41.2801,173.2541"
},
{
"Name": "Palmerston",
"PostCode": "9430",
"LatLong": "-45.1143,170.6719"
},
{
"Name": "Port Motueka",
"PostCode": "7120",
"LatLong": "-41.1053,173.2456"
},
{
"Name": "Port Motueka",
"PostCode": "7143",
"LatLong": "-41.1083,173.0958"
},
{
"Name": "Punaroma",
"PostCode": "3076",
"LatLong": "-38.2872,176.3389"
},
{
"Name": "Roxburgh",
"PostCode": "9441",
"LatLong": "-44.9399,170.5447"
},
{
"Name": "Summerhill",
"PostCode": "4410",
"LatLong": "-40.3525,175.6145"
},
{
"Name": "Summerhill",
"PostCode": "4448",
"LatLong": "-40.3603,175.6143"
},
{
"Name": "Waikouaiti",
"PostCode": "9510",
"LatLong": "-45.9419,169.5499"
},
{
"Name": "Waikouaiti",
"PostCode": "9541",
"LatLong": "-46.032,169.479"
},
{
"Name": "Waioruarangi",
"PostCode": "7300",
"LatLong": "-42.6475,173.0876"
},
{
"Name": "Waiouru",
"PostCode": "4861",
"LatLong": "-40.3394,175.4771"
},
{
"Name": "Waiouru Military Camp",
"PostCode": "4825",
"LatLong": "-40.4107,175.4044"
},
{
"Name": "Waiouru Military Camp",
"PostCode": "4826",
"LatLong": "-40.4107,175.4044"
},
{
"Name": "Waitoa",
"PostCode": "3380",
"LatLong": "-38.9393,175.7893"
},
{
"Name": "Wharekuri",
"PostCode": "9435",
"LatLong": "-45.1143,170.6719"
}
]
}
]
}
]
},
{
"Name": "Auckland",
"Code": "E7",
"Provinces": [
{
"Communities": [
{
"Places": [
{
"Name": "Ahuroa",
"PostCode": "0984",
"LatLong": "-36.4753,174.5542"
},
{
"Name": "Albany",
"PostCode": "0752",
"LatLong": "-36.7167,174.7"
},
{
"Name": "Albany",
"PostCode": "0755",
"LatLong": "-36.7167,174.7"
},
{
"Name": "Algies Bay",
"PostCode": "0982",
"LatLong": "-36.4353,174.7403"
},
{
"Name": "Ararimu",
"PostCode": "2579",
"LatLong": "-37.15,175.0333"
},
{
"Name": "Ararimu",
"PostCode": "2675",
"LatLong": "-37.15,175.0333"
},
{
"Name": "Arch Hill",
"PostCode": "1021",
"LatLong": "-36.8597,174.7531"
},
{
"Name": "Auckland",
"PostCode": "1010",
"LatLong": "-36.8485,174.7635"
},
{
"Name": "Auckland",
"PostCode": "1148",
"LatLong": "-36.8485,174.7635"
},
{
"Name": "Auckland",
"PostCode": "1150",
"LatLong": "-36.8485,174.7635"
},
{
"Name": "Avondale",
"PostCode": "1348",
"LatLong": "-36.8833,174.7"
},
{
"Name": "Balmoral",
"PostCode": "1342",
"LatLong": "-36.8882,174.7402"
},
{
"Name": "Balmoral",
"PostCode": "1351",
"LatLong": "-36.8882,174.7402"
},
{
"Name": "Beachlands",
"PostCode": "2018",
"LatLong": "-36.8833,175"
},
{
"Name": "Beachlands",
"PostCode": "2147",
"LatLong": "-36.8833,175"
},
{
"Name": "Belmont",
"PostCode": "0622",
"LatLong": "-36.8075,174.7864"
},
{
"Name": "Big Omaha",
"PostCode": "0985",
"LatLong": "-36.3333,174.7333"
},
{
"Name": "Birkdale",
"PostCode": "0749",
"LatLong": "-36.7972,174.7046"
},
{
"Name": "Birkenhead",
"PostCode": "0746",
"LatLong": "-36.8082,174.7202"
},
{
"Name": "Blackpool",
"PostCode": "1842",
"LatLong": "-36.7889,175.0144"
},
{
"Name": "Blockhouse Bay",
"PostCode": "0600",
"LatLong": "-36.9182,174.7002"
},
{
"Name": "Blockhouse Bay",
"PostCode": "0644",
"LatLong": "-36.9182,174.7002"
},
{
"Name": "Bombay",
"PostCode": "2343",
"LatLong": "-37.1667,174.9833"
},
{
"Name": "Botany Downs",
"PostCode": "2143",
"LatLong": "-36.906,174.9179"
},
{
"Name": "Brighams Creek",
"PostCode": "0662",
"LatLong": "-36.7833,174.6"
},
{
"Name": "Browns Bay",
"PostCode": "0630",
"LatLong": "-36.7193,174.7367"
},
{
"Name": "Browns Bay",
"PostCode": "0753",
"LatLong": "-36.7193,174.7367"
},
{
"Name": "Chatswood",
"PostCode": "0626",
"LatLong": "-36.8184,174.7098"
},
{
"Name": "Clevedon",
"PostCode": "2248",
"LatLong": "-37,175.05"
},
{
"Name": "Clevedon",
"PostCode": "2582",
"LatLong": "-37,175.05"
},
{
"Name": "Coatesville",
"PostCode": "0793",
"LatLong": "-36.7167,174.65"
},
{
"Name": "Dairy Flat",
"PostCode": "0794",
"LatLong": "-36.6667,174.65"
},
{
"Name": "Devonport",
"PostCode": "0624",
"LatLong": "-36.8282,174.7902"
},
{
"Name": "Devonport",
"PostCode": "0744",
"LatLong": "-36.7775,174.7399"
},
{
"Name": "Drury",
"PostCode": "2247",
"LatLong": "-37.1,174.95"
},
{
"Name": "Drury",
"PostCode": "2577",
"LatLong": "-37.1,174.95"
},
{
"Name": "East Tamaki",
"PostCode": "2013",
"LatLong": "-36.95,174.9"
},
{
"Name": "East Tamaki",
"PostCode": "2016",
"LatLong": "-36.95,174.9"
},
{
"Name": "East Tamaki",
"PostCode": "2141",
"LatLong": "-36.95,174.9"
},
{
"Name": "East Tamaki",
"PostCode": "2142",
"LatLong": "-36.95,174.9"
},
{
"Name": "Eastern Beach",
"PostCode": "2012",
"LatLong": "-36.8682,174.9002"
},
{
"Name": "Eastern Beach",
"PostCode": "2144",
"LatLong": "-36.8682,174.9002"
},
{
"Name": "Ellerslie",
"PostCode": "1051",
"LatLong": "-36.8982,174.8102"
},
{
"Name": "Ellerslie",
"PostCode": "1542",
"LatLong": "-36.8982,174.8102"
},
{
"Name": "Ellerslie",
"PostCode": "1544",
"LatLong": "-36.8982,174.8102"
},
{
"Name": "Ellerslie",
"PostCode": "1546",
"LatLong": "-36.8982,174.8102"
},
{
"Name": "Epsom",
"PostCode": "1023",
"LatLong": "-36.8874,174.7706"
},
{
"Name": "Epsom",
"PostCode": "1024",
"LatLong": "-36.8874,174.7706"
},
{
"Name": "Epsom",
"PostCode": "1349",
"LatLong": "-36.8874,174.7706"
},
{
"Name": "Favona",
"PostCode": "2151",
"LatLong": "-36.9333,174.8"
},
{
"Name": "Forrest Hill",
"PostCode": "0620",
"LatLong": "-36.7645,174.7477"
},
{
"Name": "Forrest Hill",
"PostCode": "0743",
"LatLong": "-36.7645,174.7477"
},
{
"Name": "Forrest Hill",
"PostCode": "0757",
"LatLong": "-36.7645,174.7477"
},
{
"Name": "Freemans Bay",
"PostCode": "1144",
"LatLong": "-36.8482,174.7402"
},
{
"Name": "Glen Eden",
"PostCode": "0641",
"LatLong": "-36.9167,174.65"
},
{
"Name": "Glenbrook",
"PostCode": "2681",
"LatLong": "-37.2167,174.7833"
},
{
"Name": "Glendene",
"PostCode": "0645",
"LatLong": "-36.8882,174.6402"
},
{
"Name": "Glenfield",
"PostCode": "0745",
"LatLong": "-36.7826,174.7211"
},
{
"Name": "Glenfield",
"PostCode": "0751",
"LatLong": "-36.7826,174.7211"
},
{
"Name": "Grafton",
"PostCode": "1145",
"LatLong": "-36.8603,174.7657"
},
{
"Name": "Green Bay",
"PostCode": "0643",
"LatLong": "-36.931,174.6749"
},
{
"Name": "Greenhithe",
"PostCode": "0632",
"LatLong": "-36.7667,174.6833"
},
{
"Name": "Greenlane",
"PostCode": "1541",
"LatLong": "-36.8906,174.7943"
},
{
"Name": "Greenlane",
"PostCode": "1543",
"LatLong": "-36.8906,174.7943"
},
{
"Name": "Hauraki",
"PostCode": "0740",
"LatLong": "-36.7996,174.778"
},
{
"Name": "Helensville",
"PostCode": "0800",
"LatLong": "-36.6782,174.4502"
},
{
"Name": "Helensville",
"PostCode": "0840",
"LatLong": "-36.6782,174.4502"
},
{
"Name": "Helensville",
"PostCode": "0875",
"LatLong": "-36.6782,174.4502"
},
{
"Name": "Herne Bay",
"PostCode": "1011",
"LatLong": "-36.8461,174.7292"
},
{
"Name": "Herne Bay",
"PostCode": "1147",
"LatLong": "-36.8461,174.7292"
},
{
"Name": "Hillsborough",
"PostCode": "1042",
"LatLong": "-36.9182,174.7502"
},
{
"Name": "Hobsonville",
"PostCode": "0618",
"LatLong": "-36.8,174.6667"
},
{
"Name": "Homai",
"PostCode": "2240",
"LatLong": "-37.0167,174.8833"
},
{
"Name": "Huapai",
"PostCode": "0810",
"LatLong": "-36.7667,174.55"
},
{
"Name": "Huapai",
"PostCode": "0841",
"LatLong": "-36.7667,174.55"
},
{
"Name": "Huapai",
"PostCode": "0891",
"LatLong": "-36.7667,174.55"
},
{
"Name": "Huia",
"PostCode": "0604",
"LatLong": "-36.9983,174.5667"
},
{
"Name": "Karekare",
"PostCode": "0772",
"LatLong": "-36.9833,174.4833"
},
{
"Name": "Kaukapakapa",
"PostCode": "0843",
"LatLong": "-36.6167,174.5"
},
{
"Name": "Kaukapakapa",
"PostCode": "0871",
"LatLong": "-36.6167,174.5"
},
{
"Name": "Kelston",
"PostCode": "0602",
"LatLong": "-36.8982,174.6602"
},
{
"Name": "Kohimarama",
"PostCode": "1071",
"LatLong": "-36.8582,174.8402"
},
{
"Name": "Kumeu",
"PostCode": "0892",
"LatLong": "-36.7667,174.5667"
},
{
"Name": "Leigh",
"PostCode": "0920",
"LatLong": "-36.2833,174.8167"
},
{
"Name": "Leigh",
"PostCode": "0947",
"LatLong": "-36.2833,174.8167"
},
{
"Name": "Lynfield",
"PostCode": "1443",
"LatLong": "-36.9282,174.7202"
},
{
"Name": "Mairangi Bay",
"PostCode": "0754",
"LatLong": "-36.7381,174.752"
},
{
"Name": "Mairangi Bay",
"PostCode": "0758",
"LatLong": "-36.7381,174.752"
},
{
"Name": "Mangere",
"PostCode": "2022",
"LatLong": "-36.9681,174.7987"
},
{
"Name": "Mangere",
"PostCode": "2150",
"LatLong": "-36.9681,174.7987"
},
{
"Name": "Mangere",
"PostCode": "2153",
"LatLong": "-36.9681,174.7987"
},
{
"Name": "Mangere",
"PostCode": "2154",
"LatLong": "-36.9681,174.7987"
},
{
"Name": "Mangere East",
"PostCode": "2024",
"LatLong": "-36.9659,174.8239"
},
{
"Name": "Mangere East",
"PostCode": "2158",
"LatLong": "-36.9659,174.8239"
},
{
"Name": "Manurewa",
"PostCode": "2102",
"LatLong": "-37.0182,174.8802"
},
{
"Name": "Manurewa East",
"PostCode": "2105",
"LatLong": "-37.0182,174.9102"
},
{
"Name": "Manurewa East",
"PostCode": "2243",
"LatLong": "-37.0182,174.9102"
},
{
"Name": "Maraetai",
"PostCode": "2148",
"LatLong": "-36.8833,175.05"
},
{
"Name": "Marlborough",
"PostCode": "0629",
"LatLong": "-36.7782,174.7202"
},
{
"Name": "Marlborough",
"PostCode": "0747",
"LatLong": "-36.7782,174.7202"
},
{
"Name": "Massey East",
"PostCode": "0656",
"LatLong": "-36.8282,174.6202"
},
{
"Name": "Massey East",
"PostCode": "0663",
"LatLong": "-36.8282,174.6202"
},
{
"Name": "Matakana",
"PostCode": "0948",
"LatLong": "-36.35,174.7167"
},
{
"Name": "Mauku",
"PostCode": "2678",
"LatLong": "-37.2,174.8167"
},
{
"Name": "McLaren Park",
"PostCode": "0612",
"LatLong": "-36.8882,174.6102"
},
{
"Name": "Meadowbank",
"PostCode": "1742",
"LatLong": "-36.8682,174.8202"
},
{
"Name": "Mechanics Bay",
"PostCode": "1140",
"LatLong": "-36.8382,174.7802"
},
{
"Name": "Mechanics Bay",
"PostCode": "1143",
"LatLong": "-36.8382,174.7802"
},
{
"Name": "Milford",
"PostCode": "0741",
"LatLong": "-36.7716,174.7659"
},
{
"Name": "Mission Bay",
"PostCode": "1744",
"LatLong": "-36.8547,174.8317"
},
{
"Name": "Mount Albert",
"PostCode": "1246",
"LatLong": "-36.8782,174.7202"
},
{
"Name": "Mount Eden",
"PostCode": "1352",
"LatLong": "-36.8816,174.762"
},
{
"Name": "Mount Eden",
"PostCode": "1446",
"LatLong": "-36.8816,174.762"
},
{
"Name": "Mount Roskill",
"PostCode": "1041",
"LatLong": "-36.9082,174.7302"
},
{
"Name": "Mount Wellington",
"PostCode": "1642",
"LatLong": "-36.9082,174.8202"
},
{
"Name": "New Lynn",
"PostCode": "0640",
"LatLong": "-36.9069,174.687"
},
{
"Name": "New Windsor",
"PostCode": "1746",
"LatLong": "-36.8982,174.7002"
},
{
"Name": "Newmarket",
"PostCode": "1141",
"LatLong": "-36.8698,174.7757"
},
{
"Name": "Newton",
"PostCode": "1142",
"LatLong": "-36.85,174.75"
},
{
"Name": "North Shore",
"PostCode": "0627",
"LatLong": "-36.8,174.75"
},
{
"Name": "North Shore",
"PostCode": "0748",
"LatLong": "-36.8,174.75"
},
{
"Name": "Okiwi",
"PostCode": "0960",
"LatLong": "-36.15,175.4167"
},
{
"Name": "Okupu",
"PostCode": "0961",
"LatLong": "-36.2667,175.4333"
},
{
"Name": "One Tree Hill",
"PostCode": "1344",
"LatLong": "-36.8982,174.7802"
},
{
"Name": "One Tree Hill",
"PostCode": "1347",
"LatLong": "-36.8982,174.7802"
},
{
"Name": "Onehunga",
"PostCode": "1643",
"LatLong": "-36.9182,174.7802"
},
{
"Name": "Oneroa",
"PostCode": "1840",
"LatLong": "-36.7782,175.0102"
},
{
"Name": "Onetangi",
"PostCode": "1841",
"LatLong": "-36.7833,175.0833"
},
{
"Name": "Onetangi",
"PostCode": "1971",
"LatLong": "-36.7833,175.0833"
},
{
"Name": "Opaheke",
"PostCode": "2584",
"LatLong": "-37.0833,174.9667"
},
{
"Name": "Opuatia",
"PostCode": "2696",
"LatLong": "-37.4048,175.0002"
},
{
"Name": "Orakei",
"PostCode": "1745",
"LatLong": "-36.85,174.8167"
},
{
"Name": "Orewa",
"PostCode": "0931",
"LatLong": "-36.5667,174.7"
},
{
"Name": "Orewa",
"PostCode": "0946",
"LatLong": "-36.5667,174.7"
},
{
"Name": "Ostend",
"PostCode": "1081",
"LatLong": "-36.7982,175.0402"
},
{
"Name": "Ostend",
"PostCode": "1843",
"LatLong": "-36.7982,175.0402"
},
{
"Name": "Otahuhu",
"PostCode": "1640",
"LatLong": "-36.9382,174.8402"
},
{
"Name": "OTAHUHU",
"PostCode": "1062",
"LatLong": "-36.9382,174.8402"
},
{
"Name": "Otara",
"PostCode": "2159",
"LatLong": "-36.9482,174.8702"
},
{
"Name": "Owairaka",
"PostCode": "1350",
"LatLong": "-36.8882,174.7102"
},
{
"Name": "Paerata",
"PostCode": "2676",
"LatLong": "-37.1667,174.9"
},
{
"Name": "Pahitoa",
"PostCode": "0842",
"LatLong": "-36.7833,174.4833"
},
{
"Name": "Pahitoa",
"PostCode": "0883",
"LatLong": "-36.7833,174.4833"
},
{
"Name": "Pahurehure",
"PostCode": "2244",
"LatLong": "-37.0582,174.9202"
},
{
"Name": "Pahurehure",
"PostCode": "2246",
"LatLong": "-37.0582,174.9202"
},
{
"Name": "Pakuranga",
"PostCode": "2140",
"LatLong": "-36.8833,174.9167"
},
{
"Name": "Pakuranga Heights",
"PostCode": "2010",
"LatLong": "-36.9082,174.8802"
},
{
"Name": "Panmure",
"PostCode": "1545",
"LatLong": "-36.8833,174.8667"
},
{
"Name": "Panmure",
"PostCode": "1641",
"LatLong": "-36.8833,174.8667"
},
{
"Name": "Panmure",
"PostCode": "1741",
"LatLong": "-36.8833,174.8667"
},
{
"Name": "Papakura",
"PostCode": "2113",
"LatLong": "-37.0657,174.9439"
},
{
"Name": "Paparimu",
"PostCode": "2583",
"LatLong": "-37.1333,175.1167"
},
{
"Name": "Papatoetoe",
"PostCode": "2155",
"LatLong": "-36.9682,174.8402"
},
{
"Name": "Papatoetoe",
"PostCode": "2156",
"LatLong": "-36.9682,174.8402"
},
{
"Name": "Parakai",
"PostCode": "0830",
"LatLong": "-36.65,174.4333"
},
{
"Name": "Parakakau",
"PostCode": "0873",
"LatLong": "-36.5833,174.6"
},
{
"Name": "Paremoremo",
"PostCode": "0756",
"LatLong": "-36.7667,174.6667"
},
{
"Name": "Parkhurst",
"PostCode": "0874",
"LatLong": "-36.65,174.4"
},
{
"Name": "Parnell",
"PostCode": "1149",
"LatLong": "-36.8667,174.7833"
},
{
"Name": "Patumahoe",
"PostCode": "2344",
"LatLong": "-37.1833,174.8333"
},
{
"Name": "Penrose",
"PostCode": "1060",
"LatLong": "-36.9167,174.8167"
},
{
"Name": "Piha",
"PostCode": "0781",
"LatLong": "-36.95,174.4667"
},
{
"Name": "Pohuehue",
"PostCode": "0983",
"LatLong": "-36.45,174.65"
},
{
"Name": "Point Chevalier",
"PostCode": "1022",
"LatLong": "-36.8633,174.7049"
},
{
"Name": "Point England",
"PostCode": "1743",
"LatLong": "-36.8782,174.8602"
},
{
"Name": "Point Resolution",
"PostCode": "1052",
"LatLong": "-36.8514,174.7894"
},
{
"Name": "Point Resolution",
"PostCode": "1151",
"LatLong": "-36.8514,174.7894"
},
{
"Name": "Pollok",
"PostCode": "2684",
"LatLong": "-37.1333,174.6167"
},
{
"Name": "Port Fitzroy",
"PostCode": "0963",
"LatLong": "-36.1667,175.35"
},
{
"Name": "Puhoi",
"PostCode": "0951",
"LatLong": "-36.5035,174.6676"
},
{
"Name": "Pukekohe",
"PostCode": "2120",
"LatLong": "-37.202,174.9036"
},
{
"Name": "Pukekohe",
"PostCode": "2340",
"LatLong": "-37.202,174.9036"
},
{
"Name": "Pukekohe East",
"PostCode": "2677",
"LatLong": "-37.2,174.95"
},
{
"Name": "Ramarama",
"PostCode": "2578",
"LatLong": "-37.15,174.95"
},
{
"Name": "Red Beach",
"PostCode": "0932",
"LatLong": "-36.6124,174.6887"
},
{
"Name": "Red Beach",
"PostCode": "0945",
"LatLong": "-36.6124,174.6887"
},
{
"Name": "Red Beach",
"PostCode": "0993",
"LatLong": "-36.6124,174.6887"
},
{
"Name": "Red Hill",
"PostCode": "2110",
"LatLong": "-37.0582,174.9702"
},
{
"Name": "Red Vale",
"PostCode": "0792",
"LatLong": "-36.6833,174.7"
},
{
"Name": "Remuera",
"PostCode": "1050",
"LatLong": "-36.8804,174.7982"
},
{
"Name": "Riverhead",
"PostCode": "0820",
"LatLong": "-36.75,174.6"
},
{
"Name": "Royal Oak",
"PostCode": "1345",
"LatLong": "-36.9082,174.7702"
},
{
"Name": "Saint Heliers",
"PostCode": "1740",
"LatLong": "-36.85,174.8667"
},
{
"Name": "Sandringham",
"PostCode": "1025",
"LatLong": "-36.8882,174.7302"
},
{
"Name": "Sandringham",
"PostCode": "1346",
"LatLong": "-36.8882,174.7302"
},
{
"Name": "Shelly Park",
"PostCode": "2014",
"LatLong": "-36.9075,174.9459"
},
{
"Name": "Shelly Park",
"PostCode": "2145",
"LatLong": "-36.9075,174.9459"
},
{
"Name": "Shelly Park",
"PostCode": "2146",
"LatLong": "-36.9075,174.9459"
},
{
"Name": "Silverdale",
"PostCode": "0944",
"LatLong": "-36.6187,174.6776"
},
{
"Name": "Silverdale",
"PostCode": "0992",
"LatLong": "-36.6187,174.6776"
},
{
"Name": "Snells Beach",
"PostCode": "0942",
"LatLong": "-36.4082,174.7202"
},
{
"Name": "Sunnyvale",
"PostCode": "0650",
"LatLong": "-36.8882,174.6302"
},
{
"Name": "Surfdale",
"PostCode": "1081",
"LatLong": "-36.7911,175.0257"
},
{
"Name": "Swanson",
"PostCode": "0614",
"LatLong": "-36.8667,174.5833"
},
{
"Name": "Swanson",
"PostCode": "0653",
"LatLong": "-36.8667,174.5833"
},
{
"Name": "Swanson",
"PostCode": "0655",
"LatLong": "-36.8667,174.5833"
},
{
"Name": "Takanini",
"PostCode": "2112",
"LatLong": "-37.0482,174.9002"
},
{
"Name": "Takanini",
"PostCode": "2245",
"LatLong": "-37.0482,174.9002"
},
{
"Name": "Takapuna",
"PostCode": "0750",
"LatLong": "-36.7917,174.7758"
},
{
"Name": "Tamaki",
"PostCode": "1072",
"LatLong": "-36.8882,174.8602"
},
{
"Name": "Tawharanui",
"PostCode": "0986",
"LatLong": "-36.3833,174.8"
},
{
"Name": "Te Atatu",
"PostCode": "0651",
"LatLong": "-36.8333,174.65"
},
{
"Name": "Te Atatu Peninsula",
"PostCode": "0661",
"LatLong": "-36.841,174.6522"
},
{
"Name": "Te Atatu South",
"PostCode": "0610",
"LatLong": "-36.8647,174.6477"
},
{
"Name": "Te Atatu South",
"PostCode": "0652",
"LatLong": "-36.8647,174.6477"
},
{
"Name": "Te Atatu South",
"PostCode": "0654",
"LatLong": "-36.8647,174.6477"
},
{
"Name": "Te Hana",
"PostCode": "0974",
"LatLong": "-36.2667,174.5167"
},
{
"Name": "Te Kohanga",
"PostCode": "2693",
"LatLong": "-37.3141,174.8451"
},
{
"Name": "Te Kohanga",
"PostCode": "2697",
"LatLong": "-37.3141,174.8451"
},
{
"Name": "Te Papapa",
"PostCode": "1061",
"LatLong": "-36.9182,174.8002"
},
{
"Name": "Three Kings",
"PostCode": "1440",
"LatLong": "-36.8982,174.7502"
},
{
"Name": "Titirangi",
"PostCode": "0642",
"LatLong": "-36.9375,174.6558"
},
{
"Name": "Torbay",
"PostCode": "0742",
"LatLong": "-36.696,174.7512"
},
{
"Name": "Tryphena",
"PostCode": "0962",
"LatLong": "-36.3014,175.4893"
},
{
"Name": "Waiau Pa",
"PostCode": "2122",
"LatLong": "-37.1333,174.75"
},
{
"Name": "Waiau Pa",
"PostCode": "2345",
"LatLong": "-37.1333,174.75"
},
{
"Name": "Waiau Pa",
"PostCode": "2679",
"LatLong": "-37.1333,174.75"
},
{
"Name": "Waikopua",
"PostCode": "2571",
"LatLong": "-36.9167,174.9833"
},
{
"Name": "Waikowhai",
"PostCode": "1445",
"LatLong": "-36.9282,174.7302"
},
{
"Name": "Waimauku",
"PostCode": "0812",
"LatLong": "-36.75,174.5"
},
{
"Name": "Waimauku",
"PostCode": "0882",
"LatLong": "-36.75,174.5"
},
{
"Name": "Waipipi",
"PostCode": "2683",
"LatLong": "-37.2167,174.6667"
},
{
"Name": "Waitakere",
"PostCode": "0660",
"LatLong": "-36.8513,174.5448"
},
{
"Name": "Waitakere",
"PostCode": "0782",
"LatLong": "-36.8513,174.5448"
},
{
"Name": "Waiuku",
"PostCode": "2123",
"LatLong": "-37.2481,174.7349"
},
{
"Name": "Waiuku",
"PostCode": "2341",
"LatLong": "-37.2481,174.7349"
},
{
"Name": "Waiwera",
"PostCode": "0950",
"LatLong": "-36.55,174.7167"
},
{
"Name": "Warkworth",
"PostCode": "0910",
"LatLong": "-36.4,174.6667"
},
{
"Name": "Warkworth",
"PostCode": "0941",
"LatLong": "-36.4,174.6667"
},
{
"Name": "Waterview",
"PostCode": "1026",
"LatLong": "-36.8782,174.6902"
},
{
"Name": "Wayby",
"PostCode": "0972",
"LatLong": "-36.3333,174.5667"
},
{
"Name": "Wellsford",
"PostCode": "0900",
"LatLong": "-36.2833,174.5167"
},
{
"Name": "Wellsford",
"PostCode": "0940",
"LatLong": "-36.2833,174.5167"
},
{
"Name": "Wesley",
"PostCode": "1340",
"LatLong": "-36.8982,174.7302"
},
{
"Name": "West Harbour",
"PostCode": "0657",
"LatLong": "-36.8182,174.6102"
},
{
"Name": "West Harbour",
"PostCode": "0814",
"LatLong": "-36.8182,174.6102"
},
{
"Name": "Western Springs",
"PostCode": "1245",
"LatLong": "-36.8667,174.7333"
},
{
"Name": "Weymouth",
"PostCode": "2103",
"LatLong": "-37.0333,174.8667"
},
{
"Name": "Weymouth",
"PostCode": "2242",
"LatLong": "-37.0333,174.8667"
},
{
"Name": "Weymouth",
"PostCode": "2580",
"LatLong": "-37.0333,174.8667"
},
{
"Name": "Whakatiri",
"PostCode": "2585",
"LatLong": "-36.95,175.1167"
},
{
"Name": "Whangapara",
"PostCode": "0991",
"LatLong": "-36.2333,175.4"
},
{
"Name": "Whangaparaoa",
"PostCode": "0930",
"LatLong": "-36.6333,174.7667"
},
{
"Name": "Whangaparaoa",
"PostCode": "0943",
"LatLong": "-36.6333,174.7667"
},
{
"Name": "Wharehine",
"PostCode": "0973",
"LatLong": "-36.3167,174.4167"
},
{
"Name": "Wharehine",
"PostCode": "0977",
"LatLong": "-36.3167,174.4167"
},
{
"Name": "Whitford",
"PostCode": "2149",
"LatLong": "-36.9333,174.9667"
},
{
"Name": "Whitford",
"PostCode": "2576",
"LatLong": "-36.9333,174.9667"
},
{
"Name": "Wiri",
"PostCode": "2023",
"LatLong": "-36.9982,174.8602"
},
{
"Name": "Wiri",
"PostCode": "2025",
"LatLong": "-36.9982,174.8602"
},
{
"Name": "Wiri",
"PostCode": "2104",
"LatLong": "-36.9982,174.8602"
},
{
"Name": "Wiri",
"PostCode": "2157",
"LatLong": "-36.9982,174.8602"
},
{
"Name": "Wiri",
"PostCode": "2160",
"LatLong": "-36.9982,174.8602"
},
{
"Name": "Wiri",
"PostCode": "2241",
"LatLong": "-36.9982,174.8602"
},
{
"Name": "Woodcocks",
"PostCode": "0981",
"LatLong": "-36.45,174.5667"
},
{
"Name": "Woodhill",
"PostCode": "0881",
"LatLong": "-36.75,174.4333"
}
]
}
]
}
]
},
{
"Name": "Bay of Plenty",
"Code": "E8",
"Provinces": [
{
"Communities": [
{
"Places": [
{
"Name": "Athenree",
"PostCode": "3177",
"LatLong": "-37.4667,175.9167"
},
{
"Name": "Awakaponga",
"PostCode": "3194",
"LatLong": "-37.9333,176.7667"
},
{
"Name": "Bethlehem",
"PostCode": "3147",
"LatLong": "-37.695,176.1086"
},
{
"Name": "Edgecumbe",
"PostCode": "3160",
"LatLong": "-37.9833,176.8333"
},
{
"Name": "Edgecumbe",
"PostCode": "3193",
"LatLong": "-37.9833,176.8333"
},
{
"Name": "Glenholme",
"PostCode": "3044",
"LatLong": "-38.1487,176.2471"
},
{
"Name": "Greerton",
"PostCode": "3142",
"LatLong": "-37.7254,176.1335"
},
{
"Name": "Guthrie",
"PostCode": "3077",
"LatLong": "-38.3,176.15"
},
{
"Name": "Hairini",
"PostCode": "3112",
"LatLong": "-37.7333,176.1667"
},
{
"Name": "Hairini",
"PostCode": "3148",
"LatLong": "-37.7333,176.1667"
},
{
"Name": "Judea",
"PostCode": "3146",
"LatLong": "-37.6953,176.1441"
},
{
"Name": "Kaimai",
"PostCode": "3473",
"LatLong": "-37.8333,175.9667"
},
{
"Name": "Kairua",
"PostCode": "3151",
"LatLong": "-37.7167,176.2833"
},
{
"Name": "Katikati",
"PostCode": "3129",
"LatLong": "-37.55,175.9167"
},
{
"Name": "Katikati",
"PostCode": "3178",
"LatLong": "-37.55,175.9167"
},
{
"Name": "Kawerau",
"PostCode": "3127",
"LatLong": "-38.1,176.7"
},
{
"Name": "Kawerau",
"PostCode": "3169",
"LatLong": "-38.1,176.7"
},
{
"Name": "Kawerau",
"PostCode": "3192",
"LatLong": "-38.1,176.7"
},
{
"Name": "Koutu",
"PostCode": "3046",
"LatLong": "-38.1197,176.2383"
},
{
"Name": "Lower Kaimai",
"PostCode": "3171",
"LatLong": "-37.8,176.0333"
},
{
"Name": "Mamaku",
"PostCode": "3020",
"LatLong": "-38.1,176.0833"
},
{
"Name": "Mamaku",
"PostCode": "3049",
"LatLong": "-38.1,176.0833"
},
{
"Name": "Mangakakahi",
"PostCode": "3047",
"LatLong": "-38.1335,176.2344"
},
{
"Name": "Matata",
"PostCode": "3168",
"LatLong": "-37.8833,176.75"
},
{
"Name": "Mount Maunganui",
"PostCode": "3150",
"LatLong": "-37.6417,176.1861"
},
{
"Name": "Murupara",
"PostCode": "3025",
"LatLong": "-38.4667,176.7"
},
{
"Name": "Murupara",
"PostCode": "3062",
"LatLong": "-38.4667,176.7"
},
{
"Name": "Ngapuna",
"PostCode": "3040",
"LatLong": "-38.1468,176.2747"
},
{
"Name": "Ngapuna",
"PostCode": "3045",
"LatLong": "-38.1468,176.2747"
},
{
"Name": "Ngawaro",
"PostCode": "3188",
"LatLong": "-37.9333,176.15"
},
{
"Name": "Ngongotaha",
"PostCode": "3041",
"LatLong": "-38.0833,176.2"
},
{
"Name": "Ohinemutu",
"PostCode": "3010",
"LatLong": "-38.1276,176.2446"
},
{
"Name": "Ohinepanea",
"PostCode": "3186",
"LatLong": "-37.8219,176.5643"
},
{
"Name": "Ohope Beach",
"PostCode": "3121",
"LatLong": "-37.9752,177.0759"
},
{
"Name": "Ohope Beach",
"PostCode": "3161",
"LatLong": "-37.9752,177.0759"
},
{
"Name": "Omaio",
"PostCode": "3199",
"LatLong": "-37.8167,177.6667"
},
{
"Name": "Omanu",
"PostCode": "3116",
"LatLong": "-37.6568,176.2084"
},
{
"Name": "Omanu",
"PostCode": "3149",
"LatLong": "-37.6568,176.2084"
},
{
"Name": "Omanu Beach",
"PostCode": "3152",
"LatLong": "-37.67,176.229"
},
{
"Name": "Omokoroa Beach",
"PostCode": "3114",
"LatLong": "-37.6333,176.05"
},
{
"Name": "Omokoroa Beach",
"PostCode": "3154",
"LatLong": "-37.6333,176.05"
},
{
"Name": "Omokoroa Beach",
"PostCode": "3172",
"LatLong": "-37.6333,176.05"
},
{
"Name": "Opotiki",
"PostCode": "3122",
"LatLong": "-38.0091,177.2871"
},
{
"Name": "Opotiki",
"PostCode": "3162",
"LatLong": "-38.0091,177.2871"
},
{
"Name": "Oropi",
"PostCode": "3173",
"LatLong": "-37.8395,176.1611"
},
{
"Name": "Otangihaku",
"PostCode": "3191",
"LatLong": "-38.0333,177"
},
{
"Name": "Otumoetai",
"PostCode": "3145",
"LatLong": "-37.6716,176.1386"
},
{
"Name": "Owhata",
"PostCode": "3042",
"LatLong": "-38.1326,176.2982"
},
{
"Name": "Paengaroa",
"PostCode": "3189",
"LatLong": "-37.8167,176.4167"
},
{
"Name": "Papamoa",
"PostCode": "3187",
"LatLong": "-37.7333,176.3"
},
{
"Name": "Papamoa Beach",
"PostCode": "3118",
"LatLong": "-37.6973,176.2846"
},
{
"Name": "Poroporo",
"PostCode": "3120",
"LatLong": "-37.9833,176.9667"
},
{
"Name": "Poroporo",
"PostCode": "3159",
"LatLong": "-37.9833,176.9667"
},
{
"Name": "Reporoa",
"PostCode": "3060",
"LatLong": "-38.4359,176.3412"
},
{
"Name": "Ruatahuna",
"PostCode": "3079",
"LatLong": "-38.6138,176.9592"
},
{
"Name": "Sunnybrook",
"PostCode": "3015",
"LatLong": "-38.1482,176.2102"
},
{
"Name": "Tahorakui",
"PostCode": "3081",
"LatLong": "-38.479,176.2724"
},
{
"Name": "Tahorakui",
"PostCode": "3083",
"LatLong": "-38.479,176.2724"
},
{
"Name": "Taneatua",
"PostCode": "3123",
"LatLong": "-38.0667,177.0167"
},
{
"Name": "Taneatua",
"PostCode": "3163",
"LatLong": "-38.0667,177.0167"
},
{
"Name": "Tarukenga",
"PostCode": "3072",
"LatLong": "-38.0752,176.1581"
},
{
"Name": "Tauranga",
"PostCode": "3110",
"LatLong": "-37.6861,176.1667"
},
{
"Name": "Tauranga",
"PostCode": "3140",
"LatLong": "-37.6861,176.1667"
},
{
"Name": "Tauranga",
"PostCode": "3141",
"LatLong": "-37.6861,176.1667"
},
{
"Name": "Tauranga",
"PostCode": "3143",
"LatLong": "-37.6861,176.1667"
},
{
"Name": "Tauranga",
"PostCode": "3144",
"LatLong": "-37.6861,176.1667"
},
{
"Name": "Te Puke",
"PostCode": "3119",
"LatLong": "-37.7782,176.3302"
},
{
"Name": "Te Puke",
"PostCode": "3153",
"LatLong": "-37.7782,176.3302"
},
{
"Name": "Te Puke",
"PostCode": "3182",
"LatLong": "-37.7782,176.3302"
},
{
"Name": "Te Teko",
"PostCode": "3167",
"LatLong": "-38.0365,176.7936"
},
{
"Name": "Tihiotonga",
"PostCode": "3048",
"LatLong": "-38.1726,176.2432"
},
{
"Name": "Tikitere",
"PostCode": "3074",
"LatLong": "-38.0667,176.3667"
},
{
"Name": "Toatoa",
"PostCode": "3197",
"LatLong": "-38.1333,177.5"
},
{
"Name": "Upper Papamoa",
"PostCode": "3175",
"LatLong": "-37.7667,176.25"
},
{
"Name": "Upper Papamoa",
"PostCode": "3183",
"LatLong": "-37.7667,176.25"
},
{
"Name": "Waihi Beach",
"PostCode": "3611",
"LatLong": "-37.4,175.9333"
},
{
"Name": "Waihi Beach",
"PostCode": "3642",
"LatLong": "-37.4,175.9333"
},
{
"Name": "Waimana",
"PostCode": "3164",
"LatLong": "-38.15,177.0833"
},
{
"Name": "Waimana",
"PostCode": "3196",
"LatLong": "-38.15,177.0833"
},
{
"Name": "Waimana",
"PostCode": "3198",
"LatLong": "-38.15,177.0833"
},
{
"Name": "Waimangu",
"PostCode": "3073",
"LatLong": "-38.284,176.3826"
},
{
"Name": "Whakamarama",
"PostCode": "3176",
"LatLong": "-37.7333,176"
},
{
"Name": "Whakarewarewa",
"PostCode": "3043",
"LatLong": "-38.1603,176.2651"
},
{
"Name": "Whakatane",
"PostCode": "3158",
"LatLong": "-37.9585,176.9855"
}
]
}
]
}
]
},
{
"Name": "Canterbury",
"Code": "E9",
"Provinces": [
{
"Communities": [
{
"Places": [
{
"Name": "Akaroa",
"PostCode": "7520",
"LatLong": "-43.8038,172.9682"
},
{
"Name": "Akaroa",
"PostCode": "7542",
"LatLong": "-43.8038,172.9682"
},
{
"Name": "Akaroa",
"PostCode": "7581",
"LatLong": "-43.8038,172.9682"
},
{
"Name": "Allandale",
"PostCode": "8971",
"LatLong": "-43.65,172.65"
},
{
"Name": "Allenton",
"PostCode": "7700",
"LatLong": "-43.8883,171.7401"
},
{
"Name": "Allenton",
"PostCode": "7742",
"LatLong": "-43.8883,171.7401"
},
{
"Name": "Amberley",
"PostCode": "7410",
"LatLong": "-43.1559,172.7297"
},
{
"Name": "Amberley",
"PostCode": "7441",
"LatLong": "-43.1559,172.7297"
},
{
"Name": "Amberley",
"PostCode": "7481",
"LatLong": "-43.1559,172.7297"
},
{
"Name": "Aranui",
"PostCode": "8061",
"LatLong": "-43.5167,172.7"
},
{
"Name": "Aranui",
"PostCode": "8643",
"LatLong": "-43.5167,172.7"
},
{
"Name": "Arundel",
"PostCode": "7992",
"LatLong": "-43.9833,171.2833"
},
{
"Name": "Ataahua",
"PostCode": "7591",
"LatLong": "-43.7833,172.65"
},
{
"Name": "Avonside",
"PostCode": "8148",
"LatLong": "-43.5183,172.6601"
},
{
"Name": "Aylesbury",
"PostCode": "7671",
"LatLong": "-43.5333,172.2667"
},
{
"Name": "Beckenham",
"PostCode": "8242",
"LatLong": "-43.565,172.6411"
},
{
"Name": "Belfast",
"PostCode": "8546",
"LatLong": "-43.45,172.6333"
},
{
"Name": "Bells",
"PostCode": "7400",
"LatLong": "-43.3,172.5833"
},
{
"Name": "Bells",
"PostCode": "7440",
"LatLong": "-43.3,172.5833"
},
{
"Name": "Bromley",
"PostCode": "8062",
"LatLong": "-43.5283,172.6801"
},
{
"Name": "Bromley",
"PostCode": "8642",
"LatLong": "-43.5283,172.6801"
},
{
"Name": "Burnham",
"PostCode": "7600",
"LatLong": "-43.6167,172.3167"
},
{
"Name": "Burnside",
"PostCode": "8053",
"LatLong": "-43.4983,172.5601"
},
{
"Name": "Burnside",
"PostCode": "8545",
"LatLong": "-43.4983,172.5601"
},
{
"Name": "Cashmere Hills",
"PostCode": "8022",
"LatLong": "-43.5833,172.6333"
},
{
"Name": "Cave",
"PostCode": "7957",
"LatLong": "-44.3167,170.95"
},
{
"Name": "Charwell Forks",
"PostCode": "7373",
"LatLong": "-42.4167,173.3667"
},
{
"Name": "Cheviot",
"PostCode": "7310",
"LatLong": "-42.8167,173.2667"
},
{
"Name": "Cheviot",
"PostCode": "7341",
"LatLong": "-42.8167,173.2667"
},
{
"Name": "Christchurch",
"PostCode": "8011",
"LatLong": "-43.5333,172.6333"
},
{
"Name": "Christchurch",
"PostCode": "8013",
"LatLong": "-43.5333,172.6333"
},
{
"Name": "Christchurch",
"PostCode": "8140",
"LatLong": "-43.5333,172.6333"
},
{
"Name": "Christchurch",
"PostCode": "8141",
"LatLong": "-43.5333,172.6333"
},
{
"Name": "Christchurch",
"PostCode": "8142",
"LatLong": "-43.5333,172.6333"
},
{
"Name": "Christchurch",
"PostCode": "8144",
"LatLong": "-43.5333,172.6333"
},
{
"Name": "Claremont",
"PostCode": "7974",
"LatLong": "-44.4,171.0833"
},
{
"Name": "Coalgate",
"PostCode": "7646",
"LatLong": "-43.4833,171.9667"
},
{
"Name": "Coutts Island",
"PostCode": "7670",
"LatLong": "-43.4333,172.6167"
},
{
"Name": "Craigieburn",
"PostCode": "7580",
"LatLong": "-43.1,171.8667"
},
{
"Name": "Culverden",
"PostCode": "7345",
"LatLong": "-42.7667,172.85"
},
{
"Name": "Cust",
"PostCode": "7444",
"LatLong": "-43.3167,172.3667"
},
{
"Name": "Dallington",
"PostCode": "8640",
"LatLong": "-43.5083,172.6701"
},
{
"Name": "Darfield",
"PostCode": "7510",
"LatLong": "-43.4833,172.1167"
},
{
"Name": "Darfield",
"PostCode": "7541",
"LatLong": "-43.4833,172.1167"
},
{
"Name": "Diamond Harbour",
"PostCode": "8941",
"LatLong": "-43.6289,172.7254"
},
{
"Name": "Diamond Harbour",
"PostCode": "8942",
"LatLong": "-43.6289,172.7254"
},
{
"Name": "Domett",
"PostCode": "7383",
"LatLong": "-42.85,173.2167"
},
{
"Name": "Dorie",
"PostCode": "7781",
"LatLong": "-43.8833,172.15"
},
{
"Name": "Doyleston",
"PostCode": "7548",
"LatLong": "-43.75,172.3"
},
{
"Name": "Dunsandel",
"PostCode": "7657",
"LatLong": "-43.6667,172.1833"
},
{
"Name": "Dunsandel",
"PostCode": "7682",
"LatLong": "-43.6667,172.1833"
},
{
"Name": "Duntroon",
"PostCode": "9445",
"LatLong": "-44.8554,170.6848"
},
{
"Name": "Duvauchelle",
"PostCode": "7545",
"LatLong": "-43.75,172.9333"
},
{
"Name": "Esk Valley",
"PostCode": "7971",
"LatLong": "-44.5333,171.0833"
},
{
"Name": "Esk Valley",
"PostCode": "7988",
"LatLong": "-44.5333,171.0833"
},
{
"Name": "Ethelton",
"PostCode": "7382",
"LatLong": "-42.8833,173.0833"
},
{
"Name": "Fairlie",
"PostCode": "7925",
"LatLong": "-44.1,170.8333"
},
{
"Name": "Fairlie",
"PostCode": "7949",
"LatLong": "-44.1,170.8333"
},
{
"Name": "Fendalton",
"PostCode": "8041",
"LatLong": "-43.5167,172.6"
},
{
"Name": "Fendalton",
"PostCode": "8540",
"LatLong": "-43.5167,172.6"
},
{
"Name": "Flaxton",
"PostCode": "7691",
"LatLong": "-43.35,172.6333"
},
{
"Name": "Flemington",
"PostCode": "7774",
"LatLong": "-44.0167,171.7333"
},
{
"Name": "Geraldine",
"PostCode": "7930",
"LatLong": "-44.0906,171.2446"
},
{
"Name": "Geraldine",
"PostCode": "7956",
"LatLong": "-44.0906,171.2446"
},
{
"Name": "Glentanner",
"PostCode": "7946",
"LatLong": "-43.9073,170.1234"
},
{
"Name": "Glentanner",
"PostCode": "7999",
"LatLong": "-43.9073,170.1234"
},
{
"Name": "Goose Bay",
"PostCode": "7374",
"LatLong": "-42.479,173.5278"
},
{
"Name": "Halswell",
"PostCode": "8025",
"LatLong": "-43.5833,172.5667"
},
{
"Name": "Halswell",
"PostCode": "8245",
"LatLong": "-43.5833,172.5667"
},
{
"Name": "Hampstead",
"PostCode": "7740",
"LatLong": "-43.9083,171.7501"
},
{
"Name": "Hanmer Springs",
"PostCode": "7334",
"LatLong": "-42.5167,172.8167"
},
{
"Name": "Hanmer Springs",
"PostCode": "7360",
"LatLong": "-42.5167,172.8167"
},
{
"Name": "Hanmer Springs",
"PostCode": "7392",
"LatLong": "-42.5167,172.8167"
},
{
"Name": "Hanmer Springs",
"PostCode": "7395",
"LatLong": "-42.5167,172.8167"
},
{
"Name": "Harewood",
"PostCode": "8051",
"LatLong": "-43.4833,172.5833"
},
{
"Name": "Harewood",
"PostCode": "8543",
"LatLong": "-43.4833,172.5833"
},
{
"Name": "Harewood",
"PostCode": "8544",
"LatLong": "-43.4833,172.5833"
},
{
"Name": "Hawarden",
"PostCode": "7348",
"LatLong": "-42.9333,172.6333"
},
{
"Name": "Hawkeswood",
"PostCode": "7384",
"LatLong": "-42.65,173.3333"
},
{
"Name": "Hawkins",
"PostCode": "7571",
"LatLong": "-43.4833,172.0333"
},
{
"Name": "Hazelburn",
"PostCode": "7982",
"LatLong": "-44.2,170.9833"
},
{
"Name": "Hei Hei",
"PostCode": "8042",
"LatLong": "-43.5283,172.5201"
},
{
"Name": "Highbank",
"PostCode": "7782",
"LatLong": "-43.6167,171.75"
},
{
"Name": "Hillsborough",
"PostCode": "8023",
"LatLong": "-43.5626,172.6737"
},
{
"Name": "Hillsborough",
"PostCode": "8246",
"LatLong": "-43.5626,172.6737"
},
{
"Name": "Hinds",
"PostCode": "7747",
"LatLong": "-44,171.5667"
},
{
"Name": "Hinds",
"PostCode": "7773",
"LatLong": "-44,171.5667"
},
{
"Name": "Hornby",
"PostCode": "8441",
"LatLong": "-43.55,172.5333"
},
{
"Name": "Hororata",
"PostCode": "7544",
"LatLong": "-43.5333,171.95"
},
{
"Name": "Ilam",
"PostCode": "8444",
"LatLong": "-43.5183,172.5701"
},
{
"Name": "Kaiapoi",
"PostCode": "7630",
"LatLong": "-43.3783,172.6401"
},
{
"Name": "Kaiapoi",
"PostCode": "7644",
"LatLong": "-43.3783,172.6401"
},
{
"Name": "Kaikoura Suburban",
"PostCode": "7340",
"LatLong": "-42.3833,173.65"
},
{
"Name": "Kaingapai",
"PostCode": "9498",
"LatLong": "-44.6,170.5667"
},
{
"Name": "Kekerengu",
"PostCode": "7260",
"LatLong": "-42.0012,174.0077"
},
{
"Name": "Kensington",
"PostCode": "7943",
"LatLong": "-44.412,171.247"
},
{
"Name": "Kirwee",
"PostCode": "7543",
"LatLong": "-43.5,172.2167"
},
{
"Name": "Kurow",
"PostCode": "9446",
"LatLong": "-44.7334,170.4696"
},
{
"Name": "Lake Coleridge",
"PostCode": "7572",
"LatLong": "-43.3667,171.5333"
},
{
"Name": "Lake Coleridge",
"PostCode": "7791",
"LatLong": "-43.3667,171.5333"
},
{
"Name": "Lake Tekapo",
"PostCode": "7945",
"LatLong": "-44.0064,170.4803"
},
{
"Name": "Leeston",
"PostCode": "7632",
"LatLong": "-43.7667,172.3"
},
{
"Name": "Leeston",
"PostCode": "7656",
"LatLong": "-43.7667,172.3"
},
{
"Name": "Leithfield",
"PostCode": "7446",
"LatLong": "-43.2,172.7333"
},
{
"Name": "Lincoln",
"PostCode": "7608",
"LatLong": "-43.65,172.4833"
},
{
"Name": "Lincoln",
"PostCode": "7640",
"LatLong": "-43.65,172.4833"
},
{
"Name": "Lincoln",
"PostCode": "7647",
"LatLong": "-43.65,172.4833"
},
{
"Name": "Linwood",
"PostCode": "8147",
"LatLong": "-43.5333,172.65"
},
{
"Name": "Lismore",
"PostCode": "7775",
"LatLong": "-43.9,171.4833"
},
{
"Name": "Little River",
"PostCode": "7546",
"LatLong": "-43.7667,172.7833"
},
{
"Name": "Lyndhurst",
"PostCode": "7776",
"LatLong": "-43.7,171.7167"
},
{
"Name": "Lyttelton",
"PostCode": "8082",
"LatLong": "-43.6031,172.7176"
},
{
"Name": "Lyttelton",
"PostCode": "8841",
"LatLong": "-43.6031,172.7176"
},
{
"Name": "Masons Flat",
"PostCode": "7385",
"LatLong": "-42.9,172.55"
},
{
"Name": "Mawaro",
"PostCode": "7984",
"LatLong": "-44.3,170.8833"
},
{
"Name": "Mayfield",
"PostCode": "7748",
"LatLong": "-43.8167,171.4167"
},
{
"Name": "Mayfield",
"PostCode": "7778",
"LatLong": "-43.8167,171.4167"
},
{
"Name": "Methven",
"PostCode": "7730",
"LatLong": "-43.6333,171.65"
},
{
"Name": "Methven",
"PostCode": "7745",
"LatLong": "-43.6333,171.65"
},
{
"Name": "Mitcham",
"PostCode": "7772",
"LatLong": "-43.75,171.85"
},
{
"Name": "Morven",
"PostCode": "7980",
"LatLong": "-44.8333,171.1167"
},
{
"Name": "Motukarara",
"PostCode": "7672",
"LatLong": "-43.7333,172.5833"
},
{
"Name": "Mount Pleasant",
"PostCode": "8247",
"LatLong": "-43.5628,172.7152"
},
{
"Name": "Mount Somers",
"PostCode": "7746",
"LatLong": "-43.7167,171.4"
},
{
"Name": "New Brighton",
"PostCode": "8641",
"LatLong": "-43.5167,172.7333"
},
{
"Name": "North Loburn",
"PostCode": "7472",
"LatLong": "-43.2167,172.5"
},
{
"Name": "North Loburn",
"PostCode": "7474",
"LatLong": "-43.2167,172.5"
},
{
"Name": "North New Brighton",
"PostCode": "8842",
"LatLong": "-43.4918,172.7202"
},
{
"Name": "Omarama",
"PostCode": "9448",
"LatLong": "-44.4885,169.9663"
},
{
"Name": "Omihi",
"PostCode": "7483",
"LatLong": "-43.0167,172.85"
},
{
"Name": "Opawa",
"PostCode": "8145",
"LatLong": "-43.555,172.6614"
},
{
"Name": "Orton",
"PostCode": "7986",
"LatLong": "-44.1667,171.4333"
},
{
"Name": "Ouruhia",
"PostCode": "8083",
"LatLong": "-43.45,172.65"
},
{
"Name": "Oxford",
"PostCode": "7430",
"LatLong": "-43.3,172.1833"
},
{
"Name": "Oxford",
"PostCode": "7443",
"LatLong": "-43.3,172.1833"
},
{
"Name": "Oxford",
"PostCode": "7495",
"LatLong": "-43.3,172.1833"
},
{
"Name": "Papanui",
"PostCode": "8052",
"LatLong": "-43.5,172.6167"
},
{
"Name": "Papanui",
"PostCode": "8542",
"LatLong": "-43.5,172.6167"
},
{
"Name": "Pareora",
"PostCode": "7912",
"LatLong": "-44.5,171.2"
},
{
"Name": "Parkside",
"PostCode": "7942",
"LatLong": "-44.4029,171.2546"
},
{
"Name": "Pigeon Bay",
"PostCode": "8972",
"LatLong": "-43.688,172.8929"
},
{
"Name": "Pleasant Point",
"PostCode": "7903",
"LatLong": "-44.2667,171.1333"
},
{
"Name": "Pleasant Point",
"PostCode": "7947",
"LatLong": "-44.2667,171.1333"
},
{
"Name": "Prebbleton",
"PostCode": "7604",
"LatLong": "-43.5833,172.5167"
},
{
"Name": "Puhuka",
"PostCode": "7941",
"LatLong": "-44.3583,171.2301"
},
{
"Name": "Rakaia",
"PostCode": "7710",
"LatLong": "-43.75,172.0167"
},
{
"Name": "Rakaia",
"PostCode": "7743",
"LatLong": "-43.75,172.0167"
},
{
"Name": "Riccarton",
"PostCode": "8440",
"LatLong": "-43.5283,172.5901"
},
{
"Name": "Robinsons Bay",
"PostCode": "7583",
"LatLong": "-43.7667,172.9667"
},
{
"Name": "Rolleston",
"PostCode": "7614",
"LatLong": "-43.5833,172.3833"
},
{
"Name": "Rolleston",
"PostCode": "7643",
"LatLong": "-43.5833,172.3833"
},
{
"Name": "Rolleston",
"PostCode": "7675",
"LatLong": "-43.5833,172.3833"
},
{
"Name": "Rotherham",
"PostCode": "7391",
"LatLong": "-42.7,172.95"
},
{
"Name": "Saint Albans",
"PostCode": "8014",
"LatLong": "-43.5167,172.6167"
},
{
"Name": "Saint Albans",
"PostCode": "8143",
"LatLong": "-43.5167,172.6167"
},
{
"Name": "Saint Albans",
"PostCode": "8146",
"LatLong": "-43.5167,172.6167"
},
{
"Name": "Seadown",
"PostCode": "7973",
"LatLong": "-44.3,171.2667"
},
{
"Name": "Seafield",
"PostCode": "7777",
"LatLong": "-43.9167,171.9"
},
{
"Name": "Seaview",
"PostCode": "7910",
"LatLong": "-44.3966,171.2415"
},
{
"Name": "Sefton",
"PostCode": "7445",
"LatLong": "-43.25,172.6667"
},
{
"Name": "Sheffield",
"PostCode": "7500",
"LatLong": "-43.3833,172.0167"
},
{
"Name": "Sheffield",
"PostCode": "7540",
"LatLong": "-43.3833,172.0167"
},
{
"Name": "Sherwood Downs",
"PostCode": "7990",
"LatLong": "-43.9667,170.8667"
},
{
"Name": "Somerfield",
"PostCode": "8244",
"LatLong": "-43.5593,172.6313"
},
{
"Name": "Somerton",
"PostCode": "7784",
"LatLong": "-43.75,171.9167"
},
{
"Name": "Southbridge",
"PostCode": "7602",
"LatLong": "-43.8167,172.25"
},
{
"Name": "Southbridge",
"PostCode": "7642",
"LatLong": "-43.8167,172.25"
},
{
"Name": "Southbridge",
"PostCode": "7683",
"LatLong": "-43.8167,172.25"
},
{
"Name": "Southburn",
"PostCode": "7972",
"LatLong": "-44.45,171.1"
},
{
"Name": "Spotswood",
"PostCode": "7381",
"LatLong": "-42.75,173.2667"
},
{
"Name": "Spreydon",
"PostCode": "8024",
"LatLong": "-43.5567,172.6169"
},
{
"Name": "Spreydon",
"PostCode": "8149",
"LatLong": "-43.5567,172.6169"
},
{
"Name": "Spreydon",
"PostCode": "8243",
"LatLong": "-43.5567,172.6169"
},
{
"Name": "Springfield",
"PostCode": "7649",
"LatLong": "-43.3333,171.9167"
},
{
"Name": "Springfield",
"PostCode": "7681",
"LatLong": "-43.3333,171.9167"
},
{
"Name": "Springston",
"PostCode": "7616",
"LatLong": "-43.65,172.4167"
},
{
"Name": "Springston South",
"PostCode": "7674",
"LatLong": "-43.6833,172.4333"
},
{
"Name": "Staveley",
"PostCode": "7771",
"LatLong": "-43.65,171.4333"
},
{
"Name": "Sumner",
"PostCode": "8081",
"LatLong": "-43.5683,172.7601"
},
{
"Name": "Sumner",
"PostCode": "8840",
"LatLong": "-43.5683,172.7601"
},
{
"Name": "Sutherlands",
"PostCode": "7983",
"LatLong": "-44.2833,171.05"
},
{
"Name": "Sydenham",
"PostCode": "8240",
"LatLong": "-43.547,172.6359"
},
{
"Name": "Tai Tapu",
"PostCode": "7645",
"LatLong": "-43.6667,172.55"
},
{
"Name": "Te Moana",
"PostCode": "7991",
"LatLong": "-44.0667,171.1333"
},
{
"Name": "Te Pirita",
"PostCode": "7783",
"LatLong": "-43.6667,171.95"
},
{
"Name": "Templeton",
"PostCode": "7676",
"LatLong": "-43.55,172.4667"
},
{
"Name": "Templeton",
"PostCode": "8445",
"LatLong": "-43.55,172.4667"
},
{
"Name": "Temuka",
"PostCode": "7920",
"LatLong": "-44.2283,171.2801"
},
{
"Name": "Temuka",
"PostCode": "7948",
"LatLong": "-44.2283,171.2801"
},
{
"Name": "Timaru",
"PostCode": "7940",
"LatLong": "-44.3967,171.2536"
},
{
"Name": "Tinwald",
"PostCode": "7741",
"LatLong": "-43.9167,171.7167"
},
{
"Name": "Tormore",
"PostCode": "7387",
"LatLong": "-42.9,173.1333"
},
{
"Name": "Twizel",
"PostCode": "7901",
"LatLong": "-44.2584,170.1006"
},
{
"Name": "Twizel",
"PostCode": "7944",
"LatLong": "-44.2584,170.1006"
},
{
"Name": "Upper Riccarton",
"PostCode": "8442",
"LatLong": "-43.5283,172.5701"
},
{
"Name": "Waiau",
"PostCode": "7332",
"LatLong": "-42.65,173.05"
},
{
"Name": "Waiau",
"PostCode": "7343",
"LatLong": "-42.65,173.05"
},
{
"Name": "Waiau",
"PostCode": "7379",
"LatLong": "-42.65,173.05"
},
{
"Name": "Waihao Forks",
"PostCode": "7979",
"LatLong": "-44.8,170.9333"
},
{
"Name": "Waihaorunga",
"PostCode": "7977",
"LatLong": "-44.75,170.8167"
},
{
"Name": "Waikari",
"PostCode": "7420",
"LatLong": "-42.9667,172.6833"
},
{
"Name": "Waikari",
"PostCode": "7442",
"LatLong": "-42.9667,172.6833"
},
{
"Name": "Waikari",
"PostCode": "7491",
"LatLong": "-42.9667,172.6833"
},
{
"Name": "Waikarua",
"PostCode": "7987",
"LatLong": "-44.0333,170.8833"
},
{
"Name": "Waikuku",
"PostCode": "7473",
"LatLong": "-43.3,172.6833"
},
{
"Name": "Waikuku Beach",
"PostCode": "7402",
"LatLong": "-43.2833,172.7167"
},
{
"Name": "Waikuku Beach",
"PostCode": "7448",
"LatLong": "-43.2833,172.7167"
},
{
"Name": "Waimate",
"PostCode": "7924",
"LatLong": "-44.7284,171.0501"
},
{
"Name": "Waimate",
"PostCode": "7960",
"LatLong": "-44.7284,171.0501"
},
{
"Name": "Waimate",
"PostCode": "7978",
"LatLong": "-44.7284,171.0501"
},
{
"Name": "Wainui",
"PostCode": "7582",
"LatLong": "-43.8167,172.9"
},
{
"Name": "Waipara",
"PostCode": "7447",
"LatLong": "-43.0667,172.75"
},
{
"Name": "Waipara",
"PostCode": "7482",
"LatLong": "-43.0667,172.75"
},
{
"Name": "Waitohi Flat",
"PostCode": "7985",
"LatLong": "-44.2167,171.1833"
},
{
"Name": "West Eyreton",
"PostCode": "7471",
"LatLong": "-43.35,172.3833"
},
{
"Name": "Wetheral",
"PostCode": "7692",
"LatLong": "-43.3667,172.5833"
},
{
"Name": "Whitecliffs",
"PostCode": "7673",
"LatLong": "-43.4667,171.9"
},
{
"Name": "Wigram",
"PostCode": "8443",
"LatLong": "-43.55,172.55"
},
{
"Name": "Winchester",
"PostCode": "7958",
"LatLong": "-44.2,171.2833"
},
{
"Name": "Woodend",
"PostCode": "7610",
"LatLong": "-43.3167,172.6667"
},
{
"Name": "Woodend",
"PostCode": "7641",
"LatLong": "-43.3167,172.6667"
},
{
"Name": "Woolston",
"PostCode": "8241",
"LatLong": "-43.5473,172.6774"
}
]
}
]
}
]
},
{
"Name": "Gisborne",
"Code": "F1",
"Provinces": [
{
"Communities": [
{
"Places": [
{
"Name": "Ahititi",
"PostCode": "4091",
"LatLong": "-38.4333,178.05"
},
{
"Name": "Kaiti",
"PostCode": "4010",
"LatLong": "-38.6682,178.0302"
},
{
"Name": "Kaiti",
"PostCode": "4040",
"LatLong": "-38.6682,178.0302"
},
{
"Name": "Matawai",
"PostCode": "4051",
"LatLong": "-38.35,177.5333"
},
{
"Name": "Motu",
"PostCode": "4052",
"LatLong": "-38.25,177.55"
},
{
"Name": "Otoko",
"PostCode": "4092",
"LatLong": "-38.4,177.6667"
},
{
"Name": "Pakihiroa",
"PostCode": "4083",
"LatLong": "-37.85,178.0667"
},
{
"Name": "Patutahi",
"PostCode": "4045",
"LatLong": "-38.6167,177.9"
},
{
"Name": "Pehiri",
"PostCode": "4072",
"LatLong": "-38.6333,177.7"
},
{
"Name": "Rakauroa",
"PostCode": "4075",
"LatLong": "-38.4167,177.55"
},
{
"Name": "Rangitukia",
"PostCode": "4049",
"LatLong": "-37.7667,178.45"
},
{
"Name": "Ruatoria",
"PostCode": "4032",
"LatLong": "-37.8833,178.3333"
},
{
"Name": "Ruatoria",
"PostCode": "4043",
"LatLong": "-37.8833,178.3333"
},
{
"Name": "Ruatoria",
"PostCode": "4082",
"LatLong": "-37.8833,178.3333"
},
{
"Name": "Tamarau",
"PostCode": "4041",
"LatLong": "-38.6782,178.0502"
},
{
"Name": "Te Araroa",
"PostCode": "4050",
"LatLong": "-37.6333,178.3667"
},
{
"Name": "Te Araroa",
"PostCode": "4087",
"LatLong": "-37.6333,178.3667"
},
{
"Name": "Te Karaka",
"PostCode": "4022",
"LatLong": "-38.4667,177.8667"
},
{
"Name": "Te Karaka",
"PostCode": "4042",
"LatLong": "-38.4667,177.8667"
},
{
"Name": "Te Karaka",
"PostCode": "4093",
"LatLong": "-38.4667,177.8667"
},
{
"Name": "Te Puia",
"PostCode": "4048",
"LatLong": "-38.0667,178.3"
},
{
"Name": "Tiniroto",
"PostCode": "4044",
"LatLong": "-38.7667,177.5667"
},
{
"Name": "Tiniroto",
"PostCode": "4078",
"LatLong": "-38.7667,177.5667"
},
{
"Name": "Tokomaru",
"PostCode": "4047",
"LatLong": "-38.1333,178.3"
},
{
"Name": "Tokomaru",
"PostCode": "4079",
"LatLong": "-38.1333,178.3"
},
{
"Name": "Tolaga Bay",
"PostCode": "4046",
"LatLong": "-38.3667,178.3"
},
{
"Name": "Tolaga Bay",
"PostCode": "4077",
"LatLong": "-38.3667,178.3"
},
{
"Name": "Waerengaahika",
"PostCode": "4071",
"LatLong": "-38.6,177.9333"
},
{
"Name": "Waitakaro",
"PostCode": "4081",
"LatLong": "-37.9333,178.2667"
},
{
"Name": "Whakaangiangi",
"PostCode": "4086",
"LatLong": "-37.7167,178.3"
},
{
"Name": "Whangara",
"PostCode": "4073",
"LatLong": "-38.5667,178.2167"
},
{
"Name": "Whatatutu",
"PostCode": "4094",
"LatLong": "-38.3833,177.8333"
}
]
}
]
}
]
},
{
"Name": "Hawke's Bay",
"Code": "F2",
"Provinces": [
{
"Communities": [
{
"Places": [
{
"Name": "Ahuriri",
"PostCode": "4144",
"LatLong": "-39.4833,176.9"
},
{
"Name": "Akina",
"PostCode": "4122",
"LatLong": "-39.6482,176.8402"
},
{
"Name": "Argyll East",
"PostCode": "4273",
"LatLong": "-39.8667,176.5333"
},
{
"Name": "Ashley Clinton",
"PostCode": "4286",
"LatLong": "-39.95,176.25"
},
{
"Name": "Blackburn",
"PostCode": "4171",
"LatLong": "-39.8667,176.2833"
},
{
"Name": "Blackburn",
"PostCode": "4278",
"LatLong": "-39.8667,176.2833"
},
{
"Name": "Blackburn",
"PostCode": "4279",
"LatLong": "-39.8667,176.2833"
},
{
"Name": "Clive",
"PostCode": "4148",
"LatLong": "-39.5833,176.9167"
},
{
"Name": "Elsthorpe",
"PostCode": "4295",
"LatLong": "-39.9167,176.8167"
},
{
"Name": "Flaxmere",
"PostCode": "4154",
"LatLong": "-39.6182,176.7802"
},
{
"Name": "Flaxmere",
"PostCode": "4175",
"LatLong": "-39.6182,176.7802"
},
{
"Name": "Frasertown",
"PostCode": "4163",
"LatLong": "-38.9686,177.4006"
},
{
"Name": "Greenmeadows",
"PostCode": "4145",
"LatLong": "-39.5182,176.8602"
},
{
"Name": "HASTINGS",
"PostCode": "4120",
"LatLong": "-39.6381,176.8492"
},
{
"Name": "Haumoana",
"PostCode": "4102",
"LatLong": "-39.6037,176.9457"
},
{
"Name": "Havelock North",
"PostCode": "4130",
"LatLong": "-39.6667,176.8833"
},
{
"Name": "Havelock North",
"PostCode": "4157",
"LatLong": "-39.6667,176.8833"
},
{
"Name": "Kotemaori",
"PostCode": "4188",
"LatLong": "-39.0667,177.0333"
},
{
"Name": "Kotemaori",
"PostCode": "4189",
"LatLong": "-39.0667,177.0333"
},
{
"Name": "Maharakeke",
"PostCode": "4281",
"LatLong": "-40.0167,176.45"
},
{
"Name": "Maharakeke",
"PostCode": "4288",
"LatLong": "-40.0167,176.45"
},
{
"Name": "Mahia",
"PostCode": "4166",
"LatLong": "-39.0872,177.9172"
},
{
"Name": "Mayfair",
"PostCode": "4159",
"LatLong": "-39.6382,176.8502"
},
{
"Name": "Napier South",
"PostCode": "4143",
"LatLong": "-39.4982,176.9002"
},
{
"Name": "North Clyde",
"PostCode": "4108",
"LatLong": "-39.0282,177.4202"
},
{
"Name": "Nuhaka",
"PostCode": "4165",
"LatLong": "-39.05,177.75"
},
{
"Name": "Onekawa",
"PostCode": "4110",
"LatLong": "-39.4982,176.8802"
},
{
"Name": "Onekawa",
"PostCode": "4140",
"LatLong": "-39.5091,176.8896"
},
{
"Name": "Onga Onga",
"PostCode": "4244",
"LatLong": "-39.9167,176.4167"
},
{
"Name": "Opoiti",
"PostCode": "4196",
"LatLong": "-38.8883,177.4928"
},
{
"Name": "Otane",
"PostCode": "4202",
"LatLong": "-39.8833,176.6333"
},
{
"Name": "Otane",
"PostCode": "4241",
"LatLong": "-39.8833,176.6333"
},
{
"Name": "Pahowai",
"PostCode": "4161",
"LatLong": "-39.6006,176.8942"
},
{
"Name": "Parkvale",
"PostCode": "4155",
"LatLong": "-39.6382,176.8502"
},
{
"Name": "Parkvale",
"PostCode": "4156",
"LatLong": "-39.6382,176.8502"
},
{
"Name": "Parkvale",
"PostCode": "4158",
"LatLong": "-39.6382,176.8502"
},
{
"Name": "Patangata",
"PostCode": "4271",
"LatLong": "-39.9167,176.7167"
},
{
"Name": "Patangata",
"PostCode": "4277",
"LatLong": "-39.9167,176.7167"
},
{
"Name": "Patoka",
"PostCode": "4186",
"LatLong": "-39.35,176.6167"
},
{
"Name": "Petane",
"PostCode": "4104",
"LatLong": "-39.3833,176.8667"
},
{
"Name": "Petane",
"PostCode": "4149",
"LatLong": "-39.4131,176.8767"
},
{
"Name": "Pirimai",
"PostCode": "4142",
"LatLong": "-39.5082,176.8802"
},
{
"Name": "Pirimai",
"PostCode": "4146",
"LatLong": "-39.5082,176.8802"
},
{
"Name": "Porangahau",
"PostCode": "4245",
"LatLong": "-40.2789,176.6283"
},
{
"Name": "Porangahau",
"PostCode": "4291",
"LatLong": "-40.2789,176.6283"
},
{
"Name": "Porangahau",
"PostCode": "4292",
"LatLong": "-40.2789,176.6283"
},
{
"Name": "Porangahau",
"PostCode": "4293",
"LatLong": "-40.2789,176.6283"
},
{
"Name": "Poukawa",
"PostCode": "4178",
"LatLong": "-39.7667,176.7333"
},
{
"Name": "Pukehou",
"PostCode": "4276",
"LatLong": "-39.8333,176.6333"
},
{
"Name": "Puketitiri",
"PostCode": "4179",
"LatLong": "-39.2833,176.55"
},
{
"Name": "Puketitiri",
"PostCode": "4184",
"LatLong": "-39.2833,176.55"
},
{
"Name": "Puk-kura",
"PostCode": "4112",
"LatLong": "-39.5233,176.8442"
},
{
"Name": "Raupunga",
"PostCode": "4191",
"LatLong": "-39.0333,177.2167"
},
{
"Name": "Raupunga",
"PostCode": "4197",
"LatLong": "-39.0333,177.2167"
},
{
"Name": "Ruataniwha",
"PostCode": "4272",
"LatLong": "-39.9333,176.5"
},
{
"Name": "Ruataniwha",
"PostCode": "4283",
"LatLong": "-39.9333,176.5"
},
{
"Name": "Saint Leonards",
"PostCode": "4153",
"LatLong": "-39.6282,176.8302"
},
{
"Name": "Takapau",
"PostCode": "4203",
"LatLong": "-40.0333,176.35"
},
{
"Name": "Takapau",
"PostCode": "4243",
"LatLong": "-40.0333,176.35"
},
{
"Name": "Tamatea",
"PostCode": "4147",
"LatLong": "-39.5082,176.8602"
},
{
"Name": "Taradale",
"PostCode": "4141",
"LatLong": "-39.5333,176.85"
},
{
"Name": "Taradale",
"PostCode": "4183",
"LatLong": "-39.5333,176.85"
},
{
"Name": "Tarawera",
"PostCode": "3360",
"LatLong": "-39.0333,176.5833"
},
{
"Name": "Te Awanga",
"PostCode": "4172",
"LatLong": "-39.6333,176.9833"
},
{
"Name": "Te Hauke",
"PostCode": "4174",
"LatLong": "-39.7667,176.6833"
},
{
"Name": "Te Pohue",
"PostCode": "4182",
"LatLong": "-39.25,176.6833"
},
{
"Name": "Tikokino",
"PostCode": "4274",
"LatLong": "-39.8167,176.45"
},
{
"Name": "Tuai",
"PostCode": "4164",
"LatLong": "-38.8167,177.1667"
},
{
"Name": "Tuai",
"PostCode": "4195",
"LatLong": "-38.8167,177.1667"
},
{
"Name": "Tutira",
"PostCode": "4162",
"LatLong": "-39.2,176.8667"
},
{
"Name": "Tutira",
"PostCode": "4181",
"LatLong": "-39.2,176.8667"
},
{
"Name": "Waimarama",
"PostCode": "4294",
"LatLong": "-39.8,176.9833"
},
{
"Name": "Waipawa",
"PostCode": "4210",
"LatLong": "-39.9382,176.6002"
},
{
"Name": "Waipawa",
"PostCode": "4240",
"LatLong": "-39.9382,176.6002"
},
{
"Name": "Waipawa",
"PostCode": "4275",
"LatLong": "-39.9382,176.6002"
},
{
"Name": "Waipukurau",
"PostCode": "4200",
"LatLong": "-39.9982,176.5602"
},
{
"Name": "Waipukurau",
"PostCode": "4242",
"LatLong": "-39.9982,176.5602"
},
{
"Name": "Waipukurau",
"PostCode": "4285",
"LatLong": "-39.9982,176.5602"
},
{
"Name": "Wairoa",
"PostCode": "4160",
"LatLong": "-39.0333,177.3667"
},
{
"Name": "Wairoa",
"PostCode": "4193",
"LatLong": "-39.0333,177.3667"
},
{
"Name": "Waitaniwha",
"PostCode": "4198",
"LatLong": "-39.0592,177.7989"
},
{
"Name": "Wallingford",
"PostCode": "4284",
"LatLong": "-40.2167,176.6"
},
{
"Name": "Wanstead",
"PostCode": "4282",
"LatLong": "-40.1333,176.5333"
}
]
}
]
}
]
},
{
"Name": "Manawatu-Wanganui",
"Code": "F3",
"Provinces": [
{
"Communities": [
{
"Places": [
{
"Name": "Ahuiti",
"PostCode": "4578",
"LatLong": "-39.6333,175"
},
{
"Name": "Aokautere",
"PostCode": "4471",
"LatLong": "-40.3667,175.6667"
},
{
"Name": "Apiti",
"PostCode": "4774",
"LatLong": "-39.9667,175.8833"
},
{
"Name": "Aramoho",
"PostCode": "4500",
"LatLong": "-39.9019,175.0647"
},
{
"Name": "Ashhurst",
"PostCode": "4470",
"LatLong": "-40.2911,175.7547"
},
{
"Name": "Ashhurst",
"PostCode": "4810",
"LatLong": "-40.2911,175.7547"
},
{
"Name": "Ashhurst",
"PostCode": "4847",
"LatLong": "-40.2911,175.7547"
},
{
"Name": "Aukopae",
"PostCode": "3991",
"LatLong": "-38.9,175.1667"
},
{
"Name": "Awapuni",
"PostCode": "4412",
"LatLong": "-40.3762,175.5838"
},
{
"Name": "Awapuni",
"PostCode": "4445",
"LatLong": "-40.3762,175.5838"
},
{
"Name": "Ballance",
"PostCode": "4983",
"LatLong": "-40.4022,175.8017"
},
{
"Name": "Brunswick",
"PostCode": "4571",
"LatLong": "-39.85,175.0167"
},
{
"Name": "Bulls",
"PostCode": "4818",
"LatLong": "-40.1749,175.3846"
},
{
"Name": "Bulls",
"PostCode": "4863",
"LatLong": "-40.1749,175.3846"
},
{
"Name": "Bulls",
"PostCode": "4894",
"LatLong": "-40.1749,175.3846"
},
{
"Name": "Bunnythorpe",
"PostCode": "4481",
"LatLong": "-40.2833,175.6333"
},
{
"Name": "Bunnythorpe",
"PostCode": "4867",
"LatLong": "-40.2833,175.6333"
},
{
"Name": "Carnarvon",
"PostCode": "4473",
"LatLong": "-40.2833,175.3167"
},
{
"Name": "Colyton",
"PostCode": "4775",
"LatLong": "-40.2333,175.65"
},
{
"Name": "Dannevirke",
"PostCode": "4930",
"LatLong": "-40.2055,176.1008"
},
{
"Name": "Dannevirke",
"PostCode": "4942",
"LatLong": "-40.2055,176.1008"
},
{
"Name": "Eketahuna",
"PostCode": "4900",
"LatLong": "-40.6462,175.7037"
},
{
"Name": "Eketahuna",
"PostCode": "4940",
"LatLong": "-40.6462,175.7037"
},
{
"Name": "Eketahuna",
"PostCode": "4994",
"LatLong": "-40.6462,175.7037"
},
{
"Name": "Erehwon",
"PostCode": "4792",
"LatLong": "-39.5165,175.9651"
},
{
"Name": "FEILDING",
"PostCode": "4702",
"LatLong": "-40.2183,175.5402"
},
{
"Name": "FEILDING",
"PostCode": "4740",
"LatLong": "-40.2183,175.5402"
},
{
"Name": "Foxton",
"PostCode": "4814",
"LatLong": "-40.4667,175.3"
},
{
"Name": "Foxton",
"PostCode": "4848",
"LatLong": "-40.4667,175.3"
},
{
"Name": "Foxton Beach",
"PostCode": "4815",
"LatLong": "-40.4667,175.2167"
},
{
"Name": "Foxton Beach",
"PostCode": "4849",
"LatLong": "-40.4667,175.2167"
},
{
"Name": "Gonville",
"PostCode": "4501",
"LatLong": "-39.9388,175.0457"
},
{
"Name": "Gonville",
"PostCode": "4543",
"LatLong": "-39.9388,175.0457"
},
{
"Name": "Haunui",
"PostCode": "4986",
"LatLong": "-40.6085,176.0463"
},
{
"Name": "Hikumutu",
"PostCode": "3992",
"LatLong": "-38.95,175.2833"
},
{
"Name": "Himatangi",
"PostCode": "4891",
"LatLong": "-40.4,175.3167"
},
{
"Name": "Hokowhitu",
"PostCode": "4440",
"LatLong": "-40.3626,175.6338"
},
{
"Name": "Hokowhitu",
"PostCode": "4446",
"LatLong": "-40.3626,175.6338"
},
{
"Name": "Hopelands",
"PostCode": "4997",
"LatLong": "-40.3522,175.9528"
},
{
"Name": "Hunterville",
"PostCode": "4730",
"LatLong": "-39.9366,175.5684"
},
{
"Name": "Hunterville",
"PostCode": "4745",
"LatLong": "-39.9366,175.5684"
},
{
"Name": "Kairanga",
"PostCode": "4475",
"LatLong": "-40.35,175.5333"
},
{
"Name": "Kaitawa",
"PostCode": "4981",
"LatLong": "-40.4966,175.89"
},
{
"Name": "Kakatahi",
"PostCode": "4573",
"LatLong": "-39.6833,175.3333"
},
{
"Name": "Kakatahi",
"PostCode": "4585",
"LatLong": "-39.6833,175.3333"
},
{
"Name": "Kakatahi",
"PostCode": "4586",
"LatLong": "-39.6833,175.3333"
},
{
"Name": "Kauangaroa",
"PostCode": "4577",
"LatLong": "-39.9244,175.2829"
},
{
"Name": "Kelvin Grove",
"PostCode": "4414",
"LatLong": "-40.3287,175.6451"
},
{
"Name": "Kimbolton",
"PostCode": "4744",
"LatLong": "-40.0555,175.7794"
},
{
"Name": "Kirikau",
"PostCode": "3993",
"LatLong": "-39.0167,175.1333"
},
{
"Name": "Kiritaki",
"PostCode": "4972",
"LatLong": "-40.2392,175.9827"
},
{
"Name": "Kiwitea",
"PostCode": "4777",
"LatLong": "-40.1167,175.7333"
},
{
"Name": "Konini",
"PostCode": "4984",
"LatLong": "-40.5046,175.7916"
},
{
"Name": "Konini",
"PostCode": "4987",
"LatLong": "-40.5046,175.7916"
},
{
"Name": "Koputaroa",
"PostCode": "5575",
"LatLong": "-40.5778,175.3384"
},
{
"Name": "Levin",
"PostCode": "5510",
"LatLong": "-40.6333,175.275"
},
{
"Name": "Levin",
"PostCode": "5540",
"LatLong": "-40.6333,175.275"
},
{
"Name": "Levin",
"PostCode": "5571",
"LatLong": "-40.6333,175.275"
},
{
"Name": "Longburn",
"PostCode": "4820",
"LatLong": "-40.384,175.5429"
},
{
"Name": "Longburn",
"PostCode": "4866",
"LatLong": "-40.384,175.5429"
},
{
"Name": "Makotuku",
"PostCode": "4977",
"LatLong": "-40.1206,176.2319"
},
{
"Name": "Makuri",
"PostCode": "4985",
"LatLong": "-40.5333,176.0167"
},
{
"Name": "Makuri",
"PostCode": "4989",
"LatLong": "-40.5333,176.0167"
},
{
"Name": "Manakau",
"PostCode": "5541",
"LatLong": "-40.7167,175.2167"
},
{
"Name": "Manakau",
"PostCode": "5573",
"LatLong": "-40.7167,175.2167"
},
{
"Name": "Manakau",
"PostCode": "5581",
"LatLong": "-40.7167,175.2167"
},
{
"Name": "Mangamaire",
"PostCode": "4988",
"LatLong": "-40.5172,175.7526"
},
{
"Name": "Mangaweka",
"PostCode": "4746",
"LatLong": "-39.8094,175.7888"
},
{
"Name": "Mangawhata",
"PostCode": "4477",
"LatLong": "-40.4,175.4333"
},
{
"Name": "Manunui",
"PostCode": "3924",
"LatLong": "-38.8833,175.3333"
},
{
"Name": "Marotiri",
"PostCode": "4893",
"LatLong": "-40.4833,175.35"
},
{
"Name": "Marton",
"PostCode": "4710",
"LatLong": "-40.0692,175.3782"
},
{
"Name": "Marton",
"PostCode": "4741",
"LatLong": "-40.0692,175.3782"
},
{
"Name": "Marton",
"PostCode": "4788",
"LatLong": "-40.0692,175.3782"
},
{
"Name": "Marton",
"PostCode": "4789",
"LatLong": "-40.0692,175.3782"
},
{
"Name": "Matahiwi",
"PostCode": "4576",
"LatLong": "-39.6,175.15"
},
{
"Name": "Matiere",
"PostCode": "3995",
"LatLong": "-38.75,175.1"
},
{
"Name": "Milson",
"PostCode": "4478",
"LatLong": "-40.3283,175.6102"
},
{
"Name": "Mowhanau",
"PostCode": "4574",
"LatLong": "-39.8667,174.9"
},
{
"Name": "National Park",
"PostCode": "3948",
"LatLong": "-39.1833,175.4"
},
{
"Name": "Ngamoko",
"PostCode": "4974",
"LatLong": "-40.0545,176.1632"
},
{
"Name": "Ngapuke",
"PostCode": "3994",
"LatLong": "-38.85,175.4667"
},
{
"Name": "Ngaturi",
"PostCode": "4982",
"LatLong": "-40.4682,175.9227"
},
{
"Name": "Nireaha",
"PostCode": "4995",
"LatLong": "-40.615,175.6529"
},
{
"Name": "Norsewood",
"PostCode": "4287",
"LatLong": "-40.0705,176.2183"
},
{
"Name": "Norsewood",
"PostCode": "4943",
"LatLong": "-40.0705,176.2183"
},
{
"Name": "Nukumaru",
"PostCode": "4587",
"LatLong": "-39.8333,174.8"
},
{
"Name": "Ohakea",
"PostCode": "4816",
"LatLong": "-40.2,175.4"
},
{
"Name": "Ohakune",
"PostCode": "4625",
"LatLong": "-39.4082,175.4002"
},
{
"Name": "Ohakune",
"PostCode": "4660",
"LatLong": "-39.4082,175.4002"
},
{
"Name": "Ohau",
"PostCode": "5570",
"LatLong": "-40.6667,175.25"
},
{
"Name": "Ohotu",
"PostCode": "4793",
"LatLong": "-39.7119,175.8389"
},
{
"Name": "Ohura",
"PostCode": "3926",
"LatLong": "-38.8333,174.9833"
},
{
"Name": "Ohura",
"PostCode": "3947",
"LatLong": "-38.8333,174.9833"
},
{
"Name": "Oio",
"PostCode": "3989",
"LatLong": "-39.05,175.4167"
},
{
"Name": "Okahukura",
"PostCode": "3996",
"LatLong": "-38.7833,175.2167"
},
{
"Name": "Okoia",
"PostCode": "4582",
"LatLong": "-39.9333,175.1333"
},
{
"Name": "Ongarue",
"PostCode": "3997",
"LatLong": "-38.7167,175.2833"
},
{
"Name": "Pahiatua",
"PostCode": "4910",
"LatLong": "-40.4534,175.8406"
},
{
"Name": "Pahiatua",
"PostCode": "4941",
"LatLong": "-40.4534,175.8406"
},
{
"Name": "Pakihikura",
"PostCode": "4783",
"LatLong": "-39.9333,175.7167"
},
{
"Name": "Papatawa",
"PostCode": "4998",
"LatLong": "-40.3174,175.9286"
},
{
"Name": "Piripiri",
"PostCode": "4978",
"LatLong": "-40.1736,176.1347"
},
{
"Name": "Pohangina",
"PostCode": "4884",
"LatLong": "-40.1734,175.7943"
},
{
"Name": "Pongaroa",
"PostCode": "4944",
"LatLong": "-40.5421,176.1937"
},
{
"Name": "Poukiore",
"PostCode": "4785",
"LatLong": "-39.8694,175.621"
},
{
"Name": "Pukeroa",
"PostCode": "4782",
"LatLong": "-39.7841,175.4972"
},
{
"Name": "Raetihi",
"PostCode": "4632",
"LatLong": "-39.4288,175.2773"
},
{
"Name": "Raetihi",
"PostCode": "4646",
"LatLong": "-39.4288,175.2773"
},
{
"Name": "Raetihi",
"PostCode": "4694",
"LatLong": "-39.4288,175.2773"
},
{
"Name": "Raketapauma",
"PostCode": "4791",
"LatLong": "-39.5513,175.65"
},
{
"Name": "Rangataua",
"PostCode": "4691",
"LatLong": "-39.4333,175.4667"
},
{
"Name": "Ratana",
"PostCode": "4548",
"LatLong": "-40.0412,175.1771"
},
{
"Name": "Raumati",
"PostCode": "4976",
"LatLong": "-40.1908,176.1463"
},
{
"Name": "Rewa",
"PostCode": "4780",
"LatLong": "-39.9833,175.6333"
},
{
"Name": "Rewa",
"PostCode": "4786",
"LatLong": "-39.9833,175.6333"
},
{
"Name": "Rongotea",
"PostCode": "4476",
"LatLong": "-40.2926,175.4251"
},
{
"Name": "Rongotea",
"PostCode": "4865",
"LatLong": "-40.2926,175.4251"
},
{
"Name": "Ruahine",
"PostCode": "4797",
"LatLong": "-39.8333,175.9"
},
{
"Name": "Sanson",
"PostCode": "4479",
"LatLong": "-40.2201,175.4245"
},
{
"Name": "Sanson",
"PostCode": "4817",
"LatLong": "-40.2201,175.4245"
},
{
"Name": "Sanson",
"PostCode": "4862",
"LatLong": "-40.2201,175.4245"
},
{
"Name": "Shannon",
"PostCode": "4821",
"LatLong": "-40.5483,175.4202"
},
{
"Name": "Shannon",
"PostCode": "4860",
"LatLong": "-40.5483,175.4202"
},
{
"Name": "Silverhope",
"PostCode": "4781",
"LatLong": "-39.9659,175.5283"
},
{
"Name": "Silverhope",
"PostCode": "4784",
"LatLong": "-39.9659,175.5283"
},
{
"Name": "Tahoraiti",
"PostCode": "4975",
"LatLong": "-40.2335,176.0597"
},
{
"Name": "Taihape",
"PostCode": "4720",
"LatLong": "-39.6782,175.798"
},
{
"Name": "Taihape",
"PostCode": "4742",
"LatLong": "-39.6782,175.798"
},
{
"Name": "Taihape",
"PostCode": "4796",
"LatLong": "-39.6782,175.798"
},
{
"Name": "Takaro",
"PostCode": "4442",
"LatLong": "-40.3579,175.5897"
},
{
"Name": "Tane",
"PostCode": "4993",
"LatLong": "-40.5758,175.8478"
},
{
"Name": "Tangimoana",
"PostCode": "4822",
"LatLong": "-40.3,175.25"
},
{
"Name": "Tatu",
"PostCode": "3980",
"LatLong": "-38.9,174.95"
},
{
"Name": "Taumarunui",
"PostCode": "3920",
"LatLong": "-38.8782,175.2602"
},
{
"Name": "Taumarunui",
"PostCode": "3946",
"LatLong": "-38.8782,175.2602"
},
{
"Name": "Te Ranga",
"PostCode": "4696",
"LatLong": "-39.3,175.2"
},
{
"Name": "Terrace End",
"PostCode": "4441",
"LatLong": "-40.3483,175.6302"
},
{
"Name": "Terrace End",
"PostCode": "4444",
"LatLong": "-40.3483,175.6302"
},
{
"Name": "Tiraumea",
"PostCode": "4996",
"LatLong": "-40.6333,176.0456"
},
{
"Name": "Ti-tree Point",
"PostCode": "4970",
"LatLong": "-40.437,176.4054"
},
{
"Name": "Tokomaru",
"PostCode": "4474",
"LatLong": "-40.473,175.5093"
},
{
"Name": "Tokomaru",
"PostCode": "4864",
"LatLong": "-40.473,175.5093"
},
{
"Name": "Turakina",
"PostCode": "4581",
"LatLong": "-40.047,175.2147"
},
{
"Name": "Turakina South",
"PostCode": "4547",
"LatLong": "-40.0515,175.2188"
},
{
"Name": "Umutoi",
"PostCode": "4771",
"LatLong": "-40,175.9667"
},
{
"Name": "Upokonui",
"PostCode": "4575",
"LatLong": "-39.7833,175.2167"
},
{
"Name": "Upper Ruatiti",
"PostCode": "3990",
"LatLong": "-39.2,175.2"
},
{
"Name": "Utiku",
"PostCode": "4794",
"LatLong": "-39.7334,175.8438"
},
{
"Name": "Waimiha",
"PostCode": "3998",
"LatLong": "-38.6167,175.3167"
},
{
"Name": "Waimiro",
"PostCode": "4990",
"LatLong": "-40.45,176.2333"
},
{
"Name": "Waione",
"PostCode": "4979",
"LatLong": "-40.4695,176.2797"
},
{
"Name": "Waione",
"PostCode": "4992",
"LatLong": "-40.4695,176.2797"
},
{
"Name": "Waiouru Military Camp",
"PostCode": "4795",
"LatLong": "-39.4706,175.6817"
},
{
"Name": "Waipatiki",
"PostCode": "4971",
"LatLong": "-40.373,176.2833"
},
{
"Name": "Waipatiki",
"PostCode": "4973",
"LatLong": "-40.373,176.2833"
},
{
"Name": "Waitarere",
"PostCode": "5572",
"LatLong": "-40.55,175.2"
},
{
"Name": "Waitarere",
"PostCode": "5574",
"LatLong": "-40.55,175.2"
},
{
"Name": "Waitewhenua",
"PostCode": "3979",
"LatLong": "-38.7,174.9667"
},
{
"Name": "Waituna West",
"PostCode": "4779",
"LatLong": "-40.05,175.6167"
},
{
"Name": "Wanganui",
"PostCode": "4540",
"LatLong": "-39.9333,175.05"
},
{
"Name": "Wanganui",
"PostCode": "4541",
"LatLong": "-39.9333,175.05"
},
{
"Name": "Wanganui East",
"PostCode": "4542",
"LatLong": "-39.9171,175.0616"
},
{
"Name": "West End",
"PostCode": "4443",
"LatLong": "-40.3659,175.5984"
},
{
"Name": "Whakaihuwaka",
"PostCode": "4584",
"LatLong": "-39.7667,175.15"
},
{
"Name": "Wiritoa",
"PostCode": "4572",
"LatLong": "-39.9667,175.1"
},
{
"Name": "Woodville",
"PostCode": "4920",
"LatLong": "-40.3372,175.8668"
},
{
"Name": "Woodville",
"PostCode": "4945",
"LatLong": "-40.3372,175.8668"
},
{
"Name": "Woodville",
"PostCode": "4999",
"LatLong": "-40.3372,175.8668"
}
]
}
]
}
]
},
{
"Name": "Marlborough",
"Code": "F4",
"Provinces": [
{
"Communities": [
{
"Places": [
{
"Name": "Avondale",
"PostCode": "7276",
"LatLong": "-41.6833,173.6333"
},
{
"Name": "Blenheim",
"PostCode": "7241",
"LatLong": "-41.516,173.9528"
},
{
"Name": "Grovetown",
"PostCode": "7202",
"LatLong": "-41.4833,173.9667"
},
{
"Name": "Havelock",
"PostCode": "7100",
"LatLong": "-41.2833,173.7667"
},
{
"Name": "Havelock",
"PostCode": "7150",
"LatLong": "-41.2833,173.7667"
},
{
"Name": "Havelock",
"PostCode": "7178",
"LatLong": "-41.2833,173.7667"
},
{
"Name": "Hillersden",
"PostCode": "7271",
"LatLong": "-41.6,173.4333"
},
{
"Name": "Kapowai",
"PostCode": "7193",
"LatLong": "-40.9,173.8333"
},
{
"Name": "Langridge",
"PostCode": "7371",
"LatLong": "-41.9833,173.4167"
},
{
"Name": "Manaroa",
"PostCode": "7282",
"LatLong": "-41.1167,174.0333"
},
{
"Name": "Picton",
"PostCode": "7220",
"LatLong": "-41.2907,174.008"
},
{
"Name": "Picton",
"PostCode": "7250",
"LatLong": "-41.2907,174.008"
},
{
"Name": "Rai Valley",
"PostCode": "7145",
"LatLong": "-41.2333,173.5833"
},
{
"Name": "Rai Valley",
"PostCode": "7194",
"LatLong": "-41.2333,173.5833"
},
{
"Name": "Renwick",
"PostCode": "7204",
"LatLong": "-41.5,173.8333"
},
{
"Name": "Renwick",
"PostCode": "7206",
"LatLong": "-41.5,173.8333"
},
{
"Name": "Renwick",
"PostCode": "7243",
"LatLong": "-41.5,173.8333"
},
{
"Name": "Renwick",
"PostCode": "7272",
"LatLong": "-41.5,173.8333"
},
{
"Name": "Seddon",
"PostCode": "7210",
"LatLong": "-41.6667,174.0833"
},
{
"Name": "Seddon",
"PostCode": "7247",
"LatLong": "-41.6667,174.0833"
},
{
"Name": "Spring Creek",
"PostCode": "7244",
"LatLong": "-41.4667,173.9667"
},
{
"Name": "Taimate",
"PostCode": "7285",
"LatLong": "-41.7833,174.15"
},
{
"Name": "Te Rou",
"PostCode": "7275",
"LatLong": "-41.5667,173.4667"
},
{
"Name": "Tinline",
"PostCode": "7192",
"LatLong": "-41.2667,173.5"
},
{
"Name": "Tira-ora",
"PostCode": "7195",
"LatLong": "-41.0833,173.8667"
},
{
"Name": "Tuamarina",
"PostCode": "7246",
"LatLong": "-41.4333,173.95"
},
{
"Name": "Tuamarina",
"PostCode": "7273",
"LatLong": "-41.4333,173.95"
},
{
"Name": "Upcot",
"PostCode": "7274",
"LatLong": "-41.9,173.5833"
},
{
"Name": "Waikawa",
"PostCode": "7251",
"LatLong": "-41.2667,174.05"
},
{
"Name": "Waikawa",
"PostCode": "7281",
"LatLong": "-41.2667,174.05"
},
{
"Name": "Ward",
"PostCode": "7248",
"LatLong": "-41.8333,174.1333"
},
{
"Name": "Whakatahuri",
"PostCode": "7284",
"LatLong": "-41.0167,174.0333"
},
{
"Name": "Witherlea",
"PostCode": "7201",
"LatLong": "-41.5283,173.9502"
},
{
"Name": "Witherlea",
"PostCode": "7240",
"LatLong": "-41.5283,173.9502"
},
{
"Name": "Witherlea",
"PostCode": "7242",
"LatLong": "-41.5283,173.9502"
}
]
}
]
}
]
},
{
"Name": "Nelson",
"Code": "F5",
"Provinces": [
{
"Communities": [
{
"Places": [
{
"Name": "Hira",
"PostCode": "7071",
"LatLong": "-41.2153,173.3961"
},
{
"Name": "Nelson",
"PostCode": "7045",
"LatLong": "-41.2708,173.284"
},
{
"Name": "Nelson East",
"PostCode": "7010",
"LatLong": "-41.2766,173.2998"
},
{
"Name": "Nelson East",
"PostCode": "7040",
"LatLong": "-41.2766,173.2998"
},
{
"Name": "Nelson East",
"PostCode": "7047",
"LatLong": "-41.2766,173.2998"
},
{
"Name": "Nelson South",
"PostCode": "7042",
"LatLong": "-41.285,173.2749"
},
{
"Name": "Nelson South",
"PostCode": "7046",
"LatLong": "-41.285,173.2749"
},
{
"Name": "Port Nelson",
"PostCode": "7043",
"LatLong": "-41.264,173.2763"
},
{
"Name": "Stoke",
"PostCode": "7011",
"LatLong": "-41.3167,173.2333"
},
{
"Name": "Stoke",
"PostCode": "7041",
"LatLong": "-41.3167,173.2333"
},
{
"Name": "Wakatu",
"PostCode": "7044",
"LatLong": "-41.2967,173.244"
}
]
}
]
}
]
},
{
"Name": "Northland",
"Code": "F6",
"Provinces": [
{
"Communities": [
{
"Places": [
{
"Name": "Ahipara",
"PostCode": "0449",
"LatLong": "-35.1667,173.1667"
},
{
"Name": "Arapohue",
"PostCode": "0370",
"LatLong": "-35.9833,173.9667"
},
{
"Name": "Arapohue",
"PostCode": "0374",
"LatLong": "-35.9833,173.9667"
},
{
"Name": "Awanui",
"PostCode": "0451",
"LatLong": "-35.05,173.25"
},
{
"Name": "Baylys Beach",
"PostCode": "0377",
"LatLong": "-35.9523,173.747"
},
{
"Name": "Broadwood",
"PostCode": "0462",
"LatLong": "-35.2667,173.3833"
},
{
"Name": "Broadwood",
"PostCode": "0491",
"LatLong": "-35.2667,173.3833"
},
{
"Name": "Dargaville",
"PostCode": "0310",
"LatLong": "-35.9333,173.8833"
},
{
"Name": "Dargaville",
"PostCode": "0340",
"LatLong": "-35.9333,173.8833"
},
{
"Name": "Haruru",
"PostCode": "0271",
"LatLong": "-35.2807,174.0543"
},
{
"Name": "Hikurangi",
"PostCode": "0150",
"LatLong": "-35.6,174.3"
},
{
"Name": "Huarau",
"PostCode": "0589",
"LatLong": "-36.1,174.3"
},
{
"Name": "Hukerenui",
"PostCode": "0182",
"LatLong": "-35.5167,174.1833"
},
{
"Name": "Kaeo",
"PostCode": "0448",
"LatLong": "-35.1,173.7833"
},
{
"Name": "Kaeo",
"PostCode": "0478",
"LatLong": "-35.1,173.7833"
},
{
"Name": "Kaiaka",
"PostCode": "0482",
"LatLong": "-35.1,173.4167"
},
{
"Name": "Kaikohe",
"PostCode": "0405",
"LatLong": "-35.3982,173.8002"
},
{
"Name": "Kaikohe",
"PostCode": "0440",
"LatLong": "-35.3982,173.8002"
},
{
"Name": "Kairara",
"PostCode": "0372",
"LatLong": "-35.8,173.8167"
},
{
"Name": "Kaitaia",
"PostCode": "0410",
"LatLong": "-35.1149,173.2637"
},
{
"Name": "Kaitaia",
"PostCode": "0441",
"LatLong": "-35.1149,173.2637"
},
{
"Name": "Kaiwaka",
"PostCode": "0542",
"LatLong": "-36.1667,174.45"
},
{
"Name": "Kaiwaka",
"PostCode": "0573",
"LatLong": "-36.1667,174.45"
},
{
"Name": "Karetu",
"PostCode": "0282",
"LatLong": "-35.3667,174.15"
},
{
"Name": "Kawakawa",
"PostCode": "0210",
"LatLong": "-35.3833,174.0667"
},
{
"Name": "Kawakawa",
"PostCode": "0243",
"LatLong": "-35.3833,174.0667"
},
{
"Name": "Kensington",
"PostCode": "0145",
"LatLong": "-35.7103,174.3135"
},
{
"Name": "Kerikeri",
"PostCode": "0230",
"LatLong": "-35.2268,173.9474"
},
{
"Name": "Kerikeri",
"PostCode": "0245",
"LatLong": "-35.2268,173.9474"
},
{
"Name": "Kirikopuni",
"PostCode": "0381",
"LatLong": "-35.8167,174.0167"
},
{
"Name": "Kiripaka",
"PostCode": "0173",
"LatLong": "-35.6333,174.4333"
},
{
"Name": "Kohukohu",
"PostCode": "0453",
"LatLong": "-35.35,173.5333"
},
{
"Name": "Lake Ohia",
"PostCode": "0483",
"LatLong": "-34.9833,173.3667"
},
{
"Name": "Mamaranui",
"PostCode": "0373",
"LatLong": "-35.8333,173.75"
},
{
"Name": "Manawaora",
"PostCode": "0272",
"LatLong": "-35.2833,174.2"
},
{
"Name": "Mangawhai",
"PostCode": "0540",
"LatLong": "-36.1167,174.5667"
},
{
"Name": "Mangawhai Heads",
"PostCode": "0505",
"LatLong": "-36.0882,174.5702"
},
{
"Name": "Mangawhai Heads",
"PostCode": "0541",
"LatLong": "-36.0882,174.5702"
},
{
"Name": "Mangonui",
"PostCode": "0442",
"LatLong": "-34.9905,173.5317"
},
{
"Name": "Manukau",
"PostCode": "0481",
"LatLong": "-35.2333,173.2167"
},
{
"Name": "Marangai",
"PostCode": "0475",
"LatLong": "-35.3333,173.7167"
},
{
"Name": "Mareretu",
"PostCode": "0571",
"LatLong": "-36.0333,174.2667"
},
{
"Name": "Marohemo",
"PostCode": "0583",
"LatLong": "-36.1833,174.3"
},
{
"Name": "Marua",
"PostCode": "0181",
"LatLong": "-35.5667,174.3667"
},
{
"Name": "Mata",
"PostCode": "0171",
"LatLong": "-35.85,174.3667"
},
{
"Name": "Matakohe",
"PostCode": "0550",
"LatLong": "-36.1333,174.1833"
},
{
"Name": "Matakohe",
"PostCode": "0594",
"LatLong": "-36.1333,174.1833"
},
{
"Name": "Maungakaramea",
"PostCode": "0146",
"LatLong": "-35.85,174.2167"
},
{
"Name": "Maungakaramea",
"PostCode": "0178",
"LatLong": "-35.85,174.2167"
},
{
"Name": "Maungatapere",
"PostCode": "0152",
"LatLong": "-35.75,174.2"
},
{
"Name": "Maungatapere",
"PostCode": "0179",
"LatLong": "-35.75,174.2"
},
{
"Name": "Maungaturoto",
"PostCode": "0588",
"LatLong": "-36.1,174.3667"
},
{
"Name": "Moengawahine",
"PostCode": "0176",
"LatLong": "-35.6333,174.05"
},
{
"Name": "Moerewa",
"PostCode": "0211",
"LatLong": "-35.3833,174.0333"
},
{
"Name": "Moerewa",
"PostCode": "0244",
"LatLong": "-35.3833,174.0333"
},
{
"Name": "Morningside",
"PostCode": "0143",
"LatLong": "-35.7348,174.3199"
},
{
"Name": "Ngunguru",
"PostCode": "0154",
"LatLong": "-35.6167,174.5"
},
{
"Name": "Okaihau",
"PostCode": "0447",
"LatLong": "-35.3167,173.7833"
},
{
"Name": "Omapere",
"PostCode": "0444",
"LatLong": "-35.5333,173.3833"
},
{
"Name": "Opononi",
"PostCode": "0445",
"LatLong": "-35.5,173.4"
},
{
"Name": "Opua",
"PostCode": "0200",
"LatLong": "-35.3167,174.1167"
},
{
"Name": "Opua",
"PostCode": "0241",
"LatLong": "-35.3167,174.1167"
},
{
"Name": "Otangarei",
"PostCode": "0141",
"LatLong": "-35.6882,174.3102"
},
{
"Name": "Pahi",
"PostCode": "0593",
"LatLong": "-36.1572,174.2283"
},
{
"Name": "Paihia",
"PostCode": "0247",
"LatLong": "-35.2807,174.091"
},
{
"Name": "Pakaraka",
"PostCode": "0472",
"LatLong": "-35.35,173.95"
},
{
"Name": "Panguru",
"PostCode": "0492",
"LatLong": "-35.3833,173.3833"
},
{
"Name": "Paparoa",
"PostCode": "0543",
"LatLong": "-36.1,174.2333"
},
{
"Name": "Parakao",
"PostCode": "0172",
"LatLong": "-35.7167,173.95"
},
{
"Name": "Paraoanui",
"PostCode": "0494",
"LatLong": "-35.05,173.6167"
},
{
"Name": "Pawarenga",
"PostCode": "0496",
"LatLong": "-35.35,173.25"
},
{
"Name": "Pokere",
"PostCode": "0281",
"LatLong": "-35.4833,173.9833"
},
{
"Name": "Pukenui",
"PostCode": "0460",
"LatLong": "-34.8167,173.1167"
},
{
"Name": "Puketona",
"PostCode": "0293",
"LatLong": "-35.3,173.9667"
},
{
"Name": "Purerua",
"PostCode": "0294",
"LatLong": "-35.15,174.0333"
},
{
"Name": "Puwera",
"PostCode": "0170",
"LatLong": "-35.7833,174.2833"
},
{
"Name": "Ranganui",
"PostCode": "0587",
"LatLong": "-36.15,174.4"
},
{
"Name": "Rawene",
"PostCode": "0443",
"LatLong": "-35.4022,173.5032"
},
{
"Name": "Redhill",
"PostCode": "0371",
"LatLong": "-36.0333,173.85"
},
{
"Name": "Rehia",
"PostCode": "0592",
"LatLong": "-36.0667,174.0333"
},
{
"Name": "Riverside",
"PostCode": "0140",
"LatLong": "-35.7234,174.3258"
},
{
"Name": "Riverside",
"PostCode": "0149",
"LatLong": "-35.7234,174.3258"
},
{
"Name": "Rowsells",
"PostCode": "0520",
"LatLong": "-36.1,174.35"
},
{
"Name": "Rowsells",
"PostCode": "0547",
"LatLong": "-36.1,174.35"
},
{
"Name": "Ruakaka",
"PostCode": "0116",
"LatLong": "-35.8833,174.4"
},
{
"Name": "Ruakaka",
"PostCode": "0151",
"LatLong": "-35.8833,174.4"
},
{
"Name": "Ruatangata East",
"PostCode": "0185",
"LatLong": "-35.65,174.2333"
},
{
"Name": "Ruawai",
"PostCode": "0530",
"LatLong": "-36.1333,174.0333"
},
{
"Name": "Ruawai",
"PostCode": "0549",
"LatLong": "-36.1333,174.0333"
},
{
"Name": "Ruawai",
"PostCode": "0591",
"LatLong": "-36.1333,174.0333"
},
{
"Name": "Rukuwai",
"PostCode": "0192",
"LatLong": "-35.75,174.4667"
},
{
"Name": "Russell",
"PostCode": "0202",
"LatLong": "-35.2615,174.1226"
},
{
"Name": "Russell",
"PostCode": "0242",
"LatLong": "-35.2615,174.1226"
},
{
"Name": "Saies",
"PostCode": "0479",
"LatLong": "-35.05,173.7"
},
{
"Name": "Sherwood Rise",
"PostCode": "0142",
"LatLong": "-35.7487,174.3598"
},
{
"Name": "Tahere",
"PostCode": "0175",
"LatLong": "-35.6833,174.4333"
},
{
"Name": "Taipa",
"PostCode": "0420",
"LatLong": "-34.996,173.4666"
},
{
"Name": "Tangaihe",
"PostCode": "0391",
"LatLong": "-36.1667,174.0167"
},
{
"Name": "Tautoro",
"PostCode": "0474",
"LatLong": "-35.4667,173.8333"
},
{
"Name": "Te Kao",
"PostCode": "0484",
"LatLong": "-34.65,172.95"
},
{
"Name": "Te Kopura",
"PostCode": "0341",
"LatLong": "-36.0333,173.9333"
},
{
"Name": "Tikipunga",
"PostCode": "0144",
"LatLong": "-35.6882,174.3202"
},
{
"Name": "Topuni",
"PostCode": "0975",
"LatLong": "-36.2167,174.4667"
},
{
"Name": "Tutamoe",
"PostCode": "0376",
"LatLong": "-35.65,173.65"
},
{
"Name": "Tutukaka",
"PostCode": "0153",
"LatLong": "-35.6,174.5333"
},
{
"Name": "Umawera",
"PostCode": "0476",
"LatLong": "-35.2833,173.5833"
},
{
"Name": "Waihaha",
"PostCode": "0283",
"LatLong": "-35.3333,174.2333"
},
{
"Name": "Waiharera",
"PostCode": "0486",
"LatLong": "-34.9333,173.2167"
},
{
"Name": "Waima",
"PostCode": "0473",
"LatLong": "-35.4833,173.5833"
},
{
"Name": "Waimamaku",
"PostCode": "0446",
"LatLong": "-35.5563,173.4782"
},
{
"Name": "Waiotira",
"PostCode": "0193",
"LatLong": "-35.9333,174.2"
},
{
"Name": "Waipapa",
"PostCode": "0246",
"LatLong": "-35.2,173.9167"
},
{
"Name": "Waipapa",
"PostCode": "0295",
"LatLong": "-35.2,173.9167"
},
{
"Name": "Waipu",
"PostCode": "0510",
"LatLong": "-35.9833,174.45"
},
{
"Name": "Waipu",
"PostCode": "0545",
"LatLong": "-35.9833,174.45"
},
{
"Name": "Waipu",
"PostCode": "0582",
"LatLong": "-35.9833,174.45"
},
{
"Name": "Waro",
"PostCode": "0114",
"LatLong": "-35.5833,174.3"
},
{
"Name": "Whangarei Heads",
"PostCode": "0174",
"LatLong": "-35.8167,174.5"
},
{
"Name": "Whangaruru North",
"PostCode": "0184",
"LatLong": "-35.35,174.35"
},
{
"Name": "Whatoro",
"PostCode": "0379",
"LatLong": "-35.75,173.6833"
},
{
"Name": "Whau Valley",
"PostCode": "0112",
"LatLong": "-35.6982,174.3002"
},
{
"Name": "Woodhill",
"PostCode": "0110",
"LatLong": "-35.7317,174.3104"
},
{
"Name": "Woodhill",
"PostCode": "0147",
"LatLong": "-35.7317,174.3104"
},
{
"Name": "Woodhill",
"PostCode": "0148",
"LatLong": "-35.7317,174.3104"
}
]
}
]
}
]
},
{
"Name": "Otago",
"Code": "F7",
"Provinces": [
{
"Communities": [
{
"Places": [
{
"Name": "Albert Town",
"PostCode": "9344",
"LatLong": "-44.6833,169.2"
},
{
"Name": "Aramoana",
"PostCode": "9082",
"LatLong": "-45.7833,170.7"
},
{
"Name": "Arrowtown",
"PostCode": "9302",
"LatLong": "-44.9384,168.8101"
},
{
"Name": "Arrowtown",
"PostCode": "9351",
"LatLong": "-44.9384,168.8101"
},
{
"Name": "Balclutha",
"PostCode": "9230",
"LatLong": "-46.2339,169.75"
},
{
"Name": "Balclutha",
"PostCode": "9240",
"LatLong": "-46.2339,169.75"
},
{
"Name": "Beaumont",
"PostCode": "9591",
"LatLong": "-45.8225,169.5301"
},
{
"Name": "Becks",
"PostCode": "9377",
"LatLong": "-45,169.7333"
},
{
"Name": "Berwick",
"PostCode": "9073",
"LatLong": "-45.95,170.1"
},
{
"Name": "Bridge Hill",
"PostCode": "9320",
"LatLong": "-45.2584,169.3801"
},
{
"Name": "Bridge Hill",
"PostCode": "9340",
"LatLong": "-45.2584,169.3801"
},
{
"Name": "Brighton",
"PostCode": "9035",
"LatLong": "-45.95,170.3333"
},
{
"Name": "Broad Bay",
"PostCode": "9014",
"LatLong": "-45.85,170.6167"
},
{
"Name": "Caversham",
"PostCode": "9045",
"LatLong": "-45.9,170.4833"
},
{
"Name": "Chatto Creek",
"PostCode": "9393",
"LatLong": "-45.1333,169.5167"
},
{
"Name": "Clarks",
"PostCode": "9074",
"LatLong": "-45.7333,170.05"
},
{
"Name": "Clinton",
"PostCode": "9534",
"LatLong": "-46.2,169.3667"
},
{
"Name": "Clinton",
"PostCode": "9548",
"LatLong": "-46.2,169.3667"
},
{
"Name": "Clinton",
"PostCode": "9583",
"LatLong": "-46.2,169.3667"
},
{
"Name": "Clinton",
"PostCode": "9584",
"LatLong": "-46.2,169.3667"
},
{
"Name": "Clyde",
"PostCode": "9330",
"LatLong": "-45.1865,169.3154"
},
{
"Name": "Clyde",
"PostCode": "9341",
"LatLong": "-45.1865,169.3154"
},
{
"Name": "Clyde",
"PostCode": "9391",
"LatLong": "-45.1865,169.3154"
},
{
"Name": "Clydevale",
"PostCode": "9242",
"LatLong": "-46.1,169.5333"
},
{
"Name": "Conical Hills",
"PostCode": "9771",
"LatLong": "-46.0667,169.2333"
},
{
"Name": "Cromwell",
"PostCode": "9310",
"LatLong": "-45.0384,169.2001"
},
{
"Name": "Cromwell",
"PostCode": "9342",
"LatLong": "-45.0384,169.2001"
},
{
"Name": "Dunedin",
"PostCode": "9054",
"LatLong": "-45.8742,170.5036"
},
{
"Name": "Dunedin",
"PostCode": "9058",
"LatLong": "-45.8742,170.5036"
},
{
"Name": "Dunedin",
"PostCode": "9059",
"LatLong": "-45.8742,170.5036"
},
{
"Name": "Frankton",
"PostCode": "9300",
"LatLong": "-45.0212,168.7336"
},
{
"Name": "Frankton",
"PostCode": "9349",
"LatLong": "-45.0212,168.7336"
},
{
"Name": "Fruitlands",
"PostCode": "9392",
"LatLong": "-45.35,169.3"
},
{
"Name": "Gibbston",
"PostCode": "9384",
"LatLong": "-45.0333,168.9667"
},
{
"Name": "Gimmerburn",
"PostCode": "9395",
"LatLong": "-45.1667,170"
},
{
"Name": "Glendhu",
"PostCode": "9381",
"LatLong": "-44.6667,169.0167"
},
{
"Name": "Glenomaru",
"PostCode": "9271",
"LatLong": "-46.3833,169.6833"
},
{
"Name": "Glenorchy",
"PostCode": "9350",
"LatLong": "-44.8504,168.3866"
},
{
"Name": "Glenorchy",
"PostCode": "9372",
"LatLong": "-44.8504,168.3866"
},
{
"Name": "Green Island",
"PostCode": "9052",
"LatLong": "-45.8884,170.4301"
},
{
"Name": "Greenfield",
"PostCode": "9274",
"LatLong": "-46.1,169.5833"
},
{
"Name": "Hampden",
"PostCode": "9410",
"LatLong": "-45.3184,170.8101"
},
{
"Name": "Hampden",
"PostCode": "9442",
"LatLong": "-45.3184,170.8101"
},
{
"Name": "Herbert",
"PostCode": "9495",
"LatLong": "-45.2333,170.7833"
},
{
"Name": "Hilderthorpe",
"PostCode": "9493",
"LatLong": "-44.9833,171.0667"
},
{
"Name": "Hillend",
"PostCode": "9272",
"LatLong": "-46.1333,169.75"
},
{
"Name": "Island Cliff",
"PostCode": "9494",
"LatLong": "-44.95,170.6667"
},
{
"Name": "Kaikorai",
"PostCode": "9042",
"LatLong": "-45.8584,170.4701"
},
{
"Name": "Kaitangata",
"PostCode": "9210",
"LatLong": "-46.275,169.85"
},
{
"Name": "Kaitangata",
"PostCode": "9281",
"LatLong": "-46.275,169.85"
},
{
"Name": "Katiki",
"PostCode": "9482",
"LatLong": "-45.4,170.8333"
},
{
"Name": "Kauru Hill",
"PostCode": "9492",
"LatLong": "-45.1,170.75"
},
{
"Name": "Kingston",
"PostCode": "9748",
"LatLong": "-45.3333,168.7"
},
{
"Name": "Kingston",
"PostCode": "9793",
"LatLong": "-45.3333,168.7"
},
{
"Name": "Kokonga",
"PostCode": "9397",
"LatLong": "-45.2167,170.25"
},
{
"Name": "Kuri Bush",
"PostCode": "9091",
"LatLong": "-46.0247,170.2297"
},
{
"Name": "Lake Hawea",
"PostCode": "9345",
"LatLong": "-44.6084,169.2601"
},
{
"Name": "Lawrence",
"PostCode": "9532",
"LatLong": "-45.9084,169.6901"
},
{
"Name": "Lawrence",
"PostCode": "9543",
"LatLong": "-45.9084,169.6901"
},
{
"Name": "Liberton",
"PostCode": "9010",
"LatLong": "-45.8384,170.5101"
},
{
"Name": "Lindis Crossing",
"PostCode": "9383",
"LatLong": "-44.8833,169.3833"
},
{
"Name": "Lower Shotover",
"PostCode": "9304",
"LatLong": "-44.9833,168.7667"
},
{
"Name": "Macraes Flat",
"PostCode": "9483",
"LatLong": "-45.3833,170.4333"
},
{
"Name": "Maia",
"PostCode": "9022",
"LatLong": "-45.8584,170.5501"
},
{
"Name": "Makarora",
"PostCode": "9346",
"LatLong": "-44.2333,169.2333"
},
{
"Name": "Makarora Wharf",
"PostCode": "9382",
"LatLong": "-44.3167,169.1833"
},
{
"Name": "Maryhill",
"PostCode": "9040",
"LatLong": "-45.8784,170.4801"
},
{
"Name": "Matakanui",
"PostCode": "9376",
"LatLong": "-45.0167,169.5667"
},
{
"Name": "Middlemarch",
"PostCode": "9067",
"LatLong": "-45.5167,170.1167"
},
{
"Name": "Mihiwaka",
"PostCode": "9081",
"LatLong": "-45.8,170.6333"
},
{
"Name": "Milburn",
"PostCode": "9291",
"LatLong": "-46.0833,170"
},
{
"Name": "Millers Flat",
"PostCode": "9544",
"LatLong": "-45.6631,169.4117"
},
{
"Name": "Millers Flat",
"PostCode": "9572",
"LatLong": "-45.6631,169.4117"
},
{
"Name": "Milton",
"PostCode": "9220",
"LatLong": "-46.1208,169.9694"
},
{
"Name": "Milton",
"PostCode": "9241",
"LatLong": "-46.1208,169.9694"
},
{
"Name": "Moa Creek",
"PostCode": "9387",
"LatLong": "-45.2,169.65"
},
{
"Name": "Mornington",
"PostCode": "9011",
"LatLong": "-45.8833,170.4667"
},
{
"Name": "Mosgiel",
"PostCode": "9024",
"LatLong": "-45.875,170.3472"
},
{
"Name": "Mosgiel",
"PostCode": "9053",
"LatLong": "-45.875,170.3472"
},
{
"Name": "Mosgiel",
"PostCode": "9092",
"LatLong": "-45.875,170.3472"
},
{
"Name": "Mount Cargill",
"PostCode": "9085",
"LatLong": "-45.8,170.5667"
},
{
"Name": "Naseby",
"PostCode": "9354",
"LatLong": "-45.0184,170.1301"
},
{
"Name": "Naseby",
"PostCode": "9396",
"LatLong": "-45.0184,170.1301"
},
{
"Name": "New Haven",
"PostCode": "9585",
"LatLong": "-46.4667,169.7167"
},
{
"Name": "Ngapuna",
"PostCode": "9596",
"LatLong": "-45.45,170.1667"
},
{
"Name": "Ngapuna",
"PostCode": "9598",
"LatLong": "-45.45,170.1667"
},
{
"Name": "North Dunedin",
"PostCode": "9043",
"LatLong": "-45.8584,170.5101"
},
{
"Name": "Oamaru",
"PostCode": "9400",
"LatLong": "-45.0976,170.9709"
},
{
"Name": "Oamaru",
"PostCode": "9444",
"LatLong": "-45.0976,170.9709"
},
{
"Name": "Ocean Grove",
"PostCode": "9013",
"LatLong": "-45.9,170.55"
},
{
"Name": "Omakau",
"PostCode": "9352",
"LatLong": "-45.0833,169.6"
},
{
"Name": "Opoho",
"PostCode": "9041",
"LatLong": "-45.8484,170.5201"
},
{
"Name": "Otematata",
"PostCode": "9447",
"LatLong": "-44.6078,170.191"
},
{
"Name": "Outram",
"PostCode": "9019",
"LatLong": "-45.8667,170.2333"
},
{
"Name": "Outram",
"PostCode": "9062",
"LatLong": "-45.8667,170.2333"
},
{
"Name": "Owaka",
"PostCode": "9535",
"LatLong": "-46.45,169.6667"
},
{
"Name": "Owaka",
"PostCode": "9546",
"LatLong": "-46.45,169.6667"
},
{
"Name": "Paerau",
"PostCode": "9398",
"LatLong": "-45.4167,169.95"
},
{
"Name": "Palmerston",
"PostCode": "9443",
"LatLong": "-45.4784,170.7201"
},
{
"Name": "Park Hill",
"PostCode": "9587",
"LatLong": "-45.8167,169.2167"
},
{
"Name": "Port Chalmers",
"PostCode": "9050",
"LatLong": "-45.8159,170.621"
},
{
"Name": "Portobello",
"PostCode": "9048",
"LatLong": "-45.85,170.65"
},
{
"Name": "Portobello",
"PostCode": "9077",
"LatLong": "-45.85,170.65"
},
{
"Name": "Puketiro",
"PostCode": "9586",
"LatLong": "-46.4833,169.4833"
},
{
"Name": "Queenstown",
"PostCode": "9348",
"LatLong": "-45.0302,168.6627"
},
{
"Name": "Raes Junction",
"PostCode": "9588",
"LatLong": "-45.7833,169.4667"
},
{
"Name": "Ranfurly",
"PostCode": "9332",
"LatLong": "-45.1333,170.1"
},
{
"Name": "Ranfurly",
"PostCode": "9353",
"LatLong": "-45.1333,170.1"
},
{
"Name": "Rocklands",
"PostCode": "9597",
"LatLong": "-45.6667,169.9833"
},
{
"Name": "Roxburgh",
"PostCode": "9500",
"LatLong": "-45.5406,169.3147"
},
{
"Name": "Roxburgh Hydro",
"PostCode": "9571",
"LatLong": "-45.4803,169.3128"
},
{
"Name": "Saint Bathans",
"PostCode": "9386",
"LatLong": "-44.8667,169.8167"
},
{
"Name": "Saint Clair",
"PostCode": "9047",
"LatLong": "-45.9167,170.4833"
},
{
"Name": "Saint Kilda",
"PostCode": "9012",
"LatLong": "-45.8984,170.4901"
},
{
"Name": "Saint Kilda",
"PostCode": "9044",
"LatLong": "-45.9,170.5194"
},
{
"Name": "Saint Kilda",
"PostCode": "9049",
"LatLong": "-45.9,170.5194"
},
{
"Name": "Sawyers Bay",
"PostCode": "9023",
"LatLong": "-45.8333,170.6"
},
{
"Name": "Seacliff",
"PostCode": "9471",
"LatLong": "-45.6833,170.6167"
},
{
"Name": "Stirling",
"PostCode": "9231",
"LatLong": "-46.25,169.7833"
},
{
"Name": "Stoneburn",
"PostCode": "9481",
"LatLong": "-45.4333,170.5667"
},
{
"Name": "Sunnyvale",
"PostCode": "9018",
"LatLong": "-45.8984,170.4101"
},
{
"Name": "Tainui",
"PostCode": "9046",
"LatLong": "-45.8984,170.5101"
},
{
"Name": "Tapanui",
"PostCode": "9522",
"LatLong": "-45.9384,169.2601"
},
{
"Name": "Tapanui",
"PostCode": "9542",
"LatLong": "-45.9384,169.2601"
},
{
"Name": "Tarras",
"PostCode": "9347",
"LatLong": "-44.8333,169.4167"
},
{
"Name": "Tokarahi",
"PostCode": "9491",
"LatLong": "-44.95,170.65"
},
{
"Name": "Tokoiti",
"PostCode": "9292",
"LatLong": "-46.1333,170"
},
{
"Name": "Upper Shotover",
"PostCode": "9371",
"LatLong": "-44.8333,168.7167"
},
{
"Name": "Waiareka Junction",
"PostCode": "9401",
"LatLong": "-45.1,170.9333"
},
{
"Name": "Waikoikoi",
"PostCode": "9775",
"LatLong": "-46.0167,169.15"
},
{
"Name": "Waikouaiti",
"PostCode": "9472",
"LatLong": "-45.5884,170.6501"
},
{
"Name": "Waitahuna",
"PostCode": "9593",
"LatLong": "-45.9833,169.7667"
},
{
"Name": "Waitati",
"PostCode": "9069",
"LatLong": "-45.75,170.5667"
},
{
"Name": "Wanaka",
"PostCode": "9305",
"LatLong": "-44.7,169.15"
},
{
"Name": "Wanaka",
"PostCode": "9343",
"LatLong": "-44.7,169.15"
},
{
"Name": "Wangaloa",
"PostCode": "9282",
"LatLong": "-46.2833,169.9167"
},
{
"Name": "Warepa",
"PostCode": "9273",
"LatLong": "-46.25,169.5833"
},
{
"Name": "Waverley",
"PostCode": "9016",
"LatLong": "-45.8784,170.5201"
},
{
"Name": "Wedderburn",
"PostCode": "9355",
"LatLong": "-45.0333,170.0167"
},
{
"Name": "Wingatui",
"PostCode": "9076",
"LatLong": "-45.8833,170.3833"
}
]
}
]
}
]
},
{
"Name": "Southland",
"Code": "F8",
"Provinces": [
{
"Communities": [
{
"Places": [
{
"Name": "Athol",
"PostCode": "9749",
"LatLong": "-45.5167,168.5833"
},
{
"Name": "Awarua Plains",
"PostCode": "9877",
"LatLong": "-46.4833,168.3833"
},
{
"Name": "Balfour",
"PostCode": "9746",
"LatLong": "-45.8333,168.5833"
},
{
"Name": "Balfour",
"PostCode": "9779",
"LatLong": "-45.8333,168.5833"
},
{
"Name": "Bluff",
"PostCode": "9814",
"LatLong": "-46.6,168.3333"
},
{
"Name": "Dipton",
"PostCode": "9752",
"LatLong": "-45.9,168.3667"
},
{
"Name": "Dipton",
"PostCode": "9791",
"LatLong": "-45.9,168.3667"
},
{
"Name": "East End",
"PostCode": "9842",
"LatLong": "-46.6042,168.3472"
},
{
"Name": "East Gore",
"PostCode": "9710",
"LatLong": "-46.0884,168.9501"
},
{
"Name": "East Gore",
"PostCode": "9740",
"LatLong": "-46.0884,168.9501"
},
{
"Name": "Eastern Bush",
"PostCode": "9682",
"LatLong": "-45.9833,167.7667"
},
{
"Name": "Edendale",
"PostCode": "9825",
"LatLong": "-46.3167,168.7833"
},
{
"Name": "Edendale",
"PostCode": "9848",
"LatLong": "-46.3167,168.7833"
},
{
"Name": "Fairfax",
"PostCode": "9683",
"LatLong": "-46.2,168.05"
},
{
"Name": "Fortrose",
"PostCode": "9875",
"LatLong": "-46.5667,168.8"
},
{
"Name": "Garston",
"PostCode": "9750",
"LatLong": "-45.4667,168.6833"
},
{
"Name": "Garston",
"PostCode": "9778",
"LatLong": "-45.4667,168.6833"
},
{
"Name": "Glengarry",
"PostCode": "9841",
"LatLong": "-46.3984,168.3701"
},
{
"Name": "Glenham",
"PostCode": "9891",
"LatLong": "-46.4,168.85"
},
{
"Name": "Gummies Bush",
"PostCode": "9883",
"LatLong": "-46.2833,168.0167"
},
{
"Name": "Halfmoon Bay (Oban)",
"PostCode": "9818",
"LatLong": "-46.8989,168.129"
},
{
"Name": "Hawthorndale",
"PostCode": "9845",
"LatLong": "-46.3984,168.3801"
},
{
"Name": "Kamahi",
"PostCode": "9893",
"LatLong": "-46.3333,168.7167"
},
{
"Name": "Lochiel",
"PostCode": "9781",
"LatLong": "-46.2,168.3333"
},
{
"Name": "Lumsden",
"PostCode": "9730",
"LatLong": "-45.7333,168.45"
},
{
"Name": "Lumsden",
"PostCode": "9742",
"LatLong": "-45.7333,168.45"
},
{
"Name": "Lumsden",
"PostCode": "9794",
"LatLong": "-45.7333,168.45"
},
{
"Name": "Mabel Bush",
"PostCode": "9872",
"LatLong": "-46.2833,168.5333"
},
{
"Name": "Makarewa",
"PostCode": "9876",
"LatLong": "-46.3333,168.35"
},
{
"Name": "Manapouri",
"PostCode": "9643",
"LatLong": "-45.5669,167.6115"
},
{
"Name": "Mataura",
"PostCode": "9712",
"LatLong": "-46.1784,168.8501"
},
{
"Name": "Mataura",
"PostCode": "9774",
"LatLong": "-46.1784,168.8501"
},
{
"Name": "Mokoreta",
"PostCode": "9892",
"LatLong": "-46.4333,169.0667"
},
{
"Name": "Mossburn",
"PostCode": "9747",
"LatLong": "-45.6667,168.25"
},
{
"Name": "Mossburn",
"PostCode": "9792",
"LatLong": "-45.6667,168.25"
},
{
"Name": "Ngaro",
"PostCode": "9689",
"LatLong": "-45.9,167.9833"
},
{
"Name": "Niagara",
"PostCode": "9884",
"LatLong": "-46.6,169.1333"
},
{
"Name": "Nightcaps",
"PostCode": "9630",
"LatLong": "-45.9667,168.0333"
},
{
"Name": "Nightcaps",
"PostCode": "9644",
"LatLong": "-45.9667,168.0333"
},
{
"Name": "Ohai",
"PostCode": "9635",
"LatLong": "-45.9167,167.95"
},
{
"Name": "Ohai",
"PostCode": "9645",
"LatLong": "-45.9167,167.95"
},
{
"Name": "Otapiri Gorge",
"PostCode": "9782",
"LatLong": "-46.05,168.45"
},
{
"Name": "Otatara",
"PostCode": "9879",
"LatLong": "-46.4333,168.3"
},
{
"Name": "Otautau",
"PostCode": "9610",
"LatLong": "-46.15,168"
},
{
"Name": "Otautau",
"PostCode": "9641",
"LatLong": "-46.15,168"
},
{
"Name": "Pukerau",
"PostCode": "9772",
"LatLong": "-46.1,169.1"
},
{
"Name": "Richmond",
"PostCode": "9840",
"LatLong": "-46.4084,168.3601"
},
{
"Name": "Riversdale",
"PostCode": "9744",
"LatLong": "-45.9,168.75"
},
{
"Name": "Riversdale",
"PostCode": "9776",
"LatLong": "-45.9,168.75"
},
{
"Name": "Riverton",
"PostCode": "9822",
"LatLong": "-46.35,168.0167"
},
{
"Name": "Riverton",
"PostCode": "9847",
"LatLong": "-46.35,168.0167"
},
{
"Name": "Round Hill",
"PostCode": "9881",
"LatLong": "-46.3167,167.8167"
},
{
"Name": "South Hillend",
"PostCode": "9783",
"LatLong": "-46.05,168.25"
},
{
"Name": "Strathern",
"PostCode": "9844",
"LatLong": "-46.4284,168.3601"
},
{
"Name": "Te Anau",
"PostCode": "9600",
"LatLong": "-45.4167,167.7167"
},
{
"Name": "Te Anau",
"PostCode": "9640",
"LatLong": "-45.4167,167.7167"
},
{
"Name": "Te Anau",
"PostCode": "9679",
"LatLong": "-45.4167,167.7167"
},
{
"Name": "The Key",
"PostCode": "9672",
"LatLong": "-45.55,167.9"
},
{
"Name": "Tisbury",
"PostCode": "9812",
"LatLong": "-46.45,168.4"
},
{
"Name": "Tuatapere",
"PostCode": "9620",
"LatLong": "-46.1333,167.6833"
},
{
"Name": "Tuatapere",
"PostCode": "9642",
"LatLong": "-46.1333,167.6833"
},
{
"Name": "Waianiwa",
"PostCode": "9874",
"LatLong": "-46.3,168.2667"
},
{
"Name": "Waikaia",
"PostCode": "9745",
"LatLong": "-45.7333,168.85"
},
{
"Name": "Waikaka",
"PostCode": "9743",
"LatLong": "-45.9167,169.0167"
},
{
"Name": "Waikiwi",
"PostCode": "9843",
"LatLong": "-46.3833,168.3333"
},
{
"Name": "Waipounamu",
"PostCode": "9777",
"LatLong": "-45.85,168.7667"
},
{
"Name": "Wairoto",
"PostCode": "9691",
"LatLong": "-45.9833,167.6"
},
{
"Name": "Wallacetown",
"PostCode": "9816",
"LatLong": "-46.3333,168.2833"
},
{
"Name": "Waverley",
"PostCode": "9810",
"LatLong": "-46.3884,168.3801"
},
{
"Name": "Wendon Valley",
"PostCode": "9773",
"LatLong": "-45.8833,168.9667"
},
{
"Name": "Winton",
"PostCode": "9720",
"LatLong": "-46.15,168.3333"
},
{
"Name": "Winton",
"PostCode": "9741",
"LatLong": "-46.15,168.3333"
},
{
"Name": "Woodlands",
"PostCode": "9871",
"LatLong": "-46.3667,168.55"
},
{
"Name": "Wyndham",
"PostCode": "9831",
"LatLong": "-46.3333,168.85"
},
{
"Name": "Wyndham",
"PostCode": "9849",
"LatLong": "-46.3333,168.85"
}
]
}
]
}
]
},
{
"Name": "Taranaki",
"Code": "F9",
"Provinces": [
{
"Communities": [
{
"Places": [
{
"Name": "Ararata",
"PostCode": "4674",
"LatLong": "-39.5167,174.3667"
},
{
"Name": "Bell Block",
"PostCode": "4351",
"LatLong": "-39.0333,174.15"
},
{
"Name": "Brooklands",
"PostCode": "4340",
"LatLong": "-39.0735,174.0821"
},
{
"Name": "Dawson Falls",
"PostCode": "4391",
"LatLong": "-39.3238,174.1046"
},
{
"Name": "Eltham",
"PostCode": "4322",
"LatLong": "-39.4292,174.3"
},
{
"Name": "Eltham",
"PostCode": "4353",
"LatLong": "-39.4292,174.3"
},
{
"Name": "Eltham",
"PostCode": "4398",
"LatLong": "-39.4292,174.3"
},
{
"Name": "Fitzroy",
"PostCode": "4312",
"LatLong": "-39.05,174.1"
},
{
"Name": "Fitzroy",
"PostCode": "4341",
"LatLong": "-39.05,174.1"
},
{
"Name": "Frankleigh Park",
"PostCode": "4343",
"LatLong": "-39.0782,174.0602"
},
{
"Name": "Hawera",
"PostCode": "4610",
"LatLong": "-39.5917,174.2833"
},
{
"Name": "Hawera",
"PostCode": "4640",
"LatLong": "-39.5917,174.2833"
},
{
"Name": "Hillsborough",
"PostCode": "4372",
"LatLong": "-39.1,174.15"
},
{
"Name": "Huinga",
"PostCode": "4393",
"LatLong": "-39.357,174.4335"
},
{
"Name": "Hurleyville",
"PostCode": "4598",
"LatLong": "-39.6333,174.5"
},
{
"Name": "Inglewood",
"PostCode": "4330",
"LatLong": "-39.1582,174.1802"
},
{
"Name": "Inglewood",
"PostCode": "4347",
"LatLong": "-39.1582,174.1802"
},
{
"Name": "Kaimiro",
"PostCode": "4386",
"LatLong": "-39.2,174.15"
},
{
"Name": "Kaponga",
"PostCode": "4642",
"LatLong": "-39.4333,174.15"
},
{
"Name": "Kaupokonui",
"PostCode": "4678",
"LatLong": "-39.55,174.0667"
},
{
"Name": "Lepperton",
"PostCode": "4373",
"LatLong": "-39.0667,174.2167"
},
{
"Name": "Manaia",
"PostCode": "4612",
"LatLong": "-39.55,174.1333"
},
{
"Name": "Manaia",
"PostCode": "4641",
"LatLong": "-39.55,174.1333"
},
{
"Name": "Mangawhio",
"PostCode": "4592",
"LatLong": "-39.7167,174.7167"
},
{
"Name": "Mangorei",
"PostCode": "4371",
"LatLong": "-39.15,174.0833"
},
{
"Name": "Matapu",
"PostCode": "4675",
"LatLong": "-39.4833,174.2333"
},
{
"Name": "Matau",
"PostCode": "4395",
"LatLong": "-39.1612,174.5635"
},
{
"Name": "Matukuroa",
"PostCode": "4597",
"LatLong": "-39.6833,174.5333"
},
{
"Name": "Meremere",
"PostCode": "4672",
"LatLong": "-39.5833,174.3833"
},
{
"Name": "Merrilands",
"PostCode": "4360",
"LatLong": "-39.068,174.0977"
},
{
"Name": "Moeroa",
"PostCode": "4399",
"LatLong": "-39.4333,174.6333"
},
{
"Name": "Moturoa",
"PostCode": "4344",
"LatLong": "-39.0643,174.0356"
},
{
"Name": "New Plymouth",
"PostCode": "4342",
"LatLong": "-39.0667,174.0833"
},
{
"Name": "Normanby",
"PostCode": "4614",
"LatLong": "-39.5333,174.2833"
},
{
"Name": "Nukuhau",
"PostCode": "4591",
"LatLong": "-39.6,174.6667"
},
{
"Name": "Oakura",
"PostCode": "4314",
"LatLong": "-39.1167,173.95"
},
{
"Name": "Oakura",
"PostCode": "4345",
"LatLong": "-39.1167,173.95"
},
{
"Name": "Oakura",
"PostCode": "4374",
"LatLong": "-39.1167,173.95"
},
{
"Name": "Oaonui",
"PostCode": "4681",
"LatLong": "-39.4,173.8167"
},
{
"Name": "Okaiawa",
"PostCode": "4671",
"LatLong": "-39.5333,174.2"
},
{
"Name": "Okato",
"PostCode": "4335",
"LatLong": "-39.2,173.8833"
},
{
"Name": "Okato",
"PostCode": "4348",
"LatLong": "-39.2,173.8833"
},
{
"Name": "Okato",
"PostCode": "4381",
"LatLong": "-39.2,173.8833"
},
{
"Name": "Okau",
"PostCode": "4378",
"LatLong": "-38.8667,174.65"
},
{
"Name": "Okoki",
"PostCode": "4375",
"LatLong": "-39.0167,174.4833"
},
{
"Name": "Opunake",
"PostCode": "4616",
"LatLong": "-39.4556,173.8583"
},
{
"Name": "Opunake",
"PostCode": "4645",
"LatLong": "-39.4556,173.8583"
},
{
"Name": "Parihaka Pa",
"PostCode": "4685",
"LatLong": "-39.3,173.8333"
},
{
"Name": "Puniwhakau",
"PostCode": "4392",
"LatLong": "-39.3282,174.6165"
},
{
"Name": "Ratapiko",
"PostCode": "4390",
"LatLong": "-39.2,174.3167"
},
{
"Name": "Riverlea",
"PostCode": "4679",
"LatLong": "-39.4333,174.0833"
},
{
"Name": "Sentry Hill",
"PostCode": "4382",
"LatLong": "-39.0333,174.2"
},
{
"Name": "Stratford",
"PostCode": "4332",
"LatLong": "-39.3376,174.2837"
},
{
"Name": "Stratford",
"PostCode": "4352",
"LatLong": "-39.3376,174.2837"
},
{
"Name": "Tahora",
"PostCode": "4396",
"LatLong": "-39.0309,174.8026"
},
{
"Name": "Tahora",
"PostCode": "4397",
"LatLong": "-39.0309,174.8026"
},
{
"Name": "Tarata",
"PostCode": "4387",
"LatLong": "-39.15,174.3667"
},
{
"Name": "Tawhiwhi",
"PostCode": "4588",
"LatLong": "-39.6333,174.8"
},
{
"Name": "Te Roti",
"PostCode": "4673",
"LatLong": "-39.4833,174.2667"
},
{
"Name": "Te Tawa",
"PostCode": "4388",
"LatLong": "-39.1833,174.2167"
},
{
"Name": "Tikorangi",
"PostCode": "4383",
"LatLong": "-39.0333,174.2833"
},
{
"Name": "Tuna",
"PostCode": "4394",
"LatLong": "-39.2679,174.2981"
},
{
"Name": "Upper Kahui",
"PostCode": "4684",
"LatLong": "-39.3167,173.8833"
},
{
"Name": "Urenui",
"PostCode": "4349",
"LatLong": "-39,174.3833"
},
{
"Name": "Uruti",
"PostCode": "4377",
"LatLong": "-38.95,174.5333"
},
{
"Name": "Uruti",
"PostCode": "4379",
"LatLong": "-38.95,174.5333"
},
{
"Name": "Waiongona",
"PostCode": "4389",
"LatLong": "-39.1,174.2167"
},
{
"Name": "Waitara",
"PostCode": "4320",
"LatLong": "-39.0016,174.2384"
},
{
"Name": "Waitara",
"PostCode": "4346",
"LatLong": "-39.0016,174.2384"
},
{
"Name": "Waiteika",
"PostCode": "4682",
"LatLong": "-39.4833,173.9"
},
{
"Name": "Waitotara",
"PostCode": "4549",
"LatLong": "-39.8,174.7333"
},
{
"Name": "Waverley",
"PostCode": "4510",
"LatLong": "-39.7667,174.6333"
},
{
"Name": "Waverley",
"PostCode": "4544",
"LatLong": "-39.7667,174.6333"
},
{
"Name": "Westown",
"PostCode": "4310",
"LatLong": "-39.0714,174.0622"
},
{
"Name": "White Tank",
"PostCode": "4520",
"LatLong": "-39.7583,174.4667"
},
{
"Name": "White Tank",
"PostCode": "4545",
"LatLong": "-39.7583,174.4667"
}
]
}
]
}
]
},
{
"Name": "Waikato",
"Code": "G1",
"Provinces": [
{
"Communities": [
{
"Places": [
{
"Name": "Ahimia",
"PostCode": "3581",
"LatLong": "-36.85,175.4833"
},
{
"Name": "Aramiro",
"PostCode": "3285",
"LatLong": "-37.8918,175.0318"
},
{
"Name": "Arapae",
"PostCode": "3981",
"LatLong": "-38.4167,175.0833"
},
{
"Name": "Arapuni",
"PostCode": "3415",
"LatLong": "-38.0709,175.646"
},
{
"Name": "Atiamuri",
"PostCode": "3078",
"LatLong": "-38.3833,176.0167"
},
{
"Name": "Awakino",
"PostCode": "4376",
"LatLong": "-38.65,174.6333"
},
{
"Name": "Benneydale",
"PostCode": "3944",
"LatLong": "-38.5206,175.3616"
},
{
"Name": "Benneydale",
"PostCode": "3987",
"LatLong": "-38.5206,175.3616"
},
{
"Name": "Bruntwood",
"PostCode": "3493",
"LatLong": "-37.85,175.4333"
},
{
"Name": "Claudelands",
"PostCode": "3210",
"LatLong": "-37.7833,175.2833"
},
{
"Name": "Claudelands",
"PostCode": "3248",
"LatLong": "-37.7833,175.2833"
},
{
"Name": "Claudelands",
"PostCode": "3252",
"LatLong": "-37.7833,175.2833"
},
{
"Name": "Claudelands",
"PostCode": "3256",
"LatLong": "-37.7833,175.2833"
},
{
"Name": "Claudelands",
"PostCode": "3257",
"LatLong": "-37.7833,175.2833"
},
{
"Name": "Colville",
"PostCode": "3547",
"LatLong": "-36.6333,175.4667"
},
{
"Name": "Colville",
"PostCode": "3584",
"LatLong": "-36.6333,175.4667"
},
{
"Name": "Coroglen",
"PostCode": "3591",
"LatLong": "-36.9167,175.7"
},
{
"Name": "Coroglen",
"PostCode": "3592",
"LatLong": "-36.9167,175.7"
},
{
"Name": "Coromandel",
"PostCode": "3543",
"LatLong": "-36.7611,175.4963"
},
{
"Name": "Eureka",
"PostCode": "3284",
"LatLong": "-37.7333,175.4167"
},
{
"Name": "Frankton Junction",
"PostCode": "3204",
"LatLong": "-37.8,175.2667"
},
{
"Name": "Frankton Junction",
"PostCode": "3243",
"LatLong": "-37.8,175.2667"
},
{
"Name": "Gordonton",
"PostCode": "3264",
"LatLong": "-37.6667,175.3"
},
{
"Name": "Gordonton",
"PostCode": "3281",
"LatLong": "-37.6667,175.3"
},
{
"Name": "Hamilton",
"PostCode": "3214",
"LatLong": "-37.7833,175.2833"
},
{
"Name": "Hamilton",
"PostCode": "3244",
"LatLong": "-37.7833,175.2833"
},
{
"Name": "Hamilton East",
"PostCode": "3216",
"LatLong": "-37.7882,175.2902"
},
{
"Name": "Hamilton East",
"PostCode": "3247",
"LatLong": "-37.7882,175.2902"
},
{
"Name": "Hamilton East",
"PostCode": "3251",
"LatLong": "-37.7882,175.2902"
},
{
"Name": "Hamilton East",
"PostCode": "3255",
"LatLong": "-37.7882,175.2902"
},
{
"Name": "Hamilton West",
"PostCode": "3240",
"LatLong": "-37.7882,175.2702"
},
{
"Name": "Hamilton West",
"PostCode": "3242",
"LatLong": "-37.7882,175.2702"
},
{
"Name": "Hangatiki",
"PostCode": "3943",
"LatLong": "-38.25,175.1667"
},
{
"Name": "Hangatiki",
"PostCode": "3976",
"LatLong": "-38.25,175.1667"
},
{
"Name": "Hangatiki",
"PostCode": "3977",
"LatLong": "-38.25,175.1667"
},
{
"Name": "Hautapu",
"PostCode": "3451",
"LatLong": "-37.8608,175.4535"
},
{
"Name": "Hauturu",
"PostCode": "3878",
"LatLong": "-38.1,174.9333"
},
{
"Name": "Hikuai",
"PostCode": "3579",
"LatLong": "-37.0833,175.7833"
},
{
"Name": "Hinuera",
"PostCode": "3472",
"LatLong": "-37.8833,175.7667"
},
{
"Name": "Honikiwi",
"PostCode": "3973",
"LatLong": "-38.15,175.1"
},
{
"Name": "Horotiu",
"PostCode": "3262",
"LatLong": "-37.7167,175.2"
},
{
"Name": "Kaawa",
"PostCode": "2695",
"LatLong": "-37.5108,174.8836"
},
{
"Name": "Kaiaua",
"PostCode": "2473",
"LatLong": "-37.1111,175.2962"
},
{
"Name": "Kawhia",
"PostCode": "3843",
"LatLong": "-38.0667,174.8167"
},
{
"Name": "Kawhia",
"PostCode": "3889",
"LatLong": "-38.0667,174.8167"
},
{
"Name": "Kennedys Bay",
"PostCode": "3583",
"LatLong": "-36.6833,175.55"
},
{
"Name": "Kihikihi",
"PostCode": "3841",
"LatLong": "-38.0333,175.35"
},
{
"Name": "Kihikihi",
"PostCode": "3879",
"LatLong": "-38.0333,175.35"
},
{
"Name": "Kinleith",
"PostCode": "3491",
"LatLong": "-38.2833,175.9"
},
{
"Name": "Kiwitahi",
"PostCode": "3371",
"LatLong": "-37.7,175.6"
},
{
"Name": "Komakorau",
"PostCode": "3791",
"LatLong": "-37.6333,175.2667"
},
{
"Name": "Komata",
"PostCode": "3674",
"LatLong": "-37.3667,175.7333"
},
{
"Name": "Kopaki",
"PostCode": "3983",
"LatLong": "-38.4667,175.2667"
},
{
"Name": "Kopuku",
"PostCode": "2471",
"LatLong": "-37.2833,175.1667"
},
{
"Name": "Kuratau",
"PostCode": "3381",
"LatLong": "-38.8882,175.7702"
},
{
"Name": "Leamington",
"PostCode": "3432",
"LatLong": "-37.8833,175.4667"
},
{
"Name": "Leamington",
"PostCode": "3434",
"LatLong": "-37.8833,175.4667"
},
{
"Name": "Leamington",
"PostCode": "3450",
"LatLong": "-37.8833,175.4667"
},
{
"Name": "Leamington",
"PostCode": "3495",
"LatLong": "-37.8833,175.4667"
},
{
"Name": "Mahoenui",
"PostCode": "3945",
"LatLong": "-38.5667,174.85"
},
{
"Name": "Mahoenui",
"PostCode": "3978",
"LatLong": "-38.5667,174.85"
},
{
"Name": "Maihiihi",
"PostCode": "3972",
"LatLong": "-38.2333,175.3833"
},
{
"Name": "Maihiihi",
"PostCode": "3975",
"LatLong": "-38.2333,175.3833"
},
{
"Name": "Manawaru",
"PostCode": "3391",
"LatLong": "-37.6333,175.7667"
},
{
"Name": "Mangaiti",
"PostCode": "3392",
"LatLong": "-37.5,175.6833"
},
{
"Name": "Mangaiti",
"PostCode": "3393",
"LatLong": "-37.5,175.6833"
},
{
"Name": "Mangakino",
"PostCode": "3421",
"LatLong": "-38.3741,175.771"
},
{
"Name": "Mangakino",
"PostCode": "3445",
"LatLong": "-38.3741,175.771"
},
{
"Name": "Mangakino",
"PostCode": "3492",
"LatLong": "-38.3741,175.771"
},
{
"Name": "Matamata",
"PostCode": "3400",
"LatLong": "-37.8106,175.7624"
},
{
"Name": "Matamata",
"PostCode": "3440",
"LatLong": "-37.8106,175.7624"
},
{
"Name": "Matangi",
"PostCode": "3260",
"LatLong": "-37.8048,175.3952"
},
{
"Name": "Matapara",
"PostCode": "3874",
"LatLong": "-38.2167,175.55"
},
{
"Name": "Matapara",
"PostCode": "3877",
"LatLong": "-38.2167,175.55"
},
{
"Name": "Melville",
"PostCode": "3206",
"LatLong": "-37.811,175.2821"
},
{
"Name": "Melville",
"PostCode": "3245",
"LatLong": "-37.811,175.2821"
},
{
"Name": "Melville",
"PostCode": "3246",
"LatLong": "-37.811,175.2821"
},
{
"Name": "Mercer",
"PostCode": "2474",
"LatLong": "-37.279,175.048"
},
{
"Name": "Meremere",
"PostCode": "2441",
"LatLong": "-37.319,175.069"
},
{
"Name": "Moerangi",
"PostCode": "3895",
"LatLong": "-37.9667,174.9167"
},
{
"Name": "Mokau",
"PostCode": "4350",
"LatLong": "-38.6974,174.6192"
},
{
"Name": "Morrinsville",
"PostCode": "3300",
"LatLong": "-37.6482,175.5202"
},
{
"Name": "Morrinsville",
"PostCode": "3340",
"LatLong": "-37.6482,175.5202"
},
{
"Name": "Morrinsville",
"PostCode": "3375",
"LatLong": "-37.6482,175.5202"
},
{
"Name": "Motumaoho",
"PostCode": "3372",
"LatLong": "-37.7,175.45"
},
{
"Name": "Netherton",
"PostCode": "3671",
"LatLong": "-37.3333,175.6167"
},
{
"Name": "Netherton",
"PostCode": "3672",
"LatLong": "-37.3333,175.6167"
},
{
"Name": "Nevesville",
"PostCode": "3578",
"LatLong": "-37.1667,175.7"
},
{
"Name": "Newstead",
"PostCode": "3253",
"LatLong": "-37.7833,175.35"
},
{
"Name": "Newstead",
"PostCode": "3254",
"LatLong": "-37.7833,175.35"
},
{
"Name": "Ngaroto",
"PostCode": "3883",
"LatLong": "-37.9833,175.3"
},
{
"Name": "Ngaruawahia",
"PostCode": "3720",
"LatLong": "-37.6674,175.1555"
},
{
"Name": "Ngaruawahia",
"PostCode": "3742",
"LatLong": "-37.6674,175.1555"
},
{
"Name": "Ngatea",
"PostCode": "3503",
"LatLong": "-37.2833,175.5"
},
{
"Name": "Ngatea",
"PostCode": "3541",
"LatLong": "-37.2833,175.5"
},
{
"Name": "Ngatea",
"PostCode": "3597",
"LatLong": "-37.2833,175.5"
},
{
"Name": "Ngatira",
"PostCode": "3482",
"LatLong": "-38.1,175.9"
},
{
"Name": "Ohaupo",
"PostCode": "3803",
"LatLong": "-37.9167,175.3167"
},
{
"Name": "Ohaupo",
"PostCode": "3881",
"LatLong": "-37.9167,175.3167"
},
{
"Name": "Okauia",
"PostCode": "3471",
"LatLong": "-37.787,175.8399"
},
{
"Name": "Okoroire",
"PostCode": "3485",
"LatLong": "-37.95,175.8"
},
{
"Name": "Oparau",
"PostCode": "3885",
"LatLong": "-38.05,174.9167"
},
{
"Name": "Orini",
"PostCode": "3792",
"LatLong": "-37.5667,175.3"
},
{
"Name": "Oruanui",
"PostCode": "3377",
"LatLong": "-38.5833,176.0333"
},
{
"Name": "Otaua",
"PostCode": "2682",
"LatLong": "-37.3064,174.7408"
},
{
"Name": "Otorohanga",
"PostCode": "3900",
"LatLong": "-38.1833,175.2"
},
{
"Name": "Otorohanga",
"PostCode": "3940",
"LatLong": "-38.1833,175.2"
},
{
"Name": "Owhiro",
"PostCode": "3886",
"LatLong": "-38.1667,174.9"
},
{
"Name": "Owhiro",
"PostCode": "3988",
"LatLong": "-38.1667,174.9"
},
{
"Name": "Paeroa",
"PostCode": "3600",
"LatLong": "-37.3667,175.6667"
},
{
"Name": "Paeroa",
"PostCode": "3640",
"LatLong": "-37.3667,175.6667"
},
{
"Name": "Parawai",
"PostCode": "3577",
"LatLong": "-37.1499,175.5599"
},
{
"Name": "Pauanui",
"PostCode": "3546",
"LatLong": "-37.0167,175.8667"
},
{
"Name": "Pepepe",
"PostCode": "3794",
"LatLong": "-37.5833,174.95"
},
{
"Name": "Piopio",
"PostCode": "3912",
"LatLong": "-38.4667,175.0167"
},
{
"Name": "Piopio",
"PostCode": "3942",
"LatLong": "-38.4667,175.0167"
},
{
"Name": "Pirongia",
"PostCode": "3802",
"LatLong": "-38,175.2"
},
{
"Name": "Pirongia",
"PostCode": "3876",
"LatLong": "-38,175.2"
},
{
"Name": "Pokeno",
"PostCode": "2440",
"LatLong": "-37.245,175.0205"
},
{
"Name": "Pokeno",
"PostCode": "2472",
"LatLong": "-37.245,175.0205"
},
{
"Name": "Pukeatua",
"PostCode": "3494",
"LatLong": "-38.0667,175.55"
},
{
"Name": "Pukeatua",
"PostCode": "3880",
"LatLong": "-38.0667,175.55"
},
{
"Name": "Pukekapia",
"PostCode": "3771",
"LatLong": "-37.5333,175.1167"
},
{
"Name": "Puketutu",
"PostCode": "3982",
"LatLong": "-38.4333,175.2333"
},
{
"Name": "Putaruru",
"PostCode": "3411",
"LatLong": "-38.0482,175.7802"
},
{
"Name": "Putaruru",
"PostCode": "3443",
"LatLong": "-38.0482,175.7802"
},
{
"Name": "Putaruru",
"PostCode": "3483",
"LatLong": "-38.0482,175.7802"
},
{
"Name": "Raglan",
"PostCode": "3225",
"LatLong": "-37.8,174.8833"
},
{
"Name": "Raglan",
"PostCode": "3265",
"LatLong": "-37.8,174.8833"
},
{
"Name": "Raglan",
"PostCode": "3297",
"LatLong": "-37.8,174.8833"
},
{
"Name": "Rangitaiki",
"PostCode": "3379",
"LatLong": "-38.8792,176.3729"
},
{
"Name": "Ruapuke",
"PostCode": "3296",
"LatLong": "-37.9247,174.8138"
},
{
"Name": "Ruawaro",
"PostCode": "3772",
"LatLong": "-37.5167,175.05"
},
{
"Name": "Rukuhia",
"PostCode": "3282",
"LatLong": "-37.8667,175.2833"
},
{
"Name": "Rukuhia",
"PostCode": "3882",
"LatLong": "-37.8667,175.2833"
},
{
"Name": "Starrtown",
"PostCode": "3700",
"LatLong": "-37.562,175.1619"
},
{
"Name": "Starrtown",
"PostCode": "3740",
"LatLong": "-37.562,175.1619"
},
{
"Name": "Tahuna",
"PostCode": "3373",
"LatLong": "-37.5,175.4833"
},
{
"Name": "Tairua",
"PostCode": "3508",
"LatLong": "-37.0167,175.85"
},
{
"Name": "Tairua",
"PostCode": "3544",
"LatLong": "-37.0167,175.85"
},
{
"Name": "Tamahere",
"PostCode": "3283",
"LatLong": "-37.8333,175.35"
},
{
"Name": "Tapu",
"PostCode": "3575",
"LatLong": "-36.9833,175.5"
},
{
"Name": "Taupiri",
"PostCode": "3721",
"LatLong": "-37.6167,175.1833"
},
{
"Name": "Taupo",
"PostCode": "3351",
"LatLong": "-38.6833,176.0833"
},
{
"Name": "Taupo",
"PostCode": "3352",
"LatLong": "-38.6833,176.0833"
},
{
"Name": "Te Aroha",
"PostCode": "3320",
"LatLong": "-37.5282,175.7102"
},
{
"Name": "Te Aroha",
"PostCode": "3342",
"LatLong": "-37.5282,175.7102"
},
{
"Name": "Te Aroha",
"PostCode": "3343",
"LatLong": "-37.5282,175.7102"
},
{
"Name": "Te Awamutu",
"PostCode": "3800",
"LatLong": "-38.0082,175.3302"
},
{
"Name": "Te Awamutu",
"PostCode": "3840",
"LatLong": "-38.0082,175.3302"
},
{
"Name": "Te Kauwhata",
"PostCode": "3710",
"LatLong": "-37.4,175.15"
},
{
"Name": "Te Kauwhata",
"PostCode": "3741",
"LatLong": "-37.4,175.15"
},
{
"Name": "Te Kawa",
"PostCode": "3873",
"LatLong": "-38.1,175.2833"
},
{
"Name": "Te Kawa",
"PostCode": "3974",
"LatLong": "-38.1,175.2833"
},
{
"Name": "Te Kowhai",
"PostCode": "3263",
"LatLong": "-37.75,175.15"
},
{
"Name": "Te Kowhai",
"PostCode": "3288",
"LatLong": "-37.75,175.15"
},
{
"Name": "Te Kuiti",
"PostCode": "3910",
"LatLong": "-38.3363,175.1701"
},
{
"Name": "Te Kuiti",
"PostCode": "3941",
"LatLong": "-38.3363,175.1701"
},
{
"Name": "Te Kuiti",
"PostCode": "3986",
"LatLong": "-38.3363,175.1701"
},
{
"Name": "Te Mawhai",
"PostCode": "3875",
"LatLong": "-38.05,175.3"
},
{
"Name": "Te Papatapu",
"PostCode": "3894",
"LatLong": "-37.95,174.8833"
},
{
"Name": "Te Puninga",
"PostCode": "3374",
"LatLong": "-37.5833,175.5667"
},
{
"Name": "Te Rapa",
"PostCode": "3200",
"LatLong": "-37.75,175.2167"
},
{
"Name": "Te Rapa",
"PostCode": "3241",
"LatLong": "-37.75,175.2167"
},
{
"Name": "Te Rapa",
"PostCode": "3249",
"LatLong": "-37.75,175.2167"
},
{
"Name": "Te Rerenga",
"PostCode": "3582",
"LatLong": "-36.75,175.6"
},
{
"Name": "Te Uku",
"PostCode": "3266",
"LatLong": "-37.8333,174.9667"
},
{
"Name": "Te Uku",
"PostCode": "3295",
"LatLong": "-37.8333,174.9667"
},
{
"Name": "Te Waotu",
"PostCode": "3481",
"LatLong": "-38.15,175.7"
},
{
"Name": "Temple View",
"PostCode": "3218",
"LatLong": "-37.8208,175.2255"
},
{
"Name": "Temple View",
"PostCode": "3290",
"LatLong": "-37.8208,175.2255"
},
{
"Name": "Thames",
"PostCode": "3500",
"LatLong": "-37.1383,175.5401"
},
{
"Name": "Thames",
"PostCode": "3540",
"LatLong": "-37.1383,175.5401"
},
{
"Name": "Tirau",
"PostCode": "3410",
"LatLong": "-37.9833,175.75"
},
{
"Name": "Tirau",
"PostCode": "3442",
"LatLong": "-37.9833,175.75"
},
{
"Name": "Tirau",
"PostCode": "3484",
"LatLong": "-37.9833,175.75"
},
{
"Name": "Tirohia",
"PostCode": "3673",
"LatLong": "-37.4333,175.65"
},
{
"Name": "Tokoroa",
"PostCode": "3420",
"LatLong": "-38.2333,175.8667"
},
{
"Name": "Tokoroa",
"PostCode": "3444",
"LatLong": "-38.2333,175.8667"
},
{
"Name": "Tongariro",
"PostCode": "3949",
"LatLong": "-39.0333,175.65"
},
{
"Name": "Tuakau",
"PostCode": "2121",
"LatLong": "-37.2705,174.9438"
},
{
"Name": "Tuakau",
"PostCode": "2342",
"LatLong": "-37.2705,174.9438"
},
{
"Name": "Tuakau",
"PostCode": "2694",
"LatLong": "-37.2705,174.9438"
},
{
"Name": "Turangi",
"PostCode": "3334",
"LatLong": "-38.9904,175.8084"
},
{
"Name": "Turangi",
"PostCode": "3353",
"LatLong": "-38.9904,175.8084"
},
{
"Name": "Turangi",
"PostCode": "3382",
"LatLong": "-38.9904,175.8084"
},
{
"Name": "Turua",
"PostCode": "3545",
"LatLong": "-37.2333,175.5667"
},
{
"Name": "Turua",
"PostCode": "3574",
"LatLong": "-37.2333,175.5667"
},
{
"Name": "Waerenga",
"PostCode": "3781",
"LatLong": "-37.3667,175.2333"
},
{
"Name": "Waharoa",
"PostCode": "3401",
"LatLong": "-37.7667,175.7667"
},
{
"Name": "Waharoa",
"PostCode": "3441",
"LatLong": "-37.7667,175.7667"
},
{
"Name": "Waharoa",
"PostCode": "3474",
"LatLong": "-37.7667,175.7667"
},
{
"Name": "Waihi",
"PostCode": "3610",
"LatLong": "-37.3833,175.8333"
},
{
"Name": "Waihi",
"PostCode": "3641",
"LatLong": "-37.3833,175.8333"
},
{
"Name": "Waihi",
"PostCode": "3681",
"LatLong": "-37.3833,175.8333"
},
{
"Name": "Waihi",
"PostCode": "3682",
"LatLong": "-37.3833,175.8333"
},
{
"Name": "Waingaro",
"PostCode": "3793",
"LatLong": "-37.6833,175"
},
{
"Name": "Waipahihi",
"PostCode": "3378",
"LatLong": "-38.7084,176.0907"
},
{
"Name": "Wairakei",
"PostCode": "3332",
"LatLong": "-38.6333,176.1"
},
{
"Name": "Wairere Falls",
"PostCode": "3970",
"LatLong": "-38.5167,175.0167"
},
{
"Name": "Waitakaruru",
"PostCode": "3576",
"LatLong": "-37.25,175.3833"
},
{
"Name": "Waitanguru",
"PostCode": "3971",
"LatLong": "-38.3833,174.8667"
},
{
"Name": "Waitanguru",
"PostCode": "3985",
"LatLong": "-38.3833,174.8667"
},
{
"Name": "Waiterimu",
"PostCode": "3784",
"LatLong": "-37.45,175.3"
},
{
"Name": "Waitetuna",
"PostCode": "3293",
"LatLong": "-37.8333,175.0333"
},
{
"Name": "Waitoa",
"PostCode": "3310",
"LatLong": "-37.6167,175.6333"
},
{
"Name": "Waitoa",
"PostCode": "3341",
"LatLong": "-37.6167,175.6333"
},
{
"Name": "Walton",
"PostCode": "3475",
"LatLong": "-37.7333,175.6833"
},
{
"Name": "Whangamarino",
"PostCode": "3782",
"LatLong": "-37.3491,175.1135"
},
{
"Name": "Whangamata",
"PostCode": "3620",
"LatLong": "-37.2,175.8667"
},
{
"Name": "Whangamata",
"PostCode": "3643",
"LatLong": "-37.2,175.8667"
},
{
"Name": "Whangamata",
"PostCode": "3691",
"LatLong": "-37.2,175.8667"
},
{
"Name": "Whangapoua",
"PostCode": "3506",
"LatLong": "-36.7167,175.6167"
},
{
"Name": "Wharepuhunga",
"PostCode": "3872",
"LatLong": "-38.1333,175.45"
},
{
"Name": "Wharewaka",
"PostCode": "3330",
"LatLong": "-38.7311,176.0734"
},
{
"Name": "Whatawhata",
"PostCode": "3261",
"LatLong": "-37.8,175.15"
},
{
"Name": "Whatawhata",
"PostCode": "3289",
"LatLong": "-37.8,175.15"
},
{
"Name": "Whitehall",
"PostCode": "3496",
"LatLong": "-37.8833,175.5667"
},
{
"Name": "Whitianga",
"PostCode": "3510",
"LatLong": "-36.8333,175.7"
},
{
"Name": "Whitianga",
"PostCode": "3542",
"LatLong": "-36.8333,175.7"
}
]
}
]
}
]
},
{
"Name": "Wellington",
"Code": "G2",
"Provinces": [
{
"Communities": [
{
"Places": [
{
"Name": "Alicetown",
"PostCode": "5040",
"LatLong": "-41.2083,174.8902"
},
{
"Name": "Avalon",
"PostCode": "5010",
"LatLong": "-41.1983,174.9202"
},
{
"Name": "Berhampore",
"PostCode": "6242",
"LatLong": "-41.3215,174.7754"
},
{
"Name": "Bideford",
"PostCode": "5871",
"LatLong": "-40.8667,175.8667"
},
{
"Name": "Cannons Creek",
"PostCode": "5243",
"LatLong": "-41.1399,174.8665"
},
{
"Name": "Carterton",
"PostCode": "5713",
"LatLong": "-41.0183,175.5302"
},
{
"Name": "Carterton",
"PostCode": "5743",
"LatLong": "-41.0183,175.5302"
},
{
"Name": "Carterton",
"PostCode": "5791",
"LatLong": "-41.0183,175.5302"
},
{
"Name": "Clareville",
"PostCode": "5887",
"LatLong": "-41.0167,175.55"
},
{
"Name": "Cross Creek",
"PostCode": "5773",
"LatLong": "-41.1667,175.2167"
},
{
"Name": "Eastbourne",
"PostCode": "5047",
"LatLong": "-41.3,174.9"
},
{
"Name": "Elsdon",
"PostCode": "5022",
"LatLong": "-41.1283,174.8202"
},
{
"Name": "Featherston",
"PostCode": "5710",
"LatLong": "-41.1083,175.3202"
},
{
"Name": "Featherston",
"PostCode": "5740",
"LatLong": "-41.1083,175.3202"
},
{
"Name": "Gladstone",
"PostCode": "5884",
"LatLong": "-41.0833,175.65"
},
{
"Name": "Gracefield",
"PostCode": "5043",
"LatLong": "-41.2333,174.9167"
},
{
"Name": "Grenada North",
"PostCode": "5028",
"LatLong": "-41.1897,174.8412"
},
{
"Name": "Greytown",
"PostCode": "5712",
"LatLong": "-41.0783,175.4602"
},
{
"Name": "Greytown",
"PostCode": "5742",
"LatLong": "-41.0783,175.4602"
},
{
"Name": "Greytown",
"PostCode": "5794",
"LatLong": "-41.0783,175.4602"
},
{
"Name": "Hinakura",
"PostCode": "5784",
"LatLong": "-41.3,175.6333"
},
{
"Name": "Homedale",
"PostCode": "5049",
"LatLong": "-41.2667,174.95"
},
{
"Name": "Homedale",
"PostCode": "5373",
"LatLong": "-41.2667,174.95"
},
{
"Name": "Homewood",
"PostCode": "5883",
"LatLong": "-41.1836,175.9581"
},
{
"Name": "Kahutara",
"PostCode": "5771",
"LatLong": "-41.2333,175.3333"
},
{
"Name": "Kaitoke",
"PostCode": "5372",
"LatLong": "-41.0833,175.1667"
},
{
"Name": "Kaiwharawhara",
"PostCode": "6144",
"LatLong": "-41.2667,174.7833"
},
{
"Name": "Karehana Bay",
"PostCode": "5026",
"LatLong": "-41.0719,174.8575"
},
{
"Name": "Karori",
"PostCode": "6012",
"LatLong": "-41.2837,174.7414"
},
{
"Name": "Karori",
"PostCode": "6147",
"LatLong": "-41.2837,174.7414"
},
{
"Name": "Karori West",
"PostCode": "6972",
"LatLong": "-41.2883,174.7102"
},
{
"Name": "Kelburn",
"PostCode": "6143",
"LatLong": "-41.2833,174.7667"
},
{
"Name": "Kelburn",
"PostCode": "6145",
"LatLong": "-41.2833,174.7667"
},
{
"Name": "Kelburn",
"PostCode": "6150",
"LatLong": "-41.2833,174.7667"
},
{
"Name": "Kelburn",
"PostCode": "6160",
"LatLong": "-41.2833,174.7667"
},
{
"Name": "Khandallah",
"PostCode": "6035",
"LatLong": "-41.2443,174.7885"
},
{
"Name": "Kingsley Heights",
"PostCode": "5140",
"LatLong": "-41.1183,175.0702"
},
{
"Name": "Kopuaranga",
"PostCode": "5881",
"LatLong": "-40.8333,175.6667"
},
{
"Name": "Korokoro",
"PostCode": "5016",
"LatLong": "-41.2167,174.8667"
},
{
"Name": "Linden",
"PostCode": "5249",
"LatLong": "-41.1483,174.8302"
},
{
"Name": "Lower Hutt",
"PostCode": "5042",
"LatLong": "-41.2167,174.9167"
},
{
"Name": "Maoribank",
"PostCode": "5018",
"LatLong": "-41.1083,175.0902"
},
{
"Name": "Martinborough",
"PostCode": "5711",
"LatLong": "-41.2083,175.4302"
},
{
"Name": "Martinborough",
"PostCode": "5741",
"LatLong": "-41.2083,175.4302"
},
{
"Name": "Martinborough",
"PostCode": "5783",
"LatLong": "-41.2083,175.4302"
},
{
"Name": "Masterton",
"PostCode": "5810",
"LatLong": "-40.9597,175.6575"
},
{
"Name": "Masterton",
"PostCode": "5840",
"LatLong": "-40.9597,175.6575"
},
{
"Name": "Masterton",
"PostCode": "5842",
"LatLong": "-40.9597,175.6575"
},
{
"Name": "Masterton",
"PostCode": "5885",
"LatLong": "-40.9597,175.6575"
},
{
"Name": "Maungaraki",
"PostCode": "5050",
"LatLong": "-41.2083,174.8702"
},
{
"Name": "Mauriceville",
"PostCode": "5882",
"LatLong": "-40.7833,175.7"
},
{
"Name": "Miramar",
"PostCode": "6022",
"LatLong": "-41.316,174.8154"
},
{
"Name": "Miramar",
"PostCode": "6243",
"LatLong": "-41.316,174.8154"
},
{
"Name": "Mount Victoria",
"PostCode": "6011",
"LatLong": "-41.297,174.7936"
},
{
"Name": "Mount Victoria",
"PostCode": "6140",
"LatLong": "-41.297,174.7936"
},
{
"Name": "Mount Victoria",
"PostCode": "6141",
"LatLong": "-41.297,174.7936"
},
{
"Name": "Mount Victoria",
"PostCode": "6142",
"LatLong": "-41.297,174.7936"
},
{
"Name": "Mount Victoria",
"PostCode": "6146",
"LatLong": "-41.297,174.7936"
},
{
"Name": "Mount Victoria",
"PostCode": "6148",
"LatLong": "-41.297,174.7936"
},
{
"Name": "Muritai",
"PostCode": "5013",
"LatLong": "-41.3025,174.892"
},
{
"Name": "Naenae",
"PostCode": "5044",
"LatLong": "-41.1983,174.9402"
},
{
"Name": "Newlands",
"PostCode": "6440",
"LatLong": "-41.2244,174.8219"
},
{
"Name": "Newlands",
"PostCode": "6442",
"LatLong": "-41.2244,174.8219"
},
{
"Name": "Ngaio",
"PostCode": "6441",
"LatLong": "-41.2504,174.7739"
},
{
"Name": "Ngaio",
"PostCode": "6443",
"LatLong": "-41.2504,174.7739"
},
{
"Name": "Ohariu",
"PostCode": "6037",
"LatLong": "-41.2,174.7667"
},
{
"Name": "Onepoto",
"PostCode": "5242",
"LatLong": "-41.1083,174.8402"
},
{
"Name": "Otaki",
"PostCode": "5512",
"LatLong": "-40.7583,175.15"
},
{
"Name": "Otaki",
"PostCode": "5542",
"LatLong": "-40.7583,175.15"
},
{
"Name": "Otaki",
"PostCode": "5543",
"LatLong": "-40.7583,175.15"
},
{
"Name": "Owhiro Bay",
"PostCode": "6023",
"LatLong": "-41.3383,174.7502"
},
{
"Name": "Paekakariki",
"PostCode": "5034",
"LatLong": "-40.9854,174.9545"
},
{
"Name": "Paekakariki",
"PostCode": "5258",
"LatLong": "-40.9854,174.9545"
},
{
"Name": "Pahautea",
"PostCode": "5781",
"LatLong": "-41.2333,175.3833"
},
{
"Name": "Paraparaumu",
"PostCode": "5254",
"LatLong": "-40.9167,175.0167"
},
{
"Name": "Paraparaumu Beach",
"PostCode": "5032",
"LatLong": "-40.9,174.9833"
},
{
"Name": "Paraparaumu Beach",
"PostCode": "5252",
"LatLong": "-40.9,174.9833"
},
{
"Name": "Paremata",
"PostCode": "5247",
"LatLong": "-41.1167,174.8667"
},
{
"Name": "Parkvale",
"PostCode": "5792",
"LatLong": "-41.05,175.55"
},
{
"Name": "Petone",
"PostCode": "5012",
"LatLong": "-41.2283,174.8702"
},
{
"Name": "Petone",
"PostCode": "5045",
"LatLong": "-41.2283,174.8702"
},
{
"Name": "Petone",
"PostCode": "5046",
"LatLong": "-41.2283,174.8702"
},
{
"Name": "Pinehaven",
"PostCode": "5019",
"LatLong": "-41.1583,175.0002"
},
{
"Name": "Pirinoa",
"PostCode": "5772",
"LatLong": "-41.35,175.2"
},
{
"Name": "Pukerua Bay",
"PostCode": "5381",
"LatLong": "-41.0333,174.9"
},
{
"Name": "Ranui Heights",
"PostCode": "5240",
"LatLong": "-41.1383,174.8402"
},
{
"Name": "Raumati Beach",
"PostCode": "5255",
"LatLong": "-40.9167,174.9833"
},
{
"Name": "Reikorangi",
"PostCode": "5391",
"LatLong": "-40.9,175.0833"
},
{
"Name": "Riversdale Beach",
"PostCode": "5872",
"LatLong": "-41.0883,176.0702"
},
{
"Name": "Rongotai",
"PostCode": "6241",
"LatLong": "-41.3212,174.8016"
},
{
"Name": "Silverstream",
"PostCode": "5142",
"LatLong": "-41.15,175"
},
{
"Name": "Solway",
"PostCode": "5888",
"LatLong": "-40.9583,175.6102"
},
{
"Name": "Stokes Valley",
"PostCode": "5141",
"LatLong": "-41.1783,174.9802"
},
{
"Name": "Strathmore Park",
"PostCode": "6244",
"LatLong": "-41.3289,174.8199"
},
{
"Name": "Taita",
"PostCode": "5011",
"LatLong": "-41.2,174.95"
},
{
"Name": "Taita",
"PostCode": "5041",
"LatLong": "-41.2,174.95"
},
{
"Name": "Tauweru",
"PostCode": "5890",
"LatLong": "-40.9667,175.8"
},
{
"Name": "Te Horo",
"PostCode": "5544",
"LatLong": "-40.8,175.1"
},
{
"Name": "Tinui",
"PostCode": "5889",
"LatLong": "-40.8833,176.0667"
},
{
"Name": "Tinui",
"PostCode": "5894",
"LatLong": "-40.8833,176.0667"
},
{
"Name": "Trentham",
"PostCode": "5143",
"LatLong": "-41.1333,175.0333"
},
{
"Name": "Upper Hutt",
"PostCode": "5371",
"LatLong": "-41.1383,175.0502"
},
{
"Name": "Upper Tauheru",
"PostCode": "5886",
"LatLong": "-40.9069,175.8111"
},
{
"Name": "Waikanae",
"PostCode": "5036",
"LatLong": "-40.8833,175.0667"
},
{
"Name": "Waikanae",
"PostCode": "5250",
"LatLong": "-40.8833,175.0667"
},
{
"Name": "Wainuiomata",
"PostCode": "5014",
"LatLong": "-41.2667,174.95"
},
{
"Name": "Wainuiomata",
"PostCode": "5048",
"LatLong": "-41.2667,174.95"
},
{
"Name": "Waipawa",
"PostCode": "5782",
"LatLong": "-41.4122,175.5153"
},
{
"Name": "Waitangirua",
"PostCode": "5024",
"LatLong": "-41.1183,174.8802"
},
{
"Name": "Wellington",
"PostCode": "6021",
"LatLong": "-41.2866,174.7756"
},
{
"Name": "Wellington",
"PostCode": "6149",
"LatLong": "-41.2866,174.7756"
},
{
"Name": "Whitby",
"PostCode": "5245",
"LatLong": "-41.1083,174.8902"
}
]
}
]
}
]
},
{
"Name": "West Coast",
"Code": "G3",
"Provinces": [
{
"Communities": [
{
"Places": [
{
"Name": "Ahaura",
"PostCode": "7843",
"LatLong": "-42.3492,171.5393"
},
{
"Name": "Aickens",
"PostCode": "7875",
"LatLong": "-42.7833,171.6167"
},
{
"Name": "Barrytown",
"PostCode": "7873",
"LatLong": "-42.25,171.3333"
},
{
"Name": "Bell Hill",
"PostCode": "7872",
"LatLong": "-42.55,171.6"
},
{
"Name": "Carters Beach",
"PostCode": "7825",
"LatLong": "-41.75,171.5667"
},
{
"Name": "Carters Beach",
"PostCode": "7866",
"LatLong": "-41.75,171.5667"
},
{
"Name": "Charleston",
"PostCode": "7865",
"LatLong": "-41.9059,171.4383"
},
{
"Name": "Cobden",
"PostCode": "7840",
"LatLong": "-42.4436,171.2129"
},
{
"Name": "Crushington",
"PostCode": "7895",
"LatLong": "-42.15,171.9"
},
{
"Name": "Fergusons",
"PostCode": "7885",
"LatLong": "-42.9667,170.7333"
},
{
"Name": "Franz Josef/Waiau",
"PostCode": "7856",
"LatLong": "-43.3891,170.1819"
},
{
"Name": "Goldsborough",
"PostCode": "7882",
"LatLong": "-42.6667,171.1167"
},
{
"Name": "Granity",
"PostCode": "7823",
"LatLong": "-41.6333,171.85"
},
{
"Name": "Harihari",
"PostCode": "7884",
"LatLong": "-43.15,170.55"
},
{
"Name": "Hector",
"PostCode": "7822",
"LatLong": "-41.6,171.8833"
},
{
"Name": "Hector",
"PostCode": "7867",
"LatLong": "-41.6,171.8833"
},
{
"Name": "Hokitika",
"PostCode": "7810",
"LatLong": "-42.7167,170.9667"
},
{
"Name": "Hokitika",
"PostCode": "7842",
"LatLong": "-42.7167,170.9667"
},
{
"Name": "Ikamatua",
"PostCode": "7846",
"LatLong": "-42.2667,171.6833"
},
{
"Name": "Ikamatua",
"PostCode": "7871",
"LatLong": "-42.2667,171.6833"
},
{
"Name": "Kaniere",
"PostCode": "7811",
"LatLong": "-42.75,171"
},
{
"Name": "Kowhitirangi",
"PostCode": "7881",
"LatLong": "-42.8667,171.0167"
},
{
"Name": "Kowhitirangi",
"PostCode": "7883",
"LatLong": "-42.8667,171.0167"
},
{
"Name": "Kumara",
"PostCode": "7832",
"LatLong": "-42.6283,171.1801"
},
{
"Name": "Kumara",
"PostCode": "7861",
"LatLong": "-42.6283,171.1801"
},
{
"Name": "Marsden",
"PostCode": "7805",
"LatLong": "-42.5667,171.2167"
},
{
"Name": "Moana",
"PostCode": "7845",
"LatLong": "-42.5833,171.4667"
},
{
"Name": "Mokihinui Mine",
"PostCode": "7891",
"LatLong": "-41.5833,172.0167"
},
{
"Name": "Oparara",
"PostCode": "7893",
"LatLong": "-41.2167,172.1167"
},
{
"Name": "Reefton",
"PostCode": "7830",
"LatLong": "-42.1167,171.8667"
},
{
"Name": "Reefton",
"PostCode": "7851",
"LatLong": "-42.1167,171.8667"
},
{
"Name": "Rewanui",
"PostCode": "7803",
"LatLong": "-42.3833,171.3167"
},
{
"Name": "Roa",
"PostCode": "7804",
"LatLong": "-42.35,171.3833"
},
{
"Name": "Ross",
"PostCode": "7812",
"LatLong": "-42.8883,170.8101"
},
{
"Name": "Ross",
"PostCode": "7860",
"LatLong": "-42.8883,170.8101"
},
{
"Name": "Runanga",
"PostCode": "7802",
"LatLong": "-42.3983,171.2501"
},
{
"Name": "Runanga",
"PostCode": "7841",
"LatLong": "-42.3983,171.2501"
},
{
"Name": "Springs Junction",
"PostCode": "7847",
"LatLong": "-42.3167,172.1833"
},
{
"Name": "Te Kuha",
"PostCode": "7892",
"LatLong": "-41.8333,171.65"
},
{
"Name": "Waimangaroa",
"PostCode": "7848",
"LatLong": "-41.7167,171.7667"
},
{
"Name": "Weheka",
"PostCode": "7859",
"LatLong": "-43.4648,170.0168"
},
{
"Name": "Whataroa",
"PostCode": "7857",
"LatLong": "-43.2833,170.4167"
}
]
}
]
}
]
},
{
"Name": "Tasman",
"Code": "TAS",
"Provinces": [
{
"Communities": [
{
"Places": [
{
"Name": "Baton",
"PostCode": "7073",
"LatLong": "-41.3167,172.7167"
},
{
"Name": "Braeburn",
"PostCode": "7175",
"LatLong": "-41.1833,173"
},
{
"Name": "Brightwater",
"PostCode": "7022",
"LatLong": "-41.3833,173.1167"
},
{
"Name": "Brightwater",
"PostCode": "7051",
"LatLong": "-41.3833,173.1167"
},
{
"Name": "Brightwater",
"PostCode": "7091",
"LatLong": "-41.3833,173.1167"
},
{
"Name": "Collingwood",
"PostCode": "7054",
"LatLong": "-40.6772,172.6807"
},
{
"Name": "East Takaka",
"PostCode": "7183",
"LatLong": "-40.9167,172.8333"
},
{
"Name": "Hiwipango",
"PostCode": "7095",
"LatLong": "-41.5167,172.9333"
},
{
"Name": "Kairuru",
"PostCode": "7198",
"LatLong": "-41.0333,172.9333"
},
{
"Name": "Lake Rotoroa",
"PostCode": "7072",
"LatLong": "-41.8,172.6"
},
{
"Name": "Mahana",
"PostCode": "7173",
"LatLong": "-41.2667,173.05"
},
{
"Name": "Mapua",
"PostCode": "7005",
"LatLong": "-41.25,173.1"
},
{
"Name": "Mapua",
"PostCode": "7048",
"LatLong": "-41.25,173.1"
},
{
"Name": "Matakitaki",
"PostCode": "7077",
"LatLong": "-41.9667,172.3333"
},
{
"Name": "Motupiko",
"PostCode": "7096",
"LatLong": "-41.45,172.8"
},
{
"Name": "Ngatimoti",
"PostCode": "7196",
"LatLong": "-41.2167,172.9"
},
{
"Name": "Onekaka",
"PostCode": "7182",
"LatLong": "-40.75,172.7"
},
{
"Name": "Richmond",
"PostCode": "7020",
"LatLong": "-41.3333,173.1833"
},
{
"Name": "Richmond",
"PostCode": "7050",
"LatLong": "-41.3333,173.1833"
},
{
"Name": "Richmond",
"PostCode": "7081",
"LatLong": "-41.3333,173.1833"
},
{
"Name": "Riwaka",
"PostCode": "7146",
"LatLong": "-41.0833,173"
},
{
"Name": "Saint Arnaud",
"PostCode": "7053",
"LatLong": "-41.8,172.8333"
},
{
"Name": "Sandy Bay",
"PostCode": "7197",
"LatLong": "-41.0167,172.9833"
},
{
"Name": "Takaka",
"PostCode": "7110",
"LatLong": "-40.85,172.8"
},
{
"Name": "Takaka",
"PostCode": "7142",
"LatLong": "-40.85,172.8"
},
{
"Name": "Tapawera",
"PostCode": "7055",
"LatLong": "-41.4,172.8167"
},
{
"Name": "Upper Moutere",
"PostCode": "7144",
"LatLong": "-41.2667,173"
},
{
"Name": "Wakefield",
"PostCode": "7025",
"LatLong": "-41.4,173.05"
},
{
"Name": "Wakefield",
"PostCode": "7052",
"LatLong": "-41.4,173.05"
}
]
}
]
}
]
}
]