[
{
"Name": "Adjuntas",
"Code": "001",
"Provinces": [
{
"Communities": [
{
"Places": [
{
"Name": "Adjuntas",
"PostCode": "00601",
"LatLong": "18.1627,-66.7221"
}
]
}
]
}
]
},
{
"Name": "Aguada",
"Code": "003",
"Provinces": [
{
"Communities": [
{
"Places": [
{
"Name": "Aguada",
"PostCode": "00602",
"LatLong": "18.3794,-67.1882"
}
]
}
]
}
]
},
{
"Name": "Aguadilla",
"Code": "005",
"Provinces": [
{
"Communities": [
{
"Places": [
{
"Name": "Aguadilla",
"PostCode": "00603",
"LatLong": "18.4274,-67.1541"
},
{
"Name": "Aguadilla",
"PostCode": "00604",
"LatLong": "18.4274,-67.1541"
},
{
"Name": "Aguadilla",
"PostCode": "00605",
"LatLong": "18.4274,-67.1541"
},
{
"Name": "San Antonio",
"PostCode": "00690",
"LatLong": "18.4922,-67.0985"
}
]
}
]
}
]
},
{
"Name": "Aguas Buenas",
"Code": "007",
"Provinces": [
{
"Communities": [
{
"Places": [
{
"Name": "Aguas Buenas",
"PostCode": "00703",
"LatLong": "18.2569,-66.1029"
}
]
}
]
}
]
},
{
"Name": "Aibonito",
"Code": "009",
"Provinces": [
{
"Communities": [
{
"Places": [
{
"Name": "Aibonito",
"PostCode": "00705",
"LatLong": "18.14,-66.266"
},
{
"Name": "La Plata",
"PostCode": "00786",
"LatLong": "18.1544,-66.2329"
}
]
}
]
}
]
},
{
"Name": "Anasco",
"Code": "011",
"Provinces": [
{
"Communities": [
{
"Places": [
{
"Name": "Anasco",
"PostCode": "00610",
"LatLong": "18.2827,-67.1396"
}
]
}
]
}
]
},
{
"Name": "Arecibo",
"Code": "013",
"Provinces": [
{
"Communities": [
{
"Places": [
{
"Name": "Arecibo",
"PostCode": "00612",
"LatLong": "18.4724,-66.7157"
},
{
"Name": "Arecibo",
"PostCode": "00613",
"LatLong": "18.4724,-66.7157"
},
{
"Name": "Arecibo",
"PostCode": "00614",
"LatLong": "18.4724,-66.7157"
},
{
"Name": "Bajadero",
"PostCode": "00616",
"LatLong": "18.4266,-66.6832"
},
{
"Name": "Garrochales",
"PostCode": "00652",
"LatLong": "18.4577,-66.611"
},
{
"Name": "Sabana Hoyos",
"PostCode": "00688",
"LatLong": "18.4338,-66.6138"
}
]
}
]
}
]
},
{
"Name": "Arroyo",
"Code": "015",
"Provinces": [
{
"Communities": [
{
"Places": [
{
"Name": "Arroyo",
"PostCode": "00714",
"LatLong": "17.9658,-66.0613"
}
]
}
]
}
]
},
{
"Name": "Barceloneta",
"Code": "017",
"Provinces": [
{
"Communities": [
{
"Places": [
{
"Name": "Barceloneta",
"PostCode": "00617",
"LatLong": "18.4505,-66.5385"
}
]
}
]
}
]
},
{
"Name": "Barranquitas",
"Code": "019",
"Provinces": [
{
"Communities": [
{
"Places": [
{
"Name": "Barranquitas",
"PostCode": "00794",
"LatLong": "18.1866,-66.3063"
}
]
}
]
}
]
},
{
"Name": "Bayamon",
"Code": "021",
"Provinces": [
{
"Communities": [
{
"Places": [
{
"Name": "Bayamon",
"PostCode": "00956",
"LatLong": "18.3986,-66.1557"
},
{
"Name": "Bayamon",
"PostCode": "00957",
"LatLong": "18.3986,-66.1557"
},
{
"Name": "Bayamon",
"PostCode": "00958",
"LatLong": "18.3986,-66.1557"
},
{
"Name": "Bayamon",
"PostCode": "00959",
"LatLong": "18.3986,-66.1557"
},
{
"Name": "Bayamon",
"PostCode": "00960",
"LatLong": "18.3986,-66.1557"
},
{
"Name": "Bayamon",
"PostCode": "00961",
"LatLong": "18.3986,-66.1557"
},
{
"Name": "Fort Buchanan",
"PostCode": "00934",
"LatLong": "18.4122,-66.1221"
}
]
}
]
}
]
},
{
"Name": "Cabo Rojo",
"Code": "023",
"Provinces": [
{
"Communities": [
{
"Places": [
{
"Name": "Boqueron",
"PostCode": "00622",
"LatLong": "18.0269,-67.1691"
},
{
"Name": "Cabo Rojo",
"PostCode": "00623",
"LatLong": "18.0866,-67.1457"
}
]
}
]
}
]
},
{
"Name": "Caguas",
"Code": "025",
"Provinces": [
{
"Communities": [
{
"Places": [
{
"Name": "Caguas",
"PostCode": "00725",
"LatLong": "18.2341,-66.0485"
},
{
"Name": "Caguas",
"PostCode": "00726",
"LatLong": "18.2341,-66.0485"
},
{
"Name": "Caguas",
"PostCode": "00727",
"LatLong": "18.2341,-66.0485"
}
]
}
]
}
]
},
{
"Name": "Camuy",
"Code": "027",
"Provinces": [
{
"Communities": [
{
"Places": [
{
"Name": "Camuy",
"PostCode": "00627",
"LatLong": "18.4838,-66.8449"
}
]
}
]
}
]
},
{
"Name": "Canovanas",
"Code": "029",
"Provinces": [
{
"Communities": [
{
"Places": [
{
"Name": "Canovanas",
"PostCode": "00729",
"LatLong": "18.3751,-65.8993"
}
]
}
]
}
]
},
{
"Name": "Carolina",
"Code": "031",
"Provinces": [
{
"Communities": [
{
"Places": [
{
"Name": "Carolina",
"PostCode": "00983",
"LatLong": "18.3808,-65.9574"
},
{
"Name": "Carolina",
"PostCode": "00984",
"LatLong": "18.3808,-65.9574"
},
{
"Name": "Carolina",
"PostCode": "00985",
"LatLong": "18.3808,-65.9574"
},
{
"Name": "Carolina",
"PostCode": "00986",
"LatLong": "18.3808,-65.9574"
},
{
"Name": "Carolina",
"PostCode": "00987",
"LatLong": "18.3808,-65.9574"
},
{
"Name": "Carolina",
"PostCode": "00988",
"LatLong": "18.3808,-65.9574"
}
]
}
]
}
]
},
{
"Name": "Catano",
"Code": "033",
"Provinces": [
{
"Communities": [
{
"Places": [
{
"Name": "Catano",
"PostCode": "00962",
"LatLong": "18.4413,-66.1182"
},
{
"Name": "Catano",
"PostCode": "00963",
"LatLong": "18.4413,-66.1182"
}
]
}
]
}
]
},
{
"Name": "Cayey",
"Code": "035",
"Provinces": [
{
"Communities": [
{
"Places": [
{
"Name": "Cayey",
"PostCode": "00736",
"LatLong": "18.1119,-66.166"
},
{
"Name": "Cayey",
"PostCode": "00737",
"LatLong": "18.1119,-66.166"
}
]
}
]
}
]
},
{
"Name": "Ceiba",
"Code": "037",
"Provinces": [
{
"Communities": [
{
"Places": [
{
"Name": "Ceiba",
"PostCode": "00735",
"LatLong": "18.2641,-65.6485"
},
{
"Name": "Roosevelt Roads",
"PostCode": "00742",
"LatLong": "18.235,-65.6291"
}
]
}
]
}
]
},
{
"Name": "Ciales",
"Code": "039",
"Provinces": [
{
"Communities": [
{
"Places": [
{
"Name": "Ciales",
"PostCode": "00638",
"LatLong": "18.3361,-66.4688"
}
]
}
]
}
]
},
{
"Name": "Cidra",
"Code": "041",
"Provinces": [
{
"Communities": [
{
"Places": [
{
"Name": "Cidra",
"PostCode": "00739",
"LatLong": "18.1758,-66.1613"
}
]
}
]
}
]
},
{
"Name": "Coamo",
"Code": "043",
"Provinces": [
{
"Communities": [
{
"Places": [
{
"Name": "Coamo",
"PostCode": "00769",
"LatLong": "18.08,-66.3579"
}
]
}
]
}
]
},
{
"Name": "Comerio",
"Code": "045",
"Provinces": [
{
"Communities": [
{
"Places": [
{
"Name": "Comerio",
"PostCode": "00782",
"LatLong": "18.218,-66.226"
}
]
}
]
}
]
},
{
"Name": "Corozal",
"Code": "047",
"Provinces": [
{
"Communities": [
{
"Places": [
{
"Name": "Corozal",
"PostCode": "00783",
"LatLong": "18.3411,-66.3168"
}
]
}
]
}
]
},
{
"Name": "Culebra",
"Code": "049",
"Provinces": [
{
"Communities": [
{
"Places": [
{
"Name": "Culebra",
"PostCode": "00775",
"LatLong": "18.303,-65.301"
}
]
}
]
}
]
},
{
"Name": "Dorado",
"Code": "051",
"Provinces": [
{
"Communities": [
{
"Places": [
{
"Name": "Dorado",
"PostCode": "00646",
"LatLong": "18.4588,-66.2677"
}
]
}
]
}
]
},
{
"Name": "Fajardo",
"Code": "053",
"Provinces": [
{
"Communities": [
{
"Places": [
{
"Name": "Fajardo",
"PostCode": "00738",
"LatLong": "18.3258,-65.6524"
},
{
"Name": "Puerto Real",
"PostCode": "00740",
"LatLong": "18.25,-65.7493"
}
]
}
]
}
]
},
{
"Name": "Florida",
"Code": "054",
"Provinces": [
{
"Communities": [
{
"Places": [
{
"Name": "Florida",
"PostCode": "00650",
"LatLong": "18.3624,-66.5613"
}
]
}
]
}
]
},
{
"Name": "Guanica",
"Code": "055",
"Provinces": [
{
"Communities": [
{
"Places": [
{
"Name": "Ensenada",
"PostCode": "00647",
"LatLong": "17.9689,-66.9335"
},
{
"Name": "Guanica",
"PostCode": "00653",
"LatLong": "17.9716,-66.908"
}
]
}
]
}
]
},
{
"Name": "Guayama",
"Code": "057",
"Provinces": [
{
"Communities": [
{
"Places": [
{
"Name": "Aguirre",
"PostCode": "00704",
"LatLong": "17.9529,-66.262"
},
{
"Name": "Guayama",
"PostCode": "00784",
"LatLong": "17.9841,-66.1138"
}
]
}
]
}
]
},
{
"Name": "Guayanilla",
"Code": "059",
"Provinces": [
{
"Communities": [
{
"Places": [
{
"Name": "Guayama",
"PostCode": "00785",
"LatLong": "17.9841,-66.1138"
},
{
"Name": "Guayanilla",
"PostCode": "00656",
"LatLong": "18.0191,-66.7918"
}
]
}
]
}
]
},
{
"Name": "Guaynabo",
"Code": "061",
"Provinces": [
{
"Communities": [
{
"Places": [
{
"Name": "Guaynabo",
"PostCode": "00965",
"LatLong": "18.3575,-66.111"
},
{
"Name": "Guaynabo",
"PostCode": "00966",
"LatLong": "18.3575,-66.111"
},
{
"Name": "Guaynabo",
"PostCode": "00969",
"LatLong": "18.3575,-66.111"
},
{
"Name": "Guaynabo",
"PostCode": "00970",
"LatLong": "18.3575,-66.111"
},
{
"Name": "Guaynabo",
"PostCode": "00971",
"LatLong": "18.3575,-66.111"
}
]
}
]
}
]
},
{
"Name": "Gurabo",
"Code": "063",
"Provinces": [
{
"Communities": [
{
"Places": [
{
"Name": "Gurabo",
"PostCode": "00778",
"LatLong": "18.2544,-65.9729"
}
]
}
]
}
]
},
{
"Name": "Hatillo",
"Code": "065",
"Provinces": [
{
"Communities": [
{
"Places": [
{
"Name": "Hatillo",
"PostCode": "00659",
"LatLong": "18.4863,-66.8255"
}
]
}
]
}
]
},
{
"Name": "Hormigueros",
"Code": "067",
"Provinces": [
{
"Communities": [
{
"Places": [
{
"Name": "Hormigueros",
"PostCode": "00660",
"LatLong": "18.1397,-67.1274"
}
]
}
]
}
]
},
{
"Name": "Humacao",
"Code": "069",
"Provinces": [
{
"Communities": [
{
"Places": [
{
"Name": "Humacao",
"PostCode": "00791",
"LatLong": "18.1497,-65.8274"
},
{
"Name": "Humacao",
"PostCode": "00792",
"LatLong": "18.1497,-65.8274"
},
{
"Name": "Punta Santiago",
"PostCode": "00741",
"LatLong": "18.1663,-65.7482"
}
]
}
]
}
]
},
{
"Name": "Isabela",
"Code": "071",
"Provinces": [
{
"Communities": [
{
"Places": [
{
"Name": "Isabela",
"PostCode": "00662",
"LatLong": "18.5008,-67.0243"
}
]
}
]
}
]
},
{
"Name": "Jayuya",
"Code": "073",
"Provinces": [
{
"Communities": [
{
"Places": [
{
"Name": "Jayuya",
"PostCode": "00664",
"LatLong": "18.2186,-66.5916"
}
]
}
]
}
]
},
{
"Name": "Juana Diaz",
"Code": "075",
"Provinces": [
{
"Communities": [
{
"Places": [
{
"Name": "Juana Diaz",
"PostCode": "00795",
"LatLong": "18.0525,-66.5066"
}
]
}
]
}
]
},
{
"Name": "Juncos",
"Code": "077",
"Provinces": [
{
"Communities": [
{
"Places": [
{
"Name": "Juncos",
"PostCode": "00777",
"LatLong": "18.2275,-65.921"
}
]
}
]
}
]
},
{
"Name": "Lajas",
"Code": "079",
"Provinces": [
{
"Communities": [
{
"Places": [
{
"Name": "Lajas",
"PostCode": "00667",
"LatLong": "18.05,-67.0593"
}
]
}
]
}
]
},
{
"Name": "Lares",
"Code": "081",
"Provinces": [
{
"Communities": [
{
"Places": [
{
"Name": "Castaner",
"PostCode": "00631",
"LatLong": "18.1805,-66.8321"
},
{
"Name": "Lares",
"PostCode": "00669",
"LatLong": "18.2947,-66.8771"
}
]
}
]
}
]
},
{
"Name": "Las Marias",
"Code": "083",
"Provinces": [
{
"Communities": [
{
"Places": [
{
"Name": "Las Marias",
"PostCode": "00670",
"LatLong": "18.2519,-66.9921"
}
]
}
]
}
]
},
{
"Name": "Las Piedras",
"Code": "085",
"Provinces": [
{
"Communities": [
{
"Places": [
{
"Name": "Las Piedras",
"PostCode": "00771",
"LatLong": "18.183,-65.8663"
}
]
}
]
}
]
},
{
"Name": "Loiza",
"Code": "087",
"Provinces": [
{
"Communities": [
{
"Places": [
{
"Name": "Loiza",
"PostCode": "00772",
"LatLong": "18.4313,-65.8802"
}
]
}
]
}
]
},
{
"Name": "Luquillo",
"Code": "089",
"Provinces": [
{
"Communities": [
{
"Places": [
{
"Name": "Luquillo",
"PostCode": "00773",
"LatLong": "18.3725,-65.7166"
}
]
}
]
}
]
},
{
"Name": "Manati",
"Code": "091",
"Provinces": [
{
"Communities": [
{
"Places": [
{
"Name": "Manati",
"PostCode": "00674",
"LatLong": "18.4274,-66.4921"
}
]
}
]
}
]
},
{
"Name": "Maricao",
"Code": "093",
"Provinces": [
{
"Communities": [
{
"Places": [
{
"Name": "Maricao",
"PostCode": "00606",
"LatLong": "18.1808,-66.9799"
}
]
}
]
}
]
},
{
"Name": "Maunabo",
"Code": "095",
"Provinces": [
{
"Communities": [
{
"Places": [
{
"Name": "Maunabo",
"PostCode": "00707",
"LatLong": "18.0072,-65.8993"
}
]
}
]
}
]
},
{
"Name": "Mayaguez",
"Code": "097",
"Provinces": [
{
"Communities": [
{
"Places": [
{
"Name": "Mayaguez",
"PostCode": "00680",
"LatLong": "18.2011,-67.1396"
},
{
"Name": "Mayaguez",
"PostCode": "00681",
"LatLong": "18.2011,-67.1396"
},
{
"Name": "Mayaguez",
"PostCode": "00682",
"LatLong": "18.2011,-67.1396"
}
]
}
]
}
]
},
{
"Name": "Moca",
"Code": "099",
"Provinces": [
{
"Communities": [
{
"Places": [
{
"Name": "Moca",
"PostCode": "00676",
"LatLong": "18.3947,-67.1132"
}
]
}
]
}
]
},
{
"Name": "Morovis",
"Code": "101",
"Provinces": [
{
"Communities": [
{
"Places": [
{
"Name": "Morovis",
"PostCode": "00687",
"LatLong": "18.3258,-66.4066"
}
]
}
]
}
]
},
{
"Name": "Naguabo",
"Code": "103",
"Provinces": [
{
"Communities": [
{
"Places": [
{
"Name": "Naguabo",
"PostCode": "00718",
"LatLong": "18.2116,-65.7349"
},
{
"Name": "Rio Blanco",
"PostCode": "00744",
"LatLong": "18.2183,-65.7885"
}
]
}
]
}
]
},
{
"Name": "Naranjito",
"Code": "105",
"Provinces": [
{
"Communities": [
{
"Places": [
{
"Name": "Naranjito",
"PostCode": "00719",
"LatLong": "18.3008,-66.2449"
}
]
}
]
}
]
},
{
"Name": "Orocovis",
"Code": "107",
"Provinces": [
{
"Communities": [
{
"Places": [
{
"Name": "Orocovis",
"PostCode": "00720",
"LatLong": "18.2269,-66.391"
}
]
}
]
}
]
},
{
"Name": "Patillas",
"Code": "109",
"Provinces": [
{
"Communities": [
{
"Places": [
{
"Name": "Patillas",
"PostCode": "00723",
"LatLong": "18.0064,-66.0157"
}
]
}
]
}
]
},
{
"Name": "Penuelas",
"Code": "111",
"Provinces": [
{
"Communities": [
{
"Places": [
{
"Name": "Penuelas",
"PostCode": "00624",
"LatLong": "18.0564,-66.7216"
}
]
}
]
}
]
},
{
"Name": "Ponce",
"Code": "113",
"Provinces": [
{
"Communities": [
{
"Places": [
{
"Name": "Coto Laurel",
"PostCode": "00780",
"LatLong": "18.0497,-66.5513"
},
{
"Name": "Mercedita",
"PostCode": "00715",
"LatLong": "18.011,-66.5632"
},
{
"Name": "Ponce",
"PostCode": "00716",
"LatLong": "18.0111,-66.6141"
},
{
"Name": "Ponce",
"PostCode": "00717",
"LatLong": "18.0111,-66.6141"
},
{
"Name": "Ponce",
"PostCode": "00728",
"LatLong": "18.0111,-66.6141"
},
{
"Name": "Ponce",
"PostCode": "00730",
"LatLong": "18.0111,-66.6141"
},
{
"Name": "Ponce",
"PostCode": "00731",
"LatLong": "18.0111,-66.6141"
},
{
"Name": "Ponce",
"PostCode": "00732",
"LatLong": "18.0111,-66.6141"
},
{
"Name": "Ponce",
"PostCode": "00733",
"LatLong": "18.0111,-66.6141"
},
{
"Name": "Ponce",
"PostCode": "00734",
"LatLong": "18.0111,-66.6141"
}
]
}
]
}
]
},
{
"Name": "Quebradillas",
"Code": "115",
"Provinces": [
{
"Communities": [
{
"Places": [
{
"Name": "Quebradillas",
"PostCode": "00678",
"LatLong": "18.4738,-66.9385"
}
]
}
]
}
]
},
{
"Name": "Rincon",
"Code": "117",
"Provinces": [
{
"Communities": [
{
"Places": [
{
"Name": "Rincon",
"PostCode": "00677",
"LatLong": "18.3402,-67.2499"
}
]
}
]
}
]
},
{
"Name": "Rio Grande",
"Code": "119",
"Provinces": [
{
"Communities": [
{
"Places": [
{
"Name": "Palmer",
"PostCode": "00721",
"LatLong": "18.3705,-65.7741"
},
{
"Name": "Rio Grande",
"PostCode": "00745",
"LatLong": "18.3802,-65.8313"
}
]
}
]
}
]
},
{
"Name": "Sabana Grande",
"Code": "121",
"Provinces": [
{
"Communities": [
{
"Places": [
{
"Name": "Sabana Grande",
"PostCode": "00637",
"LatLong": "18.0777,-66.9605"
}
]
}
]
}
]
},
{
"Name": "Salinas",
"Code": "123",
"Provinces": [
{
"Communities": [
{
"Places": [
{
"Name": "Salinas",
"PostCode": "00751",
"LatLong": "17.9775,-66.2979"
}
]
}
]
}
]
},
{
"Name": "San German",
"Code": "125",
"Provinces": [
{
"Communities": [
{
"Places": [
{
"Name": "Rosario",
"PostCode": "00636",
"LatLong": "18.1625,-67.0791"
},
{
"Name": "San German",
"PostCode": "00683",
"LatLong": "18.0816,-67.0449"
}
]
}
]
}
]
},
{
"Name": "San Juan",
"Code": "127",
"Provinces": [
{
"Communities": [
{
"Places": [
{
"Name": "Carolina",
"PostCode": "00979",
"LatLong": "18.3808,-65.9574"
},
{
"Name": "Carolina",
"PostCode": "00981",
"LatLong": "18.3808,-65.9574"
},
{
"Name": "Carolina",
"PostCode": "00982",
"LatLong": "18.3808,-65.9574"
},
{
"Name": "Guaynabo",
"PostCode": "00968",
"LatLong": "18.3575,-66.111"
},
{
"Name": "San Juan",
"PostCode": "00901",
"LatLong": "18.4663,-66.1057"
},
{
"Name": "San Juan",
"PostCode": "00902",
"LatLong": "18.4663,-66.1057"
},
{
"Name": "San Juan",
"PostCode": "00906",
"LatLong": "18.4663,-66.1057"
},
{
"Name": "San Juan",
"PostCode": "00907",
"LatLong": "18.4663,-66.1057"
},
{
"Name": "San Juan",
"PostCode": "00908",
"LatLong": "18.4663,-66.1057"
},
{
"Name": "San Juan",
"PostCode": "00909",
"LatLong": "18.4663,-66.1057"
},
{
"Name": "San Juan",
"PostCode": "00910",
"LatLong": "18.4663,-66.1057"
},
{
"Name": "San Juan",
"PostCode": "00911",
"LatLong": "18.4663,-66.1057"
},
{
"Name": "San Juan",
"PostCode": "00912",
"LatLong": "18.4663,-66.1057"
},
{
"Name": "San Juan",
"PostCode": "00913",
"LatLong": "18.4663,-66.1057"
},
{
"Name": "San Juan",
"PostCode": "00914",
"LatLong": "18.4663,-66.1057"
},
{
"Name": "San Juan",
"PostCode": "00915",
"LatLong": "18.4663,-66.1057"
},
{
"Name": "San Juan",
"PostCode": "00916",
"LatLong": "18.4663,-66.1057"
},
{
"Name": "San Juan",
"PostCode": "00917",
"LatLong": "18.4663,-66.1057"
},
{
"Name": "San Juan",
"PostCode": "00918",
"LatLong": "18.4663,-66.1057"
},
{
"Name": "San Juan",
"PostCode": "00919",
"LatLong": "18.4663,-66.1057"
},
{
"Name": "San Juan",
"PostCode": "00920",
"LatLong": "18.4663,-66.1057"
},
{
"Name": "San Juan",
"PostCode": "00921",
"LatLong": "18.4663,-66.1057"
},
{
"Name": "San Juan",
"PostCode": "00922",
"LatLong": "18.4663,-66.1057"
},
{
"Name": "San Juan",
"PostCode": "00923",
"LatLong": "18.4663,-66.1057"
},
{
"Name": "San Juan",
"PostCode": "00924",
"LatLong": "18.4663,-66.1057"
},
{
"Name": "San Juan",
"PostCode": "00925",
"LatLong": "18.4663,-66.1057"
},
{
"Name": "San Juan",
"PostCode": "00926",
"LatLong": "18.4663,-66.1057"
},
{
"Name": "San Juan",
"PostCode": "00927",
"LatLong": "18.4663,-66.1057"
},
{
"Name": "San Juan",
"PostCode": "00928",
"LatLong": "18.4663,-66.1057"
},
{
"Name": "San Juan",
"PostCode": "00929",
"LatLong": "18.4663,-66.1057"
},
{
"Name": "San Juan",
"PostCode": "00930",
"LatLong": "18.4663,-66.1057"
},
{
"Name": "San Juan",
"PostCode": "00931",
"LatLong": "18.4663,-66.1057"
},
{
"Name": "San Juan",
"PostCode": "00933",
"LatLong": "18.4663,-66.1057"
},
{
"Name": "San Juan",
"PostCode": "00935",
"LatLong": "18.4663,-66.1057"
},
{
"Name": "San Juan",
"PostCode": "00936",
"LatLong": "18.4663,-66.1057"
},
{
"Name": "San Juan",
"PostCode": "00937",
"LatLong": "18.4663,-66.1057"
},
{
"Name": "San Juan",
"PostCode": "00938",
"LatLong": "18.4663,-66.1057"
},
{
"Name": "San Juan",
"PostCode": "00939",
"LatLong": "18.4663,-66.1057"
},
{
"Name": "San Juan",
"PostCode": "00940",
"LatLong": "18.4663,-66.1057"
},
{
"Name": "San Juan",
"PostCode": "00955",
"LatLong": "18.4663,-66.1057"
},
{
"Name": "San Juan",
"PostCode": "00975",
"LatLong": "18.4663,-66.1057"
}
]
}
]
}
]
},
{
"Name": "San Lorenzo",
"Code": "129",
"Provinces": [
{
"Communities": [
{
"Places": [
{
"Name": "San Lorenzo",
"PostCode": "00754",
"LatLong": "18.1894,-65.961"
}
]
}
]
}
]
},
{
"Name": "San Sebastian",
"Code": "131",
"Provinces": [
{
"Communities": [
{
"Places": [
{
"Name": "San Sebastian",
"PostCode": "00685",
"LatLong": "18.3366,-66.9902"
}
]
}
]
}
]
},
{
"Name": "Santa Isabel",
"Code": "133",
"Provinces": [
{
"Communities": [
{
"Places": [
{
"Name": "Santa Isabel",
"PostCode": "00757",
"LatLong": "17.9661,-66.4049"
}
]
}
]
}
]
},
{
"Name": "Toa Alta",
"Code": "135",
"Provinces": [
{
"Communities": [
{
"Places": [
{
"Name": "Toa Alta",
"PostCode": "00953",
"LatLong": "18.3883,-66.2482"
},
{
"Name": "Toa Alta",
"PostCode": "00954",
"LatLong": "18.3883,-66.2482"
}
]
}
]
}
]
},
{
"Name": "Toa Baja",
"Code": "137",
"Provinces": [
{
"Communities": [
{
"Places": [
{
"Name": "Sabana Seca",
"PostCode": "00952",
"LatLong": "18.4269,-66.1846"
},
{
"Name": "Toa Baja",
"PostCode": "00949",
"LatLong": "18.4438,-66.2596"
},
{
"Name": "Toa Baja",
"PostCode": "00950",
"LatLong": "18.4438,-66.2596"
},
{
"Name": "Toa Baja",
"PostCode": "00951",
"LatLong": "18.4438,-66.2596"
}
]
}
]
}
]
},
{
"Name": "Trujillo Alto",
"Code": "139",
"Provinces": [
{
"Communities": [
{
"Places": [
{
"Name": "St Just",
"PostCode": "00978",
"LatLong": "18.3786,-66.05"
},
{
"Name": "Trujillo Alto",
"PostCode": "00976",
"LatLong": "18.3547,-66.0074"
},
{
"Name": "Trujillo Alto",
"PostCode": "00977",
"LatLong": "18.3547,-66.0074"
}
]
}
]
}
]
},
{
"Name": "Utuado",
"Code": "141",
"Provinces": [
{
"Communities": [
{
"Places": [
{
"Name": "Angeles",
"PostCode": "00611",
"LatLong": "18.285,-66.7993"
},
{
"Name": "Utuado",
"PostCode": "00641",
"LatLong": "18.2655,-66.7005"
}
]
}
]
}
]
},
{
"Name": "Vega Alta",
"Code": "143",
"Provinces": [
{
"Communities": [
{
"Places": [
{
"Name": "Vega Alta",
"PostCode": "00692",
"LatLong": "18.4122,-66.3313"
}
]
}
]
}
]
},
{
"Name": "Vega Baja",
"Code": "145",
"Provinces": [
{
"Communities": [
{
"Places": [
{
"Name": "Vega Baja",
"PostCode": "00693",
"LatLong": "18.4444,-66.3877"
},
{
"Name": "Vega Baja",
"PostCode": "00694",
"LatLong": "18.4444,-66.3877"
}
]
}
]
}
]
},
{
"Name": "Vieques",
"Code": "147",
"Provinces": [
{
"Communities": [
{
"Places": [
{
"Name": "Vieques",
"PostCode": "00765",
"LatLong": "18.0859,-66.2431"
}
]
}
]
}
]
},
{
"Name": "Villalba",
"Code": "149",
"Provinces": [
{
"Communities": [
{
"Places": [
{
"Name": "Villalba",
"PostCode": "00766",
"LatLong": "18.1272,-66.4921"
}
]
}
]
}
]
},
{
"Name": "Yabucoa",
"Code": "151",
"Provinces": [
{
"Communities": [
{
"Places": [
{
"Name": "Yabucoa",
"PostCode": "00767",
"LatLong": "18.0505,-65.8793"
}
]
}
]
}
]
},
{
"Name": "Yauco",
"Code": "153",
"Provinces": [
{
"Communities": [
{
"Places": [
{
"Name": "Yauco",
"PostCode": "00698",
"LatLong": "18.035,-66.8499"
}
]
}
]
}
]
}
]