{
"Structure": "State/Province/Community/Place",
"States": [
{
"Name": "Reunion (general)",
"Code": "00",
"Provinces": [
{
"Communities": [
{
"Places": [
{
"Name": "Sainte-Clotilde",
"PostCode": "97491 CEDEX",
"LatLong": "-20.8916,55.4787"
},
{
"Name": "Sainte-Clotilde",
"PostCode": "97492 CEDEX",
"LatLong": "-20.8916,55.4787"
},
{
"Name": "Sainte-Clotilde",
"PostCode": "97493 CEDEX",
"LatLong": "-20.8916,55.4787"
},
{
"Name": "Sainte-Clotilde",
"PostCode": "97494 CEDEX",
"LatLong": "-20.8916,55.4787"
},
{
"Name": "Sainte-Clotilde",
"PostCode": "97495 CEDEX",
"LatLong": "-20.8916,55.4787"
},
{
"Name": "Sainte-Clotilde",
"PostCode": "97496 CEDEX",
"LatLong": "-20.8916,55.4787"
},
{
"Name": "Sainte-Clotilde",
"PostCode": "97497 CEDEX",
"LatLong": "-20.8916,55.4787"
}
]
}
]
}
]
},
{
"Name": "Réunion",
"Code": "RE",
"Provinces": [
{
"Name": "Réunion",
"Code": "974",
"Communities": [
{
"Name": "Arrondissement de Saint-Denis",
"Code": "9741",
"Places": [
{
"Name": "Saint-Denis",
"PostCode": "97400",
"LatLong": "-20.8823,55.4504"
},
{
"Name": "Saint-Denis",
"PostCode": "97401 CEDEX",
"LatLong": "-20.8823,55.4504"
},
{
"Name": "Saint-Denis",
"PostCode": "97402 CEDEX",
"LatLong": "-20.8823,55.4504"
},
{
"Name": "Saint-Denis",
"PostCode": "97403 CEDEX",
"LatLong": "-20.8823,55.4504"
},
{
"Name": "Saint-Denis",
"PostCode": "97404 CEDEX",
"LatLong": "-20.8823,55.4504"
},
{
"Name": "Saint-Denis",
"PostCode": "97405 CEDEX",
"LatLong": "-20.8823,55.4504"
},
{
"Name": "Saint-Denis",
"PostCode": "97406 CEDEX 9",
"LatLong": "-20.8823,55.4504"
},
{
"Name": "Saint-Denis",
"PostCode": "97408 CEDEX 9",
"LatLong": "-20.8823,55.4504"
},
{
"Name": "Saint-Denis",
"PostCode": "97409 CEDEX 9",
"LatLong": "-20.8823,55.4504"
},
{
"Name": "Saint-Denis",
"PostCode": "97417",
"LatLong": "-20.8823,55.4504"
},
{
"Name": "Sainte-Marie",
"PostCode": "97438",
"LatLong": "-20.8968,55.5496"
},
{
"Name": "Sainte-Suzanne",
"PostCode": "97441",
"LatLong": "-20.9061,55.6089"
},
{
"Name": "Saint-Denis",
"PostCode": "97461 CEDEX",
"LatLong": "-20.8823,55.4504"
},
{
"Name": "Saint-Denis",
"PostCode": "97462 CEDEX",
"LatLong": "-20.8823,55.4504"
},
{
"Name": "Saint-Denis",
"PostCode": "97463 CEDEX",
"LatLong": "-20.8823,55.4504"
},
{
"Name": "Saint-Denis",
"PostCode": "97464 CEDEX",
"LatLong": "-20.8823,55.4504"
},
{
"Name": "Saint-Denis",
"PostCode": "97465 CEDEX",
"LatLong": "-20.8823,55.4504"
},
{
"Name": "Saint-Denis",
"PostCode": "97466 CEDEX",
"LatLong": "-20.8823,55.4504"
},
{
"Name": "Saint-Denis",
"PostCode": "97467 CEDEX",
"LatLong": "-20.8823,55.4504"
},
{
"Name": "Saint-Denis",
"PostCode": "97468 CEDEX",
"LatLong": "-20.8823,55.4504"
},
{
"Name": "Saint-Denis",
"PostCode": "97469 CEDEX",
"LatLong": "-20.8823,55.4504"
},
{
"Name": "Saint-Denis",
"PostCode": "97471 CEDEX",
"LatLong": "-20.8823,55.4504"
},
{
"Name": "Saint-Denis",
"PostCode": "97472 CEDEX",
"LatLong": "-20.8823,55.4504"
},
{
"Name": "Saint-Denis",
"PostCode": "97473 CEDEX",
"LatLong": "-20.8823,55.4504"
},
{
"Name": "Saint-Denis",
"PostCode": "97474 CEDEX",
"LatLong": "-20.8823,55.4504"
},
{
"Name": "Saint-Denis",
"PostCode": "97475 CEDEX",
"LatLong": "-20.8823,55.4504"
},
{
"Name": "Saint-Denis",
"PostCode": "97476 CEDEX",
"LatLong": "-20.8823,55.4504"
},
{
"Name": "Saint-Denis",
"PostCode": "97477 CEDEX",
"LatLong": "-20.8823,55.4504"
},
{
"Name": "Saint-Denis",
"PostCode": "97478 CEDEX",
"LatLong": "-20.8823,55.4504"
},
{
"Name": "Saint-Denis",
"PostCode": "97479 CEDEX",
"LatLong": "-20.8823,55.4504"
},
{
"Name": "Saint-Denis",
"PostCode": "97481 CEDEX",
"LatLong": "-20.8823,55.4504"
},
{
"Name": "Saint-Denis",
"PostCode": "97482 CEDEX",
"LatLong": "-20.8823,55.4504"
},
{
"Name": "Saint-Denis",
"PostCode": "97483 CEDEX",
"LatLong": "-20.8823,55.4504"
},
{
"Name": "Saint-Denis",
"PostCode": "97484 CEDEX",
"LatLong": "-20.8823,55.4504"
},
{
"Name": "Saint-Denis",
"PostCode": "97485 CEDEX",
"LatLong": "-20.8823,55.4504"
},
{
"Name": "Saint-Denis",
"PostCode": "97486 CEDEX",
"LatLong": "-20.8823,55.4504"
},
{
"Name": "Saint-Denis",
"PostCode": "97487 CEDEX",
"LatLong": "-20.8823,55.4504"
},
{
"Name": "Saint-Denis",
"PostCode": "97488 CEDEX",
"LatLong": "-20.8823,55.4504"
},
{
"Name": "Saint-Denis",
"PostCode": "97489 CEDEX",
"LatLong": "-20.8823,55.4504"
},
{
"Name": "Saint-Denis",
"PostCode": "97490",
"LatLong": "-20.8823,55.4504"
},
{
"Name": "Saint-Denis",
"PostCode": "97499 CEDEX 9",
"LatLong": "-20.8823,55.4504"
},
{
"Name": "Saint-Denis",
"PostCode": "97701 CEDEX 9",
"LatLong": "-20.8823,55.4504"
},
{
"Name": "Saint-Denis",
"PostCode": "97702 CEDEX 9",
"LatLong": "-20.8823,55.4504"
},
{
"Name": "Saint-Denis",
"PostCode": "97703 CEDEX 9",
"LatLong": "-20.8823,55.4504"
},
{
"Name": "Saint-Denis",
"PostCode": "97704 CEDEX 9",
"LatLong": "-20.8823,55.4504"
},
{
"Name": "Saint-Denis",
"PostCode": "97705 CEDEX 9",
"LatLong": "-20.8823,55.4504"
},
{
"Name": "Saint-Denis",
"PostCode": "97706 CEDEX 9",
"LatLong": "-20.8823,55.4504"
},
{
"Name": "Saint-Denis",
"PostCode": "97707 CEDEX 9",
"LatLong": "-20.8823,55.4504"
},
{
"Name": "Saint-Denis",
"PostCode": "97708 CEDEX 9",
"LatLong": "-20.8823,55.4504"
},
{
"Name": "Saint-Denis",
"PostCode": "97709 CEDEX 9",
"LatLong": "-20.8823,55.4504"
},
{
"Name": "Saint-Denis",
"PostCode": "97711 CEDEX 9",
"LatLong": "-20.8823,55.4504"
},
{
"Name": "Saint-Denis",
"PostCode": "97712 CEDEX 9",
"LatLong": "-20.8823,55.4504"
},
{
"Name": "Saint-Denis",
"PostCode": "97713 CEDEX 9",
"LatLong": "-20.8823,55.4504"
},
{
"Name": "Saint-Denis",
"PostCode": "97714 CEDEX 9",
"LatLong": "-20.8823,55.4504"
},
{
"Name": "Saint-Denis",
"PostCode": "97715 CEDEX 9",
"LatLong": "-20.8823,55.4504"
},
{
"Name": "Saint-Denis",
"PostCode": "97716 CEDEX 9",
"LatLong": "-20.8823,55.4504"
},
{
"Name": "Saint-Denis",
"PostCode": "97717 CEDEX 9",
"LatLong": "-20.8823,55.4504"
},
{
"Name": "Saint-Denis",
"PostCode": "97718 CEDEX 9",
"LatLong": "-20.8823,55.4504"
},
{
"Name": "Saint-Denis",
"PostCode": "97719 CEDEX 9",
"LatLong": "-20.8823,55.4504"
},
{
"Name": "Saint-Denis",
"PostCode": "97743 CEDEX 9",
"LatLong": "-20.8823,55.4504"
},
{
"Name": "Saint-Denis",
"PostCode": "97801 CEDEX 9",
"LatLong": "-20.8823,55.4504"
},
{
"Name": "Saint-Denis",
"PostCode": "97802 CEDEX 9",
"LatLong": "-20.8823,55.4504"
},
{
"Name": "Saint-Denis",
"PostCode": "97803 CEDEX 9",
"LatLong": "-20.8823,55.4504"
},
{
"Name": "Saint-Denis",
"PostCode": "97804 CEDEX 9",
"LatLong": "-20.8823,55.4504"
},
{
"Name": "Saint-Denis",
"PostCode": "97805 CEDEX 9",
"LatLong": "-20.8823,55.4504"
},
{
"Name": "Saint-Denis",
"PostCode": "97806 CEDEX 9",
"LatLong": "-20.8823,55.4504"
}
]
},
{
"Name": "Arrondissement de Saint-Pierre",
"Code": "9742",
"Places": [
{
"Name": "Saint-Pierre",
"PostCode": "97410",
"LatLong": "-21.3393,55.4781"
},
{
"Name": "Cilaos",
"PostCode": "97413",
"LatLong": "-21.1336,55.4719"
},
{
"Name": "L'Entre-Deux",
"PostCode": "97414",
"LatLong": "-21.2333,55.4667"
},
{
"Name": "Le Tampon",
"PostCode": "97418",
"LatLong": "-21.2831,55.518"
},
{
"Name": "La Rivière",
"PostCode": "97421",
"LatLong": "-21.2595,55.4405"
},
{
"Name": "Saint-Louis",
"PostCode": "97421",
"LatLong": "-21.2858,55.4112"
},
{
"Name": "Les Avirons",
"PostCode": "97425",
"LatLong": "-21.2418,55.3394"
},
{
"Name": "L'Étang-Salé",
"PostCode": "97427",
"LatLong": "-21.25,55.3833"
},
{
"Name": "Petite-Île",
"PostCode": "97429",
"LatLong": "-21.35,55.5667"
},
{
"Name": "Le Tampon",
"PostCode": "97430",
"LatLong": "-21.2831,55.518"
},
{
"Name": "Saint-Pierre",
"PostCode": "97432",
"LatLong": "-21.3393,55.4781"
},
{
"Name": "Saint-Philippe",
"PostCode": "97442",
"LatLong": "-21.3585,55.768"
},
{
"Name": "Saint-Pierre",
"PostCode": "97445 CEDEX",
"LatLong": "-21.3393,55.4781"
},
{
"Name": "Saint-Pierre",
"PostCode": "97446 CEDEX",
"LatLong": "-21.3393,55.4781"
},
{
"Name": "Saint-Pierre",
"PostCode": "97447 CEDEX",
"LatLong": "-21.3393,55.4781"
},
{
"Name": "Saint-Pierre",
"PostCode": "97448 CEDEX",
"LatLong": "-21.3393,55.4781"
},
{
"Name": "Saint-Pierre",
"PostCode": "97449 CEDEX",
"LatLong": "-21.3393,55.4781"
},
{
"Name": "Saint-Louis",
"PostCode": "97450",
"LatLong": "-21.2858,55.4112"
},
{
"Name": "Saint-Pierre",
"PostCode": "97451 CEDEX",
"LatLong": "-21.3393,55.4781"
},
{
"Name": "Saint-Pierre",
"PostCode": "97452 CEDEX",
"LatLong": "-21.3393,55.4781"
},
{
"Name": "Saint-Pierre",
"PostCode": "97453 CEDEX",
"LatLong": "-21.3393,55.4781"
},
{
"Name": "Saint-Pierre",
"PostCode": "97454 CEDEX",
"LatLong": "-21.3393,55.4781"
},
{
"Name": "Saint-Pierre",
"PostCode": "97455 CEDEX",
"LatLong": "-21.3393,55.4781"
},
{
"Name": "Saint-Pierre",
"PostCode": "97456 CEDEX",
"LatLong": "-21.3393,55.4781"
},
{
"Name": "Saint-Pierre",
"PostCode": "97457 CEDEX",
"LatLong": "-21.3393,55.4781"
},
{
"Name": "Saint-Pierre",
"PostCode": "97458 CEDEX",
"LatLong": "-21.3393,55.4781"
},
{
"Name": "Saint-Pierre",
"PostCode": "97459 CEDEX",
"LatLong": "-21.3393,55.4781"
},
{
"Name": "Saint-Joseph",
"PostCode": "97480",
"LatLong": "-21.3784,55.6192"
},
{
"Name": "Saint-Pierre",
"PostCode": "97751 CEDEX",
"LatLong": "-21.3393,55.4781"
},
{
"Name": "Le Tampon",
"PostCode": "97831 CEDEX",
"LatLong": "-21.2831,55.518"
},
{
"Name": "Le Tampon",
"PostCode": "97832 CEDEX",
"LatLong": "-21.2831,55.518"
},
{
"Name": "Le Tampon",
"PostCode": "97833 CEDEX",
"LatLong": "-21.2831,55.518"
},
{
"Name": "Le Tampon",
"PostCode": "97834 CEDEX",
"LatLong": "-21.2831,55.518"
},
{
"Name": "Le Tampon",
"PostCode": "97835 CEDEX",
"LatLong": "-21.2831,55.518"
},
{
"Name": "Le Tampon",
"PostCode": "97836 CEDEX",
"LatLong": "-21.2831,55.518"
},
{
"Name": "Le Tampon",
"PostCode": "97837 CEDEX",
"LatLong": "-21.2831,55.518"
},
{
"Name": "Le Tampon",
"PostCode": "97838 CEDEX",
"LatLong": "-21.2831,55.518"
},
{
"Name": "Le Tampon",
"PostCode": "97839 CEDEX",
"LatLong": "-21.2831,55.518"
},
{
"Name": "Saint-Pierre",
"PostCode": "97851 CEDEX",
"LatLong": "-21.3393,55.4781"
},
{
"Name": "Saint-Pierre",
"PostCode": "97852 CEDEX",
"LatLong": "-21.3393,55.4781"
},
{
"Name": "Saint-Pierre",
"PostCode": "97853 CEDEX",
"LatLong": "-21.3393,55.4781"
},
{
"Name": "Saint-Louis",
"PostCode": "97872 CEDEX",
"LatLong": "-21.2858,55.4112"
},
{
"Name": "Saint-Louis",
"PostCode": "97899 CEDEX",
"LatLong": "-21.2858,55.4112"
}
]
},
{
"Name": "Arrondissement de Saint-Paul",
"Code": "9744",
"Places": [
{
"Name": "Saint-Paul",
"PostCode": "97411",
"LatLong": "-21.0096,55.2707"
},
{
"Name": "Saint-Leu",
"PostCode": "97416",
"LatLong": "-21.1706,55.2882"
},
{
"Name": "La Possession",
"PostCode": "97419",
"LatLong": "-20.9289,55.3351"
},
{
"Name": "Le Port",
"PostCode": "97420",
"LatLong": "-20.9373,55.2919"
},
{
"Name": "Saint-Paul",
"PostCode": "97422",
"LatLong": "-21.0096,55.2707"
},
{
"Name": "Saint-Paul",
"PostCode": "97423",
"LatLong": "-21.0096,55.2707"
},
{
"Name": "Saint-Leu",
"PostCode": "97424",
"LatLong": "-21.1706,55.2882"
},
{
"Name": "Trois-Bassins",
"PostCode": "97426",
"LatLong": "-21.1,55.3"
},
{
"Name": "Saint-Paul",
"PostCode": "97434",
"LatLong": "-21.0096,55.2707"
},
{
"Name": "Saint-Paul",
"PostCode": "97435",
"LatLong": "-21.0096,55.2707"
},
{
"Name": "Saint-Leu",
"PostCode": "97436",
"LatLong": "-21.1706,55.2882"
},
{
"Name": "Saint-Paul",
"PostCode": "97460",
"LatLong": "-21.0096,55.2707"
},
{
"Name": "Le Port",
"PostCode": "97821 CEDEX",
"LatLong": "-20.9373,55.2919"
},
{
"Name": "Le Port",
"PostCode": "97822 CEDEX",
"LatLong": "-20.9373,55.2919"
},
{
"Name": "Le Port",
"PostCode": "97823 CEDEX",
"LatLong": "-20.9373,55.2919"
},
{
"Name": "Le Port",
"PostCode": "97824 CEDEX",
"LatLong": "-20.9373,55.2919"
},
{
"Name": "Le Port",
"PostCode": "97825 CEDEX",
"LatLong": "-20.9373,55.2919"
},
{
"Name": "Le Port",
"PostCode": "97826 CEDEX",
"LatLong": "-20.9373,55.2919"
},
{
"Name": "Le Port",
"PostCode": "97827 CEDEX",
"LatLong": "-20.9373,55.2919"
},
{
"Name": "Le Port",
"PostCode": "97828 CEDEX",
"LatLong": "-20.9373,55.2919"
},
{
"Name": "Le Port",
"PostCode": "97829 CEDEX",
"LatLong": "-20.9373,55.2919"
},
{
"Name": "Saint-Paul",
"PostCode": "97861 CEDEX",
"LatLong": "-21.0096,55.2707"
},
{
"Name": "Saint-Paul",
"PostCode": "97862 CEDEX",
"LatLong": "-21.0096,55.2707"
},
{
"Name": "Saint-Paul",
"PostCode": "97863 CEDEX",
"LatLong": "-21.0096,55.2707"
},
{
"Name": "Saint-Paul",
"PostCode": "97864 CEDEX",
"LatLong": "-21.0096,55.2707"
},
{
"Name": "Saint-Paul",
"PostCode": "97865 CEDEX",
"LatLong": "-21.0096,55.2707"
},
{
"Name": "Saint-Paul",
"PostCode": "97866 CEDEX",
"LatLong": "-21.0096,55.2707"
},
{
"Name": "Saint-Paul",
"PostCode": "97867 CEDEX",
"LatLong": "-21.0096,55.2707"
},
{
"Name": "Saint-Paul",
"PostCode": "97868 CEDEX",
"LatLong": "-21.0096,55.2707"
}
]
},
{
"Name": "Arrondissement de Saint-Benoît",
"Code": "9743",
"Places": [
{
"Name": "Bras-Panon",
"PostCode": "97412",
"LatLong": "-20.9967,55.6782"
},
{
"Name": "La Plaine-des-Palmistes",
"PostCode": "97431",
"LatLong": "-21.1167,55.6333"
},
{
"Name": "Salazie",
"PostCode": "97433",
"LatLong": "-21.0273,55.539"
},
{
"Name": "Saint-Benoît",
"PostCode": "97437",
"LatLong": "-21.038,55.7194"
},
{
"Name": "Sainte-Rose",
"PostCode": "97439",
"LatLong": "-21.1298,55.7963"
},
{
"Name": "Saint-André",
"PostCode": "97440",
"LatLong": "-20.9633,55.6503"
},
{
"Name": "Saint-Benoît",
"PostCode": "97470",
"LatLong": "-21.038,55.7194"
}
]
}
]
}
]
}
]
}