[
{
"Name": "Artigas",
"Code": "01",
"Provinces": [
{
"Communities": [
{
"Places": [
{
"Name": "Limite Contestado",
"PostCode": "40200",
"LatLong": "-31.0812,-56.0045"
},
{
"Name": "Sarandi De Yacuy",
"PostCode": "50200",
"LatLong": "-30.741,-57.6296"
},
{
"Name": "Pintado",
"PostCode": "55000",
"LatLong": "-30.5878,-56.7362"
},
{
"Name": "La Bolsa",
"PostCode": "55000",
"LatLong": "-30.8509,-56.3398"
},
{
"Name": "Paso De Ramos",
"PostCode": "55000",
"LatLong": "-30.5878,-56.7362"
},
{
"Name": "Javier De Viana",
"PostCode": "55000",
"LatLong": "-30.4331,-56.7849"
},
{
"Name": "Piedra Pintada",
"PostCode": "55000",
"LatLong": "-30.5242,-56.3527"
},
{
"Name": "Tamandua",
"PostCode": "55000",
"LatLong": "-30.4643,-56.507"
},
{
"Name": "Cerrito",
"PostCode": "55000",
"LatLong": "-30.5878,-56.7362"
},
{
"Name": "Palma Sola",
"PostCode": "55000",
"LatLong": "-30.6833,-57.5167"
},
{
"Name": "Catalan Volcan",
"PostCode": "55000",
"LatLong": "-30.5878,-56.7362"
},
{
"Name": "Diego Lamas",
"PostCode": "55000",
"LatLong": "-30.7499,-57.0569"
},
{
"Name": "Estiba",
"PostCode": "55000",
"LatLong": "-30.5878,-56.7362"
},
{
"Name": "Sarandi De Cuaro",
"PostCode": "55000",
"LatLong": "-30.8742,-56.6598"
},
{
"Name": "Meneses",
"PostCode": "55000",
"LatLong": "-30.5878,-56.7362"
},
{
"Name": "Colonia Pintado",
"PostCode": "55000",
"LatLong": "-30.5242,-56.3527"
},
{
"Name": "Guyubira",
"PostCode": "55000",
"LatLong": "-30.5878,-56.7362"
},
{
"Name": "Rincon De Pacheco",
"PostCode": "55000",
"LatLong": "-30.7054,-56.1626"
},
{
"Name": "Paguero",
"PostCode": "55000",
"LatLong": "-30.6374,-56.7686"
},
{
"Name": "Paso Farias",
"PostCode": "55000",
"LatLong": "-30.5878,-56.7362"
},
{
"Name": "Topador",
"PostCode": "55000",
"LatLong": "-30.2946,-56.8218"
},
{
"Name": "Fagundez",
"PostCode": "55000",
"LatLong": "-30.6989,-56.5847"
},
{
"Name": "Zanja Aruera",
"PostCode": "55000",
"LatLong": "-30.5878,-56.7362"
},
{
"Name": "Cuaro",
"PostCode": "55000",
"LatLong": "-30.6097,-56.9077"
},
{
"Name": "Patitas",
"PostCode": "55000",
"LatLong": "-30.9074,-57.1896"
},
{
"Name": "Cerro San Eugenio",
"PostCode": "55000",
"LatLong": "-30.5878,-56.7362"
},
{
"Name": "Bernabe Rivera",
"PostCode": "55000",
"LatLong": "-30.2979,-56.9709"
},
{
"Name": "Sequeira",
"PostCode": "55000",
"LatLong": "-30.9892,-56.8704"
},
{
"Name": "Colonia Jose Artigas",
"PostCode": "55000",
"LatLong": "-30.5878,-56.7362"
},
{
"Name": "Baltasar Brum",
"PostCode": "55000",
"LatLong": "-30.719,-57.326"
},
{
"Name": "Artigas",
"PostCode": "55000",
"LatLong": "-30.4,-56.4667"
},
{
"Name": "Chiflero",
"PostCode": "55000",
"LatLong": "-30.5878,-56.7362"
},
{
"Name": "Pintadito",
"PostCode": "55000",
"LatLong": "-30.4322,-56.4568"
},
{
"Name": "Catalan Grande",
"PostCode": "55000",
"LatLong": "-30.5878,-56.7362"
},
{
"Name": "Taruman",
"PostCode": "55000",
"LatLong": "-30.4736,-56.6677"
},
{
"Name": "Cerro Signorelli",
"PostCode": "55000",
"LatLong": "-30.5878,-56.7362"
},
{
"Name": "Paso Campamento",
"PostCode": "55000",
"LatLong": "-30.789,-56.7818"
},
{
"Name": "Cerro Ejido",
"PostCode": "55000",
"LatLong": "-30.4269,-56.4656"
},
{
"Name": "Paso De Leon",
"PostCode": "55000",
"LatLong": "-30.127,-57.0882"
},
{
"Name": "Camaño",
"PostCode": "55000",
"LatLong": "-30.5667,-56.8833"
},
{
"Name": "Pintado Grande",
"PostCode": "55000",
"LatLong": "-30.5158,-56.423"
},
{
"Name": "Port. De Hierro Y Campodonico",
"PostCode": "55100",
"LatLong": "-30.3774,-57.6178"
},
{
"Name": "Cuareim",
"PostCode": "55100",
"LatLong": "-30.2252,-57.568"
},
{
"Name": "Colonia Estrella",
"PostCode": "55100",
"LatLong": "-30.3774,-57.6178"
},
{
"Name": "Colonia Palma",
"PostCode": "55100",
"LatLong": "-30.5842,-57.678"
},
{
"Name": "Cainza Campo 3",
"PostCode": "55100",
"LatLong": "-30.3774,-57.6178"
},
{
"Name": "Colonia Viñar",
"PostCode": "55100",
"LatLong": "-30.4675,-57.6156"
},
{
"Name": "Lenguazo",
"PostCode": "55100",
"LatLong": "-30.3774,-57.6178"
},
{
"Name": "Las Piedras",
"PostCode": "55100",
"LatLong": "-30.262,-57.5817"
},
{
"Name": "Calnu",
"PostCode": "55100",
"LatLong": "-30.3774,-57.6178"
},
{
"Name": "Mones Quintela",
"PostCode": "55100",
"LatLong": "-30.3737,-57.6638"
},
{
"Name": "Paso De La Cruz",
"PostCode": "55100",
"LatLong": "-30.3774,-57.6178"
},
{
"Name": "Tomas Gomensoro",
"PostCode": "55100",
"LatLong": "-30.4287,-57.4361"
},
{
"Name": "Bella Union",
"PostCode": "55100",
"LatLong": "-30.2597,-57.5992"
},
{
"Name": "Colonia España",
"PostCode": "55100",
"LatLong": "-30.3645,-57.6427"
},
{
"Name": "Coronado",
"PostCode": "55100",
"LatLong": "-30.2979,-57.6112"
},
{
"Name": "Paredon",
"PostCode": "55100",
"LatLong": "-30.6648,-57.7889"
},
{
"Name": "Cainsa",
"PostCode": "55100",
"LatLong": "-30.387,-57.6151"
},
{
"Name": "Franquia",
"PostCode": "55100",
"LatLong": "-30.214,-57.6131"
}
]
}
]
}
]
},
{
"Name": "Canelones",
"Code": "02",
"Provinces": [
{
"Communities": [
{
"Places": [
{
"Name": "Colonia Nicolich",
"PostCode": "15000",
"LatLong": "-34.8152,-56.0244"
},
{
"Name": "Lagomar",
"PostCode": "15000",
"LatLong": "-34.8377,-55.9832"
},
{
"Name": "Shangrila",
"PostCode": "15000",
"LatLong": "-34.8464,-55.9981"
},
{
"Name": "Parque Carrasco",
"PostCode": "15000",
"LatLong": "-34.8581,-56.0092"
},
{
"Name": "Barrio Obrero",
"PostCode": "15000",
"LatLong": "-34.8475,-56.01"
},
{
"Name": "Barra De Carrasco",
"PostCode": "15000",
"LatLong": "-34.8772,-56.0297"
},
{
"Name": "Empalme Nicolich",
"PostCode": "15000",
"LatLong": "-34.8475,-56.01"
},
{
"Name": "El Bosque",
"PostCode": "15000",
"LatLong": "-34.8378,-55.9731"
},
{
"Name": "Lago Jardin Del Bosque",
"PostCode": "15000",
"LatLong": "-34.8475,-56.01"
},
{
"Name": "Paso Carrasco",
"PostCode": "15000",
"LatLong": "-34.8603,-56.0522"
},
{
"Name": "Santa Teresita",
"PostCode": "15000",
"LatLong": "-34.8475,-56.01"
},
{
"Name": "Aeropuerto Internacional De Carrasco",
"PostCode": "15000",
"LatLong": "-34.8475,-56.01"
},
{
"Name": "Parque Miramar",
"PostCode": "15000",
"LatLong": "-34.8475,-56.01"
},
{
"Name": "San Jose De Carrasco",
"PostCode": "15000",
"LatLong": "-34.8475,-56.01"
},
{
"Name": "Pinamar",
"PostCode": "15100",
"LatLong": "-34.7869,-55.8588"
},
{
"Name": "Marindia",
"PostCode": "15100",
"LatLong": "-34.7743,-55.8241"
},
{
"Name": "Salinas",
"PostCode": "15100",
"LatLong": "-34.7773,-55.8395"
},
{
"Name": "Neptunia",
"PostCode": "15100",
"LatLong": "-34.7884,-55.88"
},
{
"Name": "Pine Park",
"PostCode": "15100",
"LatLong": "-34.7796,-55.8421"
},
{
"Name": "Fortin De Santa Rosa",
"PostCode": "15100",
"LatLong": "-34.7708,-55.8081"
},
{
"Name": "Pinamar Y Pinepark",
"PostCode": "15100",
"LatLong": "-34.7796,-55.8421"
},
{
"Name": "Rincon De Pando",
"PostCode": "15100",
"LatLong": "-34.7796,-55.8421"
},
{
"Name": "Villa Juana",
"PostCode": "15100",
"LatLong": "-34.7796,-55.8421"
},
{
"Name": "Estacion Atlantida",
"PostCode": "15200",
"LatLong": "-34.7448,-55.7642"
},
{
"Name": "Villa Argentina",
"PostCode": "15200",
"LatLong": "-34.7682,-55.7757"
},
{
"Name": "Las Toscas",
"PostCode": "15200",
"LatLong": "-34.7646,-55.7379"
},
{
"Name": "City Golf",
"PostCode": "15200",
"LatLong": "-34.7624,-55.759"
},
{
"Name": "Atlantida",
"PostCode": "15200",
"LatLong": "-34.7719,-55.7584"
},
{
"Name": "La Chinchilla",
"PostCode": "15200",
"LatLong": "-34.7624,-55.759"
},
{
"Name": "Estacion La Floresta",
"PostCode": "15300",
"LatLong": "-34.7347,-55.6856"
},
{
"Name": "Parque Del Plata",
"PostCode": "15300",
"LatLong": "-34.7587,-55.7208"
},
{
"Name": "Costa Azul",
"PostCode": "15300",
"LatLong": "-34.7618,-55.6585"
},
{
"Name": "La Floresta",
"PostCode": "15300",
"LatLong": "-34.7557,-55.6814"
},
{
"Name": "Bello Horizonte",
"PostCode": "15300",
"LatLong": "-34.771,-55.6407"
},
{
"Name": "Las Vegas",
"PostCode": "15300",
"LatLong": "-34.6626,-55.8298"
},
{
"Name": "Guazuvira Nuevo",
"PostCode": "15300",
"LatLong": "-34.7407,-55.7028"
},
{
"Name": "Guazuvira",
"PostCode": "15300",
"LatLong": "-34.7407,-55.7028"
},
{
"Name": "Capilla De Cella",
"PostCode": "15400",
"LatLong": "-34.6989,-55.5189"
},
{
"Name": "Los Titanes",
"PostCode": "15400",
"LatLong": "-34.7768,-55.5756"
},
{
"Name": "Argentino",
"PostCode": "15400",
"LatLong": "-34.7927,-55.4544"
},
{
"Name": "Jaureguiberry",
"PostCode": "15400",
"LatLong": "-34.7862,-55.4247"
},
{
"Name": "Santa Ana",
"PostCode": "15400",
"LatLong": "-34.7953,-55.4831"
},
{
"Name": "Cuchilla Alta",
"PostCode": "15400",
"LatLong": "-34.791,-55.4992"
},
{
"Name": "Piedras De Afilar",
"PostCode": "15400",
"LatLong": "-34.7419,-55.5189"
},
{
"Name": "Biarritz",
"PostCode": "15400",
"LatLong": "-34.7919,-55.5139"
},
{
"Name": "La Tuna",
"PostCode": "15400",
"LatLong": "-34.7802,-55.5648"
},
{
"Name": "Estacion Piedras De Afilar",
"PostCode": "15400",
"LatLong": "-34.7739,-55.5164"
},
{
"Name": "B.H.U.",
"PostCode": "15400",
"LatLong": "-34.7739,-55.5164"
},
{
"Name": "Araminda",
"PostCode": "15400",
"LatLong": "-34.7739,-55.5164"
},
{
"Name": "San Luis",
"PostCode": "15400",
"LatLong": "-34.7686,-55.5907"
},
{
"Name": "Santa Lucia Del Este",
"PostCode": "15400",
"LatLong": "-34.7893,-55.5365"
},
{
"Name": "Cuchilla Alta Y El Galeon",
"PostCode": "15400",
"LatLong": "-34.7739,-55.5164"
},
{
"Name": "El Galeon",
"PostCode": "15400",
"LatLong": "-34.7739,-55.5164"
},
{
"Name": "Capitan Juan Antonio Artigas",
"PostCode": "15500",
"LatLong": "-34.7631,-56.0152"
},
{
"Name": "Joaquin Suarez",
"PostCode": "15500",
"LatLong": "-34.735,-56.0347"
},
{
"Name": "Cumbres De Carrasco",
"PostCode": "15500",
"LatLong": "-34.7631,-56.0152"
},
{
"Name": "Villa Aeroparque",
"PostCode": "15500",
"LatLong": "-34.7913,-55.9957"
},
{
"Name": "Colinas De Carrasco",
"PostCode": "15500",
"LatLong": "-34.7631,-56.0152"
},
{
"Name": "Rincon De Carrasco",
"PostCode": "15500",
"LatLong": "-34.7631,-56.0152"
},
{
"Name": "Villa El Tato",
"PostCode": "15500",
"LatLong": "-34.7631,-56.0152"
},
{
"Name": "Fracc Sobre Ruta 74",
"PostCode": "15500",
"LatLong": "-34.7631,-56.0152"
},
{
"Name": "Quinta Los Horneros",
"PostCode": "15500",
"LatLong": "-34.7631,-56.0152"
},
{
"Name": "La Palmita",
"PostCode": "15600",
"LatLong": "-34.6895,-55.8023"
},
{
"Name": "Las Ranas",
"PostCode": "15600",
"LatLong": "-34.6696,-55.9654"
},
{
"Name": "Jardines De Pando",
"PostCode": "15600",
"LatLong": "-34.6861,-55.9656"
},
{
"Name": "Sosa Diaz",
"PostCode": "15600",
"LatLong": "-34.6696,-55.9654"
},
{
"Name": "Dr. Francisco Soca",
"PostCode": "15600",
"LatLong": "-34.6843,-55.702"
},
{
"Name": "Piedritas De Suarez",
"PostCode": "15600",
"LatLong": "-34.6696,-55.9654"
},
{
"Name": "Puntas De Cañada Grande",
"PostCode": "15600",
"LatLong": "-34.4079,-56.7391"
},
{
"Name": "Cueva Del Tigre",
"PostCode": "15600",
"LatLong": "-34.6696,-55.9654"
},
{
"Name": "Estanque De Pando",
"PostCode": "15600",
"LatLong": "-34.7013,-55.9645"
},
{
"Name": "Cañada Grande",
"PostCode": "15600",
"LatLong": "-34.6696,-55.9654"
},
{
"Name": "La Montañesa",
"PostCode": "15600",
"LatLong": "-34.72,-55.8797"
},
{
"Name": "Pando",
"PostCode": "15600",
"LatLong": "-34.7172,-55.9584"
},
{
"Name": "Viejo Molino San Bernardo",
"PostCode": "15600",
"LatLong": "-34.6696,-55.9654"
},
{
"Name": "Piedra Del Toro",
"PostCode": "15600",
"LatLong": "-34.6947,-55.8571"
},
{
"Name": "Costa De Pando Olmos",
"PostCode": "15600",
"LatLong": "-34.6696,-55.9654"
},
{
"Name": "Olmos",
"PostCode": "15600",
"LatLong": "-34.6975,-55.8927"
},
{
"Name": "Empalme Olmos",
"PostCode": "15600",
"LatLong": "-34.6975,-55.8927"
},
{
"Name": "Villa San Jose",
"PostCode": "15700",
"LatLong": "-34.717,-56.0737"
},
{
"Name": "Barrio Artigas",
"PostCode": "15700",
"LatLong": "-31.3875,-57.8996"
},
{
"Name": "Toledo",
"PostCode": "15700",
"LatLong": "-34.7381,-56.0947"
},
{
"Name": "San Andres",
"PostCode": "15700",
"LatLong": "-33.6142,-56.6893"
},
{
"Name": "Villa San Felipe",
"PostCode": "15700",
"LatLong": "-33.6142,-56.6893"
},
{
"Name": "Villa Molfino",
"PostCode": "15700",
"LatLong": "-33.6142,-56.6893"
},
{
"Name": "Villa Valverde",
"PostCode": "15700",
"LatLong": "-33.6142,-56.6893"
},
{
"Name": "Barrio Pretti",
"PostCode": "15700",
"LatLong": "-33.6142,-56.6893"
},
{
"Name": "Villa Los Alpes",
"PostCode": "15700",
"LatLong": "-33.6142,-56.6893"
},
{
"Name": "Villa Prados De Toledo",
"PostCode": "15700",
"LatLong": "-33.6142,-56.6893"
},
{
"Name": "Villa Juanita",
"PostCode": "15700",
"LatLong": "-33.6142,-56.6893"
},
{
"Name": "Casarino",
"PostCode": "15700",
"LatLong": "-33.6142,-56.6893"
},
{
"Name": "Villa Fortuna",
"PostCode": "15700",
"LatLong": "-33.6142,-56.6893"
},
{
"Name": "Nataly",
"PostCode": "15700",
"LatLong": "-33.6142,-56.6893"
},
{
"Name": "Fracc. Cno. Andaluz Y R.84",
"PostCode": "15700",
"LatLong": "-33.6142,-56.6893"
},
{
"Name": "Barrio Benzo",
"PostCode": "15700",
"LatLong": "-33.6142,-56.6893"
},
{
"Name": "Lomas De Toledo",
"PostCode": "15700",
"LatLong": "-33.6142,-56.6893"
},
{
"Name": "Barrio Villa Murcia",
"PostCode": "15700",
"LatLong": "-33.6142,-56.6893"
},
{
"Name": "Los Hornos",
"PostCode": "15700",
"LatLong": "-33.6142,-56.6893"
},
{
"Name": "Villa Huertos De Toledo",
"PostCode": "15700",
"LatLong": "-33.6142,-56.6893"
},
{
"Name": "Villa Hadita",
"PostCode": "15700",
"LatLong": "-33.6142,-56.6893"
},
{
"Name": "Barrio Los Panoramas",
"PostCode": "15700",
"LatLong": "-33.6142,-56.6893"
},
{
"Name": "Seis Hermanos",
"PostCode": "15700",
"LatLong": "-33.6142,-56.6893"
},
{
"Name": "Villa Crespo",
"PostCode": "15700",
"LatLong": "-33.6142,-56.6893"
},
{
"Name": "Barrio Santa Rita",
"PostCode": "15700",
"LatLong": "-33.6142,-56.6893"
},
{
"Name": "Villa Marina",
"PostCode": "15700",
"LatLong": "-33.6142,-56.6893"
},
{
"Name": "Puntas De Toledo",
"PostCode": "15700",
"LatLong": "-33.6142,-56.6893"
},
{
"Name": "Barrio Traverso",
"PostCode": "15700",
"LatLong": "-33.6142,-56.6893"
},
{
"Name": "El Pinar",
"PostCode": "15800",
"LatLong": "-34.7948,-55.8895"
},
{
"Name": "Carmel",
"PostCode": "15800",
"LatLong": "-34.8093,-55.9299"
},
{
"Name": "Ciudad De La Costa",
"PostCode": "15800",
"LatLong": "-34.8197,-55.952"
},
{
"Name": "Montes De Solymar",
"PostCode": "15800",
"LatLong": "-34.8093,-55.9299"
},
{
"Name": "Solymar",
"PostCode": "15800",
"LatLong": "-34.8291,-55.9637"
},
{
"Name": "Colinas De Solymar",
"PostCode": "15800",
"LatLong": "-34.7937,-55.9144"
},
{
"Name": "La Asuncion",
"PostCode": "15800",
"LatLong": "-34.8093,-55.9299"
},
{
"Name": "Lomas De Solymar",
"PostCode": "15800",
"LatLong": "-34.8093,-55.9299"
},
{
"Name": "Altos De La Tahona",
"PostCode": "15800",
"LatLong": "-34.8093,-55.9299"
},
{
"Name": "Parque De Solymar",
"PostCode": "15800",
"LatLong": "-34.8093,-55.9299"
},
{
"Name": "Barrio San Cristobal",
"PostCode": "15800",
"LatLong": "-34.8093,-55.9299"
},
{
"Name": "Medanos De Solymar",
"PostCode": "15800",
"LatLong": "-34.8093,-55.9299"
},
{
"Name": "Pinares De Solymar",
"PostCode": "15800",
"LatLong": "-34.8093,-55.9299"
},
{
"Name": "El Bosque De Solymar",
"PostCode": "15800",
"LatLong": "-34.8093,-55.9299"
},
{
"Name": "Las Higueritas",
"PostCode": "15800",
"LatLong": "-34.8093,-55.9299"
},
{
"Name": "Haras Del Lago",
"PostCode": "15800",
"LatLong": "-34.8093,-55.9299"
},
{
"Name": "Lomas De Carrasco",
"PostCode": "15800",
"LatLong": "-34.8093,-55.9299"
},
{
"Name": "Quintas Del Bosque",
"PostCode": "15800",
"LatLong": "-34.8093,-55.9299"
},
{
"Name": "La Paz",
"PostCode": "15900",
"LatLong": "-34.7603,-56.2259"
},
{
"Name": "El Colorado",
"PostCode": "15900",
"LatLong": "-34.6893,-56.1804"
},
{
"Name": "Villa San Cono",
"PostCode": "15900",
"LatLong": "-34.7028,-55.8876"
},
{
"Name": "Colorado Chico",
"PostCode": "15900",
"LatLong": "-34.6893,-56.1804"
},
{
"Name": "Progreso",
"PostCode": "15900",
"LatLong": "-34.6674,-56.2176"
},
{
"Name": "Parada Cabrera",
"PostCode": "15900",
"LatLong": "-34.6238,-56.2545"
},
{
"Name": "Villa Foresti",
"PostCode": "15900",
"LatLong": "-34.6893,-56.1804"
},
{
"Name": "Las Piedras",
"PostCode": "15900",
"LatLong": "-34.7302,-56.2192"
},
{
"Name": "Puntas De Canelon Chico",
"PostCode": "15900",
"LatLong": "-34.6893,-56.1804"
},
{
"Name": "Villa Felicidad",
"PostCode": "15900",
"LatLong": "-34.6422,-56.2407"
},
{
"Name": "Camino Dodera",
"PostCode": "15900",
"LatLong": "-34.6893,-56.1804"
},
{
"Name": "El Dorado",
"PostCode": "15900",
"LatLong": "-34.6983,-56.2175"
},
{
"Name": "Cuchilla De Sierra",
"PostCode": "15900",
"LatLong": "-34.6893,-56.1804"
},
{
"Name": "Poquitos",
"PostCode": "15900",
"LatLong": "-34.6893,-56.1804"
},
{
"Name": "Santos Lugares",
"PostCode": "15900",
"LatLong": "-34.6893,-56.1804"
},
{
"Name": "Barrio Remanso",
"PostCode": "15900",
"LatLong": "-34.6893,-56.1804"
},
{
"Name": "Barrio La Lucha",
"PostCode": "15900",
"LatLong": "-34.6893,-56.1804"
},
{
"Name": "Costa Y Guillamon",
"PostCode": "15900",
"LatLong": "-34.6893,-56.1804"
},
{
"Name": "Villa Paz S.A.",
"PostCode": "15900",
"LatLong": "-34.6893,-56.1804"
},
{
"Name": "Canelon Chico De Progreso",
"PostCode": "15900",
"LatLong": "-34.6893,-56.1804"
},
{
"Name": "Barrio Copola",
"PostCode": "15900",
"LatLong": "-34.6893,-56.1804"
},
{
"Name": "Paso Del Colorado",
"PostCode": "15900",
"LatLong": "-34.6893,-56.1804"
},
{
"Name": "Instituto Adventista",
"PostCode": "15900",
"LatLong": "-34.6893,-56.1804"
},
{
"Name": "Vista Linda",
"PostCode": "15900",
"LatLong": "-34.6893,-56.1804"
},
{
"Name": "Canelon Chico Al Centro",
"PostCode": "15900",
"LatLong": "-34.6893,-56.1804"
},
{
"Name": "Fracc. Progreso",
"PostCode": "15900",
"LatLong": "-34.6893,-56.1804"
},
{
"Name": "Sauce De Solis",
"PostCode": "30100",
"LatLong": "-34.6146,-55.4214"
},
{
"Name": "Paso De Las Toscas",
"PostCode": "90000",
"LatLong": "-34.6717,-56.3541"
},
{
"Name": "Canelones",
"PostCode": "90000",
"LatLong": "-34.5228,-56.2778"
},
{
"Name": "Mataojo",
"PostCode": "90000",
"LatLong": "-34.5,-56.3833"
},
{
"Name": "Paso Del Medio",
"PostCode": "90000",
"LatLong": "-34.4363,-56.3783"
},
{
"Name": "Las Violetas",
"PostCode": "90000",
"LatLong": "-33.6,-57.1333"
},
{
"Name": "Murialdo",
"PostCode": "90000",
"LatLong": "-34.4363,-56.3783"
},
{
"Name": "Paso Espinosa",
"PostCode": "90000",
"LatLong": "-34.4943,-56.2792"
},
{
"Name": "Canelon Chico",
"PostCode": "90000",
"LatLong": "-34.4363,-56.3783"
},
{
"Name": "Paso Palomeque",
"PostCode": "90000",
"LatLong": "-34.5221,-56.2546"
},
{
"Name": "Villa Arejo",
"PostCode": "90000",
"LatLong": "-34.4363,-56.3783"
},
{
"Name": "Juanico",
"PostCode": "90000",
"LatLong": "-34.5945,-56.2533"
},
{
"Name": "Canelon Grande De Pacheco",
"PostCode": "90000",
"LatLong": "-34.4363,-56.3783"
},
{
"Name": "La Paloma",
"PostCode": "90000",
"LatLong": "-34.4883,-56.1521"
},
{
"Name": "Echevarria",
"PostCode": "90000",
"LatLong": "-34.5333,-56.3167"
},
{
"Name": "Melgarejo",
"PostCode": "90000",
"LatLong": "-34.4363,-56.3783"
},
{
"Name": "Rincon Del Gigante",
"PostCode": "90000",
"LatLong": "-34.4363,-56.3783"
},
{
"Name": "Paso De Cuello",
"PostCode": "90000",
"LatLong": "-34.4363,-56.3783"
},
{
"Name": "Empalme Dogliotti",
"PostCode": "90000",
"LatLong": "-34.4363,-56.3783"
},
{
"Name": "Camino De La Cadena",
"PostCode": "90000",
"LatLong": "-34.4363,-56.3783"
},
{
"Name": "Rincon Del Colorado",
"PostCode": "90100",
"LatLong": "-34.6889,-56.3329"
},
{
"Name": "Camino Lloveras",
"PostCode": "90100",
"LatLong": "-34.5991,-56.4762"
},
{
"Name": "Parador Tajes",
"PostCode": "90100",
"LatLong": "-34.6085,-56.4673"
},
{
"Name": "Villa Encantada",
"PostCode": "90100",
"LatLong": "-34.5991,-56.4762"
},
{
"Name": "Cerrillos Al Sur",
"PostCode": "90100",
"LatLong": "-34.6369,-56.3561"
},
{
"Name": "Sofia Santos",
"PostCode": "90100",
"LatLong": "-34.5991,-56.4762"
},
{
"Name": "Paso Del Bote",
"PostCode": "90100",
"LatLong": "-34.621,-56.4516"
},
{
"Name": "Puntas De Brujas",
"PostCode": "90100",
"LatLong": "-34.5991,-56.4762"
},
{
"Name": "Melilla",
"PostCode": "90100",
"LatLong": "-34.7577,-56.2907"
},
{
"Name": "Cerrillos Al Oeste",
"PostCode": "90100",
"LatLong": "-34.5991,-56.4762"
},
{
"Name": "Barrancas Coloradas",
"PostCode": "90100",
"LatLong": "-34.2417,-57.2209"
},
{
"Name": "Las Brujas",
"PostCode": "90100",
"LatLong": "-34.6333,-56.3333"
},
{
"Name": "Colorado Y Brujas",
"PostCode": "90100",
"LatLong": "-34.5991,-56.4762"
},
{
"Name": "Los Cerrillos",
"PostCode": "90100",
"LatLong": "-34.605,-56.3564"
},
{
"Name": "Puente De Brujas",
"PostCode": "90100",
"LatLong": "-34.5991,-56.4762"
},
{
"Name": "Esquina Gonzalez",
"PostCode": "90100",
"LatLong": "-34.5991,-56.4762"
},
{
"Name": "Rincon De Portezuelo",
"PostCode": "90100",
"LatLong": "-34.5991,-56.4762"
},
{
"Name": "Campo Militar",
"PostCode": "90100",
"LatLong": "-34.5991,-56.4762"
},
{
"Name": "Paso De Pache",
"PostCode": "90200",
"LatLong": "-34.3991,-56.2816"
},
{
"Name": "Rincon De Velazquez",
"PostCode": "90200",
"LatLong": "-34.4,-56.3333"
},
{
"Name": "Cañada De Montaño",
"PostCode": "90200",
"LatLong": "-34.2746,-56.1122"
},
{
"Name": "Aguas Corrientes",
"PostCode": "90200",
"LatLong": "-34.5219,-56.3936"
},
{
"Name": "Margat",
"PostCode": "90200",
"LatLong": "-34.2746,-56.1122"
},
{
"Name": "Santa Lucia",
"PostCode": "90200",
"LatLong": "-34.4533,-56.3906"
},
{
"Name": "Cuchilla Verde",
"PostCode": "90200",
"LatLong": "-34.2746,-56.1122"
},
{
"Name": "Los Ceibos",
"PostCode": "90200",
"LatLong": "-33.1821,-54.2256"
},
{
"Name": "Paso De Los Alamos",
"PostCode": "90200",
"LatLong": "-34.2746,-56.1122"
},
{
"Name": "Rincon De Vidal",
"PostCode": "90200",
"LatLong": "-34.3833,-56.3833"
},
{
"Name": "Paso De Los Francos",
"PostCode": "90200",
"LatLong": "-34.2746,-56.1122"
},
{
"Name": "Paso Del Sordo",
"PostCode": "90200",
"LatLong": "-34.2746,-56.1122"
},
{
"Name": "San Ramon",
"PostCode": "91100",
"LatLong": "-34.2916,-55.9557"
},
{
"Name": "Costa Del Tala Norte",
"PostCode": "91100",
"LatLong": "-34.2916,-55.9557"
},
{
"Name": "Rincon Del Conde",
"PostCode": "91100",
"LatLong": "-34.2916,-55.9557"
},
{
"Name": "Vejigas De San Ramon",
"PostCode": "91100",
"LatLong": "-34.2916,-55.9557"
},
{
"Name": "Vejigas De Tala",
"PostCode": "91100",
"LatLong": "-34.2916,-55.9557"
},
{
"Name": "Cañada Prudencio",
"PostCode": "91100",
"LatLong": "-34.2916,-55.9557"
},
{
"Name": "San Bautista",
"PostCode": "91200",
"LatLong": "-34.4402,-55.9586"
},
{
"Name": "Arenal",
"PostCode": "91200",
"LatLong": "-34.45,-55.7833"
},
{
"Name": "Costa De Pando San Bautista",
"PostCode": "91200",
"LatLong": "-34.3427,-56.5138"
},
{
"Name": "El Cuadro",
"PostCode": "91200",
"LatLong": "-34.138,-57.7995"
},
{
"Name": "Paso De Los Difuntos",
"PostCode": "91200",
"LatLong": "-34.3427,-56.5138"
},
{
"Name": "Pueblo Castellanos",
"PostCode": "91200",
"LatLong": "-34.3427,-56.5138"
},
{
"Name": "Costa Del Tala Este",
"PostCode": "91200",
"LatLong": "-34.3427,-56.5138"
},
{
"Name": "El Colorado San Bautista",
"PostCode": "91200",
"LatLong": "-34.3427,-56.5138"
},
{
"Name": "Puntas De Las Violetas",
"PostCode": "91200",
"LatLong": "-34.3427,-56.5138"
},
{
"Name": "Costas Del Colorado Este",
"PostCode": "91200",
"LatLong": "-34.3427,-56.5138"
},
{
"Name": "Puntas De Cochengo",
"PostCode": "91200",
"LatLong": "-34.3427,-56.5138"
},
{
"Name": "Paso De La Cadena",
"PostCode": "91300",
"LatLong": "-34.4423,-56.1484"
},
{
"Name": "Canelon Grande Norte",
"PostCode": "91300",
"LatLong": "-34.4468,-56.1144"
},
{
"Name": "San Antonio",
"PostCode": "91300",
"LatLong": "-34.4513,-56.0804"
},
{
"Name": "Costas Del Colorado",
"PostCode": "91300",
"LatLong": "-34.4468,-56.1144"
},
{
"Name": "Puntas De Cañada Cardozo",
"PostCode": "91300",
"LatLong": "-34.4468,-56.1144"
},
{
"Name": "Costas Del Tala",
"PostCode": "91300",
"LatLong": "-34.4468,-56.1144"
},
{
"Name": "Barra Del Tala",
"PostCode": "91300",
"LatLong": "-34.4468,-56.1144"
},
{
"Name": "Cañada Cardozo",
"PostCode": "91300",
"LatLong": "-34.4468,-56.1144"
},
{
"Name": "Santa Rosa",
"PostCode": "91400",
"LatLong": "-34.4982,-56.0379"
},
{
"Name": "Puntas De Pantanoso",
"PostCode": "91400",
"LatLong": "-34.5429,-56.0601"
},
{
"Name": "Puntas De Pantanoso Este",
"PostCode": "91400",
"LatLong": "-34.5206,-56.049"
},
{
"Name": "Canelon Grande",
"PostCode": "91400",
"LatLong": "-34.5206,-56.049"
},
{
"Name": "Costa De Pando San Jacinto",
"PostCode": "91400",
"LatLong": "-34.5206,-56.049"
},
{
"Name": "Paso De La Paloma",
"PostCode": "91400",
"LatLong": "-34.5206,-56.049"
},
{
"Name": "Costa Del Pantanoso",
"PostCode": "91400",
"LatLong": "-34.5206,-56.049"
},
{
"Name": "Cruz De Los Caminos",
"PostCode": "91500",
"LatLong": "-34.6346,-55.9629"
},
{
"Name": "Totoral Del Sauce",
"PostCode": "91500",
"LatLong": "-34.6609,-55.9933"
},
{
"Name": "Empalme Sauce",
"PostCode": "91500",
"LatLong": "-34.7153,-56.0733"
},
{
"Name": "Barrio Del Libertador",
"PostCode": "91500",
"LatLong": "-34.6279,-55.8182"
},
{
"Name": "Pantanoso",
"PostCode": "91500",
"LatLong": "-34.5429,-56.0601"
},
{
"Name": "Carrasco Del Sauce",
"PostCode": "91500",
"LatLong": "-34.6279,-55.8182"
},
{
"Name": "Cuchilla De Rocha",
"PostCode": "91500",
"LatLong": "-34.6708,-54.423"
},
{
"Name": "Sauce",
"PostCode": "91500",
"LatLong": "-34.5709,-56.0816"
},
{
"Name": "Rancherios De Ponce",
"PostCode": "91500",
"LatLong": "-34.6279,-55.8182"
},
{
"Name": "Villa Nueva",
"PostCode": "91500",
"LatLong": "-34.6,-56.1333"
},
{
"Name": "Mata Siete",
"PostCode": "91500",
"LatLong": "-34.6279,-55.8182"
},
{
"Name": "Cuchilla De Machin",
"PostCode": "91500",
"LatLong": "-34.6279,-55.8182"
},
{
"Name": "San Pedro",
"PostCode": "91500",
"LatLong": "-34.6279,-55.8182"
},
{
"Name": "Puntas De Mata Siete",
"PostCode": "91500",
"LatLong": "-34.6279,-55.8182"
},
{
"Name": "Costa Del Sauce",
"PostCode": "91500",
"LatLong": "-34.6279,-55.8182"
},
{
"Name": "Blanco",
"PostCode": "91500",
"LatLong": "-34.6279,-55.8182"
},
{
"Name": "Ponce Mata Siete",
"PostCode": "91500",
"LatLong": "-34.6279,-55.8182"
},
{
"Name": "Pantanoso Del Sauce",
"PostCode": "91500",
"LatLong": "-34.6279,-55.8182"
},
{
"Name": "Talita",
"PostCode": "91600",
"LatLong": "-33.9252,-56.0422"
},
{
"Name": "Piedra Sola",
"PostCode": "91600",
"LatLong": "-34.443,-55.8919"
},
{
"Name": "San Jacinto",
"PostCode": "91600",
"LatLong": "-34.5446,-55.8715"
},
{
"Name": "Cochengo",
"PostCode": "91600",
"LatLong": "-34.443,-55.8919"
},
{
"Name": "Estacion Pedrera",
"PostCode": "91600",
"LatLong": "-34.6103,-55.8153"
},
{
"Name": "Estacion Tapia",
"PostCode": "91600",
"LatLong": "-34.5677,-55.7511"
},
{
"Name": "Barra De La Pedrera",
"PostCode": "91600",
"LatLong": "-34.443,-55.8919"
},
{
"Name": "Costa De Pando",
"PostCode": "91600",
"LatLong": "-34.5669,-55.9792"
},
{
"Name": "Costas De Solis",
"PostCode": "91600",
"LatLong": "-34.443,-55.8919"
},
{
"Name": "Puntas De Pedrera",
"PostCode": "91600",
"LatLong": "-34.443,-55.8919"
},
{
"Name": "Montes",
"PostCode": "91700",
"LatLong": "-34.4934,-55.5622"
},
{
"Name": "Puntas Del Arenal",
"PostCode": "91700",
"LatLong": "-34.45,-55.7833"
},
{
"Name": "Cuchilla Cabo De Hornos",
"PostCode": "91700",
"LatLong": "-34.4867,-55.6259"
},
{
"Name": "Migues",
"PostCode": "91700",
"LatLong": "-34.4876,-55.6279"
},
{
"Name": "Estacion Migues",
"PostCode": "91700",
"LatLong": "-34.5243,-55.6251"
},
{
"Name": "Sauce Solo",
"PostCode": "91700",
"LatLong": "-34.4867,-55.6259"
},
{
"Name": "Solis Chico",
"PostCode": "91700",
"LatLong": "-34.4867,-55.6259"
},
{
"Name": "Sarandi De Migues",
"PostCode": "91700",
"LatLong": "-34.4867,-55.6259"
},
{
"Name": "Sauce Solo De Montes",
"PostCode": "91700",
"LatLong": "-34.4867,-55.6259"
},
{
"Name": "El Colorado De Migues",
"PostCode": "91700",
"LatLong": "-34.4867,-55.6259"
},
{
"Name": "Cuchilla De Zeballos",
"PostCode": "91700",
"LatLong": "-34.4867,-55.6259"
},
{
"Name": "Solis Chico De Migues",
"PostCode": "91700",
"LatLong": "-34.4867,-55.6259"
},
{
"Name": "Sauce Solo De Migues",
"PostCode": "91700",
"LatLong": "-34.4867,-55.6259"
},
{
"Name": "La Totora",
"PostCode": "91700",
"LatLong": "-34.4867,-55.6259"
},
{
"Name": "Pedernal Grande",
"PostCode": "91700",
"LatLong": "-34.4867,-55.6259"
},
{
"Name": "Piedritas",
"PostCode": "91800",
"LatLong": "-34.3333,-55.65"
},
{
"Name": "Macana",
"PostCode": "91800",
"LatLong": "-34.05,-56.2"
},
{
"Name": "Vejigas",
"PostCode": "91800",
"LatLong": "-34.2833,-55.2333"
},
{
"Name": "Pedernal",
"PostCode": "91800",
"LatLong": "-34.3667,-55.7833"
},
{
"Name": "Pedernal Chico",
"PostCode": "91800",
"LatLong": "-34.0933,-55.907"
},
{
"Name": "Feliciano",
"PostCode": "91800",
"LatLong": "-33.1828,-56.8117"
},
{
"Name": "Costas De Pedernal",
"PostCode": "91800",
"LatLong": "-34.0933,-55.907"
},
{
"Name": "Tala",
"PostCode": "91800",
"LatLong": "-34.3435,-55.7638"
},
{
"Name": "Nutrias",
"PostCode": "91800",
"LatLong": "-34.0933,-55.907"
},
{
"Name": "Paso Rivero De Vejigas",
"PostCode": "91800",
"LatLong": "-34.0933,-55.907"
},
{
"Name": "Paso De La Salamanca",
"PostCode": "91800",
"LatLong": "-34.0933,-55.907"
},
{
"Name": "Puntas De Vejigas",
"PostCode": "91800",
"LatLong": "-34.0933,-55.907"
},
{
"Name": "Colonia Treinta Y Tres Orientales",
"PostCode": "96100",
"LatLong": "-34.2413,-55.9167"
},
{
"Name": "Bolivar",
"PostCode": "96200",
"LatLong": "-34.2224,-55.7296"
},
{
"Name": "Costas De Santa Lucia",
"PostCode": "96200",
"LatLong": "-34.2081,-55.732"
}
]
}
]
}
]
},
{
"Name": "Cerro Largo",
"Code": "03",
"Provinces": [
{
"Communities": [
{
"Places": [
{
"Name": "Arevalo",
"PostCode": "35300",
"LatLong": "-32.6333,-55.1167"
},
{
"Name": "Esperanza",
"PostCode": "35300",
"LatLong": "-33,-55.1333"
},
{
"Name": "Cuchilla Del Carmen",
"PostCode": "35300",
"LatLong": "-32.85,-55.0722"
},
{
"Name": "Tupambae",
"PostCode": "36100",
"LatLong": "-32.8333,-54.7667"
},
{
"Name": "Laguna Del Junco",
"PostCode": "36100",
"LatLong": "-32.8333,-54.7667"
},
{
"Name": "Fraile Muerto",
"PostCode": "36200",
"LatLong": "-32.5167,-54.5333"
},
{
"Name": "Quebracho",
"PostCode": "36200",
"LatLong": "-32.6833,-54.6333"
},
{
"Name": "Cerro De Las Cuentas",
"PostCode": "36200",
"LatLong": "-32.6167,-54.6"
},
{
"Name": "Toledo",
"PostCode": "36200",
"LatLong": "-32.5,-54.0167"
},
{
"Name": "Aguirre",
"PostCode": "36200",
"LatLong": "-32.3667,-54.7667"
},
{
"Name": "Tres Islas",
"PostCode": "36200",
"LatLong": "-32.5167,-54.6833"
},
{
"Name": "Rincon De Py",
"PostCode": "36200",
"LatLong": "-32.5,-54.4167"
},
{
"Name": "Puntas De Tacuari",
"PostCode": "36200",
"LatLong": "-32.5286,-54.5214"
},
{
"Name": "Los Cerros",
"PostCode": "36200",
"LatLong": "-32.5286,-54.5214"
},
{
"Name": "Piñeiro",
"PostCode": "36200",
"LatLong": "-32.5286,-54.5214"
},
{
"Name": "Rincon De Contreras",
"PostCode": "36200",
"LatLong": "-32.5286,-54.5214"
},
{
"Name": "Ganen",
"PostCode": "36200",
"LatLong": "-32.5286,-54.5214"
},
{
"Name": "Las Limas",
"PostCode": "36200",
"LatLong": "-32.5286,-54.5214"
},
{
"Name": "Rincon De Suarez",
"PostCode": "36200",
"LatLong": "-32.5286,-54.5214"
},
{
"Name": "Rincon De La Urbana",
"PostCode": "36200",
"LatLong": "-32.5286,-54.5214"
},
{
"Name": "Paso De Los Carros",
"PostCode": "36200",
"LatLong": "-32.5286,-54.5214"
},
{
"Name": "Sanchez",
"PostCode": "36200",
"LatLong": "-32.5286,-54.5214"
},
{
"Name": "Coimbra",
"PostCode": "36200",
"LatLong": "-32.5286,-54.5214"
},
{
"Name": "Calera De Recalde",
"PostCode": "36200",
"LatLong": "-32.5286,-54.5214"
},
{
"Name": "Wenceslao Silvera",
"PostCode": "36200",
"LatLong": "-32.5286,-54.5214"
},
{
"Name": "Melo",
"PostCode": "37000",
"LatLong": "-32.3703,-54.1675"
},
{
"Name": "Arbolito",
"PostCode": "37000",
"LatLong": "-32.65,-54.25"
},
{
"Name": "Cuchilla Peralta",
"PostCode": "37000",
"LatLong": "-32.4333,-56.35"
},
{
"Name": "Infiernillo",
"PostCode": "37000",
"LatLong": "-33.9333,-55.6833"
},
{
"Name": "Saldañas",
"PostCode": "37000",
"LatLong": "-32.7519,-54.6319"
},
{
"Name": "Villa Viñoles",
"PostCode": "37000",
"LatLong": "-32.2,-54.0667"
},
{
"Name": "Acegua",
"PostCode": "37000",
"LatLong": "-31.8667,-54.2"
},
{
"Name": "Isidoro Noblia",
"PostCode": "37000",
"LatLong": "-31.8333,-54.1667"
},
{
"Name": "Peñarol",
"PostCode": "37000",
"LatLong": "-31.7833,-54.3333"
},
{
"Name": "Hipodromo",
"PostCode": "37000",
"LatLong": "-34.8615,-54.9431"
},
{
"Name": "Puntas De Palleros",
"PostCode": "37000",
"LatLong": "-32.7519,-54.6319"
},
{
"Name": "La Mina",
"PostCode": "37000",
"LatLong": "-31.9,-54.15"
},
{
"Name": "Ramon Trigo",
"PostCode": "37000",
"LatLong": "-32.3833,-54.6667"
},
{
"Name": "Santa Teresa",
"PostCode": "37000",
"LatLong": "-34.4333,-57.7167"
},
{
"Name": "Bañado De Medina",
"PostCode": "37000",
"LatLong": "-32.3833,-54.35"
},
{
"Name": "Buena Vista",
"PostCode": "37000",
"LatLong": "-32.15,-54.2"
},
{
"Name": "Granja Pallero",
"PostCode": "37000",
"LatLong": "-32.7519,-54.6319"
},
{
"Name": "Cruz De Piedra",
"PostCode": "37000",
"LatLong": "-32.0333,-54.1833"
},
{
"Name": "San Diego",
"PostCode": "37000",
"LatLong": "-32.7519,-54.6319"
},
{
"Name": "Maria Isabel",
"PostCode": "37000",
"LatLong": "-33.8,-54"
},
{
"Name": "Duraznero",
"PostCode": "37000",
"LatLong": "-32.7519,-54.6319"
},
{
"Name": "Mangrullo",
"PostCode": "37000",
"LatLong": "-32.1167,-54.0667"
},
{
"Name": "Cuchilla Cambota",
"PostCode": "37000",
"LatLong": "-32.7519,-54.6319"
},
{
"Name": "La Micaela",
"PostCode": "37000",
"LatLong": "-32.6333,-53.9"
},
{
"Name": "Rincon De Paiva",
"PostCode": "37000",
"LatLong": "-32.7519,-54.6319"
},
{
"Name": "Rodriguez",
"PostCode": "37000",
"LatLong": "-34.381,-56.538"
},
{
"Name": "Casa De Las Cronicas",
"PostCode": "37000",
"LatLong": "-32.7519,-54.6319"
},
{
"Name": "Nando",
"PostCode": "37000",
"LatLong": "-32.1667,-54.1167"
},
{
"Name": "Campamento",
"PostCode": "37000",
"LatLong": "-32.7519,-54.6319"
},
{
"Name": "Sarandi De Acegua",
"PostCode": "37000",
"LatLong": "-32.0167,-54.2"
},
{
"Name": "Cañitas",
"PostCode": "37000",
"LatLong": "-32.7519,-54.6319"
},
{
"Name": "La Pedrera",
"PostCode": "37000",
"LatLong": "-32.35,-54.1333"
},
{
"Name": "Cementerio",
"PostCode": "37000",
"LatLong": "-32.7519,-54.6319"
},
{
"Name": "Arachania",
"PostCode": "37000",
"LatLong": "-34.6148,-54.1507"
},
{
"Name": "Centurion",
"PostCode": "37000",
"LatLong": "-32.7519,-54.6319"
},
{
"Name": "Corral De Piedra",
"PostCode": "37000",
"LatLong": "-32.7519,-54.6319"
},
{
"Name": "Colonia Orozco",
"PostCode": "37000",
"LatLong": "-32.7519,-54.6319"
},
{
"Name": "Sauce De Conventos",
"PostCode": "37000",
"LatLong": "-32.7519,-54.6319"
},
{
"Name": "Colonia Ceres",
"PostCode": "37000",
"LatLong": "-32.7519,-54.6319"
},
{
"Name": "Puntas De Molles",
"PostCode": "37000",
"LatLong": "-32.7519,-54.6319"
},
{
"Name": "Cuchilla Del Paraiso",
"PostCode": "37000",
"LatLong": "-32.7519,-54.6319"
},
{
"Name": "Cañada Sarandi",
"PostCode": "37000",
"LatLong": "-32.7519,-54.6319"
},
{
"Name": "Colonia Maria Teresa",
"PostCode": "37000",
"LatLong": "-32.7519,-54.6319"
},
{
"Name": "Cuchilla De Melo",
"PostCode": "37000",
"LatLong": "-32.7519,-54.6319"
},
{
"Name": "Minuano De Acegua",
"PostCode": "37000",
"LatLong": "-32.7519,-54.6319"
},
{
"Name": "Puente Negro",
"PostCode": "37000",
"LatLong": "-32.7519,-54.6319"
},
{
"Name": "Conventos",
"PostCode": "37000",
"LatLong": "-32.7519,-54.6319"
},
{
"Name": "Falda De Sierra De Los Rios",
"PostCode": "37000",
"LatLong": "-32.7519,-54.6319"
},
{
"Name": "Paso Melo",
"PostCode": "37000",
"LatLong": "-32.7519,-54.6319"
},
{
"Name": "Ñangapire",
"PostCode": "37000",
"LatLong": "-32.7519,-54.6319"
},
{
"Name": "Paso De Las Tropas",
"PostCode": "37000",
"LatLong": "-32.7519,-54.6319"
},
{
"Name": "Tres Boliches",
"PostCode": "37000",
"LatLong": "-32.7519,-54.6319"
},
{
"Name": "Guazunambi",
"PostCode": "37000",
"LatLong": "-32.7519,-54.6319"
},
{
"Name": "Barrio Lopez Benitez",
"PostCode": "37000",
"LatLong": "-32.7519,-54.6319"
},
{
"Name": "Montecito",
"PostCode": "37000",
"LatLong": "-32.7519,-54.6319"
},
{
"Name": "Puntas De Amarillo",
"PostCode": "37000",
"LatLong": "-32.7519,-54.6319"
},
{
"Name": "Mazangano",
"PostCode": "37000",
"LatLong": "-32.7519,-54.6319"
},
{
"Name": "Caserio Las Cañas",
"PostCode": "37000",
"LatLong": "-32.7519,-54.6319"
},
{
"Name": "Amarillo",
"PostCode": "37000",
"LatLong": "-32.7519,-54.6319"
},
{
"Name": "Misterio",
"PostCode": "37000",
"LatLong": "-32.7519,-54.6319"
},
{
"Name": "Rincon De Tacuari",
"PostCode": "37000",
"LatLong": "-32.7519,-54.6319"
},
{
"Name": "Asperezas",
"PostCode": "37000",
"LatLong": "-32.7519,-54.6319"
},
{
"Name": "Soto Goro",
"PostCode": "37000",
"LatLong": "-32.7519,-54.6319"
},
{
"Name": "Barrio La Vinchuca",
"PostCode": "37000",
"LatLong": "-32.7519,-54.6319"
},
{
"Name": "Rincon De Los Coroneles",
"PostCode": "37000",
"LatLong": "-32.7519,-54.6319"
},
{
"Name": "Puntas De La Mina",
"PostCode": "37000",
"LatLong": "-32.7519,-54.6319"
},
{
"Name": "La Gloria",
"PostCode": "37000",
"LatLong": "-32.7519,-54.6319"
},
{
"Name": "Berachi",
"PostCode": "37000",
"LatLong": "-32.7519,-54.6319"
},
{
"Name": "Granja De Acegua",
"PostCode": "37000",
"LatLong": "-32.7519,-54.6319"
},
{
"Name": "Paso De Las Yeguas",
"PostCode": "37000",
"LatLong": "-32.7519,-54.6319"
},
{
"Name": "Paso De La Cruz",
"PostCode": "37000",
"LatLong": "-32.7519,-54.6319"
},
{
"Name": "Escuela De Agronomia",
"PostCode": "37000",
"LatLong": "-32.7519,-54.6319"
},
{
"Name": "Panteon",
"PostCode": "37000",
"LatLong": "-32.7519,-54.6319"
},
{
"Name": "Chacras De Melo",
"PostCode": "37000",
"LatLong": "-32.7519,-54.6319"
},
{
"Name": "San Servando",
"PostCode": "37100",
"LatLong": "-32.6333,-53.3"
},
{
"Name": "Lago Merin",
"PostCode": "37100",
"LatLong": "-33.0201,-53.5753"
},
{
"Name": "Placido Rosas",
"PostCode": "37100",
"LatLong": "-32.75,-53.7333"
},
{
"Name": "Arroyo Malo",
"PostCode": "37100",
"LatLong": "-33.0201,-53.5753"
},
{
"Name": "La Coronilla",
"PostCode": "37100",
"LatLong": "-33.8896,-53.5264"
},
{
"Name": "Puntas Del Sauce",
"PostCode": "37100",
"LatLong": "-33.0201,-53.5753"
},
{
"Name": "Sarandi De Barcelo",
"PostCode": "37100",
"LatLong": "-32.4833,-53.7167"
},
{
"Name": "Barra Del Tacuari",
"PostCode": "37100",
"LatLong": "-33.0201,-53.5753"
},
{
"Name": "Rio Branco",
"PostCode": "37100",
"LatLong": "-32.598,-53.3858"
},
{
"Name": "Bañado De Las Pajas",
"PostCode": "37100",
"LatLong": "-33.0201,-53.5753"
},
{
"Name": "Cañada De Santos",
"PostCode": "37100",
"LatLong": "-33.0201,-53.5753"
},
{
"Name": "Rincon De Los Olivera",
"PostCode": "37100",
"LatLong": "-34.303,-53.8479"
},
{
"Name": "Cañada Grande",
"PostCode": "37100",
"LatLong": "-33.0201,-53.5753"
},
{
"Name": "Garao",
"PostCode": "37100",
"LatLong": "-33.0201,-53.5753"
},
{
"Name": "Sarandi De Yaguaron",
"PostCode": "37100",
"LatLong": "-33.0201,-53.5753"
},
{
"Name": "Uruguay",
"PostCode": "37100",
"LatLong": "-32.4833,-53.5167"
},
{
"Name": "Picada De Maya",
"PostCode": "37100",
"LatLong": "-33.0201,-53.5753"
},
{
"Name": "Arrozal Cesarone",
"PostCode": "37100",
"LatLong": "-33.0201,-53.5753"
},
{
"Name": "Picada De Salome",
"PostCode": "37100",
"LatLong": "-33.0201,-53.5753"
},
{
"Name": "Presidente Doctor Getulio Vargas",
"PostCode": "37100",
"LatLong": "-33.0201,-53.5753"
},
{
"Name": "Arrozal Rosales",
"PostCode": "37100",
"LatLong": "-33.0201,-53.5753"
},
{
"Name": "Poblado Uruguay",
"PostCode": "37100",
"LatLong": "-33.0201,-53.5753"
},
{
"Name": "Barra Del Sauce",
"PostCode": "37100",
"LatLong": "-33.0201,-53.5753"
},
{
"Name": "Paso Pereira",
"PostCode": "45000",
"LatLong": "-32.4667,-55.2333"
},
{
"Name": "Piedra Alta",
"PostCode": "45000",
"LatLong": "-31.9435,-55.7274"
},
{
"Name": "Cañada Brava",
"PostCode": "97000",
"LatLong": "-33.0983,-56.0159"
}
]
}
]
}
]
},
{
"Name": "Colonia",
"Code": "04",
"Provinces": [
{
"Communities": [
{
"Places": [
{
"Name": "Artilleros",
"PostCode": "70000",
"LatLong": "-34.3667,-57.5667"
},
{
"Name": "Cerros De San Juan",
"PostCode": "70000",
"LatLong": "-34.2187,-57.9307"
},
{
"Name": "La Estanzuela",
"PostCode": "70000",
"LatLong": "-34.3288,-57.7228"
},
{
"Name": "San Pedro De Arriba",
"PostCode": "70000",
"LatLong": "-34.328,-57.7043"
},
{
"Name": "Puntas De San Pedro",
"PostCode": "70000",
"LatLong": "-33.9333,-57.4667"
},
{
"Name": "El Caño",
"PostCode": "70000",
"LatLong": "-34.4,-57.6667"
},
{
"Name": "San Pedro Norte",
"PostCode": "70000",
"LatLong": "-34.2837,-57.8277"
},
{
"Name": "Real De Vera",
"PostCode": "70000",
"LatLong": "-34.328,-57.7043"
},
{
"Name": "Puerto Platero",
"PostCode": "70000",
"LatLong": "-34.4366,-57.6403"
},
{
"Name": "Radial Hernandez",
"PostCode": "70000",
"LatLong": "-34.328,-57.7043"
},
{
"Name": "Colonia Del Sacramento",
"PostCode": "70000",
"LatLong": "-34.4626,-57.8398"
},
{
"Name": "Minas De Narancio",
"PostCode": "70000",
"LatLong": "-34.1819,-57.9206"
},
{
"Name": "Piedra De Los Indios",
"PostCode": "70000",
"LatLong": "-34.377,-57.8415"
},
{
"Name": "Riachuelo",
"PostCode": "70000",
"LatLong": "-34.43,-57.7296"
},
{
"Name": "La Horqueta",
"PostCode": "70000",
"LatLong": "-34.2449,-57.8757"
},
{
"Name": "Santa Ana",
"PostCode": "70000",
"LatLong": "-34.4211,-57.5954"
},
{
"Name": "Reducto",
"PostCode": "70000",
"LatLong": "-34.8833,-56.1833"
},
{
"Name": "San Pedro",
"PostCode": "70000",
"LatLong": "-34.35,-57.85"
},
{
"Name": "Punta Francesa",
"PostCode": "70000",
"LatLong": "-34.328,-57.7043"
},
{
"Name": "El Ensueño",
"PostCode": "70000",
"LatLong": "-34.4237,-57.6025"
},
{
"Name": "El General",
"PostCode": "70000",
"LatLong": "-34.426,-57.8296"
},
{
"Name": "El Bañado",
"PostCode": "70000",
"LatLong": "-34.134,-57.9793"
},
{
"Name": "Santa Rosa",
"PostCode": "70000",
"LatLong": "-34.0845,-57.9961"
},
{
"Name": "Estacion Experimental \"La Estanzuela\"",
"PostCode": "70000",
"LatLong": "-34.328,-57.7043"
},
{
"Name": "Conchillas",
"PostCode": "70000",
"LatLong": "-34.1648,-58.0339"
},
{
"Name": "El Semillero",
"PostCode": "70000",
"LatLong": "-34.3359,-57.6906"
},
{
"Name": "Martin Chico De Conchillas",
"PostCode": "70000",
"LatLong": "-34.328,-57.7043"
},
{
"Name": "Laguna De Los Patos",
"PostCode": "70000",
"LatLong": "-34.328,-57.7043"
},
{
"Name": "Puerto Ingles",
"PostCode": "70000",
"LatLong": "-34.328,-57.7043"
},
{
"Name": "Quinton",
"PostCode": "70000",
"LatLong": "-34.328,-57.7043"
},
{
"Name": "Juan Carlos Caseros",
"PostCode": "70000",
"LatLong": "-34.328,-57.7043"
},
{
"Name": "El Quinton",
"PostCode": "70000",
"LatLong": "-34.328,-57.7043"
},
{
"Name": "Estancia Anchorena",
"PostCode": "70000",
"LatLong": "-34.328,-57.7043"
},
{
"Name": "Viboras Y Vacas",
"PostCode": "70100",
"LatLong": "-33.9293,-58.1984"
},
{
"Name": "Carmelo",
"PostCode": "70100",
"LatLong": "-34.0002,-58.284"
},
{
"Name": "Buena Hora",
"PostCode": "70100",
"LatLong": "-34.0765,-58.1329"
},
{
"Name": "Zagarzazu",
"PostCode": "70100",
"LatLong": "-33.9635,-58.3309"
},
{
"Name": "Colonia Arrue",
"PostCode": "70100",
"LatLong": "-34.0165,-58.1526"
},
{
"Name": "Martin Chico",
"PostCode": "70100",
"LatLong": "-34.1612,-58.2071"
},
{
"Name": "Colonia Estrella",
"PostCode": "70100",
"LatLong": "-33.964,-58.2893"
},
{
"Name": "El Cerro",
"PostCode": "70100",
"LatLong": "-33.9815,-58.2822"
},
{
"Name": "Lomas De Carmelo",
"PostCode": "70100",
"LatLong": "-34.0132,-58.2781"
},
{
"Name": "Cerro Carmelo",
"PostCode": "70100",
"LatLong": "-33.9897,-58.1504"
},
{
"Name": "Juan Gonzalez",
"PostCode": "70100",
"LatLong": "-34.0586,-58.192"
},
{
"Name": "Costas De Juan Gonzalez",
"PostCode": "70100",
"LatLong": "-33.9897,-58.1504"
},
{
"Name": "Costa De Vacas",
"PostCode": "70100",
"LatLong": "-33.9897,-58.1504"
},
{
"Name": "El Faro",
"PostCode": "70100",
"LatLong": "-33.9897,-58.1504"
},
{
"Name": "Caserio El Cerro",
"PostCode": "70100",
"LatLong": "-33.9897,-58.1504"
},
{
"Name": "Viboras",
"PostCode": "70100",
"LatLong": "-33.9897,-58.1504"
},
{
"Name": "El Chileno",
"PostCode": "70100",
"LatLong": "-33.9897,-58.1504"
},
{
"Name": "Curupi",
"PostCode": "70100",
"LatLong": "-33.9897,-58.1504"
},
{
"Name": "Costa De Colla Al Este",
"PostCode": "70200",
"LatLong": "-34.2476,-57.4097"
},
{
"Name": "Rosario Y Colla",
"PostCode": "70200",
"LatLong": "-34.2753,-57.335"
},
{
"Name": "Rosario",
"PostCode": "70200",
"LatLong": "-34.3167,-57.35"
},
{
"Name": "Tres Esquinas",
"PostCode": "70200",
"LatLong": "-34.1223,-57.3718"
},
{
"Name": "Barker",
"PostCode": "70200",
"LatLong": "-34.2603,-57.456"
},
{
"Name": "Pastoreo",
"PostCode": "70200",
"LatLong": "-34.3314,-57.3513"
},
{
"Name": "Puntas Del Rosario",
"PostCode": "70200",
"LatLong": "-33.9785,-57.1794"
},
{
"Name": "Barker Norte",
"PostCode": "70200",
"LatLong": "-34.2203,-57.4776"
},
{
"Name": "La Paz",
"PostCode": "70200",
"LatLong": "-34.3478,-57.3096"
},
{
"Name": "Radial Rosario",
"PostCode": "70200",
"LatLong": "-34.2333,-57.36"
},
{
"Name": "Media Agua",
"PostCode": "70200",
"LatLong": "-34.2333,-57.36"
},
{
"Name": "Terminal",
"PostCode": "70200",
"LatLong": "-34.2333,-57.36"
},
{
"Name": "Paso Quicho",
"PostCode": "70200",
"LatLong": "-34.2333,-57.36"
},
{
"Name": "Puerto Concordia",
"PostCode": "70200",
"LatLong": "-34.2333,-57.36"
},
{
"Name": "Minuano Y Sauce",
"PostCode": "70200",
"LatLong": "-34.2333,-57.36"
},
{
"Name": "Costas De Polonia",
"PostCode": "70200",
"LatLong": "-34.2333,-57.36"
},
{
"Name": "Puerto Rosario",
"PostCode": "70200",
"LatLong": "-34.2333,-57.36"
},
{
"Name": "Costa Del Navarro",
"PostCode": "70200",
"LatLong": "-34.2333,-57.36"
},
{
"Name": "Paso Morlan",
"PostCode": "70200",
"LatLong": "-34.2333,-57.36"
},
{
"Name": "Colonia Talice",
"PostCode": "70200",
"LatLong": "-34.2333,-57.36"
},
{
"Name": "Colonia Peirano",
"PostCode": "70200",
"LatLong": "-34.2333,-57.36"
},
{
"Name": "Blanca Arena",
"PostCode": "70300",
"LatLong": "-34.4356,-57.2967"
},
{
"Name": "Brisas Del Plata",
"PostCode": "70300",
"LatLong": "-34.4428,-57.1693"
},
{
"Name": "Colonia Española",
"PostCode": "70300",
"LatLong": "-34.4,-57.1667"
},
{
"Name": "Los Pinos",
"PostCode": "70300",
"LatLong": "-34.398,-56.9659"
},
{
"Name": "Nueva Helvecia",
"PostCode": "70300",
"LatLong": "-34.3,-57.2333"
},
{
"Name": "Concordia",
"PostCode": "70300",
"LatLong": "-34.381,-56.538"
},
{
"Name": "Cufre",
"PostCode": "70300",
"LatLong": "-34.194,-57.1076"
},
{
"Name": "Barrancas Coloradas",
"PostCode": "70300",
"LatLong": "-34.2417,-57.2209"
},
{
"Name": "La Sierra",
"PostCode": "70300",
"LatLong": "-34.7473,-55.4001"
},
{
"Name": "Costa De Rosario",
"PostCode": "70300",
"LatLong": "-34.398,-56.9659"
},
{
"Name": "Cerros Negros",
"PostCode": "70300",
"LatLong": "-34.398,-56.9659"
},
{
"Name": "Boca Del Rosario",
"PostCode": "70300",
"LatLong": "-34.4,-57.3333"
},
{
"Name": "Rincon Del Rey",
"PostCode": "70300",
"LatLong": "-34.398,-56.9659"
},
{
"Name": "Santa Regina",
"PostCode": "70300",
"LatLong": "-34.4373,-57.1926"
},
{
"Name": "Playa Britopolis",
"PostCode": "70300",
"LatLong": "-34.398,-56.9659"
},
{
"Name": "Resguardo Cufre",
"PostCode": "70300",
"LatLong": "-34.398,-56.9659"
},
{
"Name": "Paso De La Quinta",
"PostCode": "70300",
"LatLong": "-34.398,-56.9659"
},
{
"Name": "Campamento Artigas",
"PostCode": "70300",
"LatLong": "-34.398,-56.9659"
},
{
"Name": "Playa Parant",
"PostCode": "70300",
"LatLong": "-34.398,-56.9659"
},
{
"Name": "Bonjour",
"PostCode": "70300",
"LatLong": "-34.398,-56.9659"
},
{
"Name": "Colonia Quevedo",
"PostCode": "70300",
"LatLong": "-34.398,-56.9659"
},
{
"Name": "Playa Fomento",
"PostCode": "70300",
"LatLong": "-34.398,-56.9659"
},
{
"Name": "Picada De Benitez",
"PostCode": "70300",
"LatLong": "-34.398,-56.9659"
},
{
"Name": "Barrio Mendaña",
"PostCode": "70300",
"LatLong": "-34.398,-56.9659"
},
{
"Name": "Playa Azul",
"PostCode": "70300",
"LatLong": "-34.398,-56.9659"
},
{
"Name": "Barrio Olimpico",
"PostCode": "70300",
"LatLong": "-34.398,-56.9659"
},
{
"Name": "Chico Torino",
"PostCode": "70400",
"LatLong": "-34.3396,-57.2625"
},
{
"Name": "Colonia Valdense",
"PostCode": "70400",
"LatLong": "-34.3396,-57.2625"
},
{
"Name": "Boca Del Rosario Oeste",
"PostCode": "70500",
"LatLong": "-34.4341,-57.3349"
},
{
"Name": "Arrivillaga",
"PostCode": "70500",
"LatLong": "-34.4126,-57.3965"
},
{
"Name": "Juan Lacaze",
"PostCode": "70500",
"LatLong": "-34.4189,-57.4529"
},
{
"Name": "Colonia Cosmopolita",
"PostCode": "70500",
"LatLong": "-34.3848,-57.4019"
},
{
"Name": "Tomas Bell",
"PostCode": "70500",
"LatLong": "-34.4126,-57.3965"
},
{
"Name": "Paraje Minuano",
"PostCode": "70500",
"LatLong": "-34.4126,-57.3965"
},
{
"Name": "Villa Pancha",
"PostCode": "70500",
"LatLong": "-34.4126,-57.3965"
},
{
"Name": "Puntas Del Sauce",
"PostCode": "70600",
"LatLong": "-33.8215,-57.0195"
},
{
"Name": "Paso Antolin",
"PostCode": "70600",
"LatLong": "-34.2,-57.7833"
},
{
"Name": "Costa De Tarariras",
"PostCode": "70600",
"LatLong": "-34.1473,-57.5886"
},
{
"Name": "Tarariras",
"PostCode": "70600",
"LatLong": "-34.2655,-57.6187"
},
{
"Name": "San Luis",
"PostCode": "70600",
"LatLong": "-34.2408,-57.5501"
},
{
"Name": "Puntas De Melo",
"PostCode": "70600",
"LatLong": "-34.1473,-57.5886"
},
{
"Name": "Paso Hospital",
"PostCode": "70600",
"LatLong": "-34.1267,-57.6757"
},
{
"Name": "San Juan",
"PostCode": "70600",
"LatLong": "-34.204,-57.7994"
},
{
"Name": "Puntas Del Riachuelo",
"PostCode": "70600",
"LatLong": "-34.1473,-57.5886"
},
{
"Name": "San Luis Sanchez",
"PostCode": "70600",
"LatLong": "-34.1728,-57.6732"
},
{
"Name": "San Luis De Tarariras",
"PostCode": "70600",
"LatLong": "-34.1473,-57.5886"
},
{
"Name": "Nueva Palmira",
"PostCode": "70700",
"LatLong": "-33.87,-58.408"
},
{
"Name": "Las Flores",
"PostCode": "70700",
"LatLong": "-33.8331,-58.3281"
},
{
"Name": "Belgrano Sur",
"PostCode": "70700",
"LatLong": "-33.9091,-58.3811"
},
{
"Name": "Belgrano Norte",
"PostCode": "70700",
"LatLong": "-33.8814,-58.3483"
},
{
"Name": "Polancos",
"PostCode": "70700",
"LatLong": "-33.8778,-58.276"
},
{
"Name": "Puntas De San Juan",
"PostCode": "70800",
"LatLong": "-33.9333,-57.4667"
},
{
"Name": "Ombues De Lavalle",
"PostCode": "70800",
"LatLong": "-33.9378,-57.8096"
},
{
"Name": "Campana",
"PostCode": "70800",
"LatLong": "-34.0326,-57.902"
},
{
"Name": "El Cuadro",
"PostCode": "70800",
"LatLong": "-34.138,-57.7995"
},
{
"Name": "Miguelete De Conchillas",
"PostCode": "70800",
"LatLong": "-34.1058,-57.8521"
},
{
"Name": "Piedras Blancas",
"PostCode": "70800",
"LatLong": "-34.8286,-56.1394"
},
{
"Name": "Sarandi Campana",
"PostCode": "70800",
"LatLong": "-34.0361,-57.9562"
},
{
"Name": "Colonia Sarandi",
"PostCode": "70800",
"LatLong": "-34.1114,-57.6634"
},
{
"Name": "San Roque",
"PostCode": "70800",
"LatLong": "-34.0384,-58.0641"
},
{
"Name": "Cerro De Las Armas",
"PostCode": "70800",
"LatLong": "-34.066,-57.7232"
},
{
"Name": "Las Chispas",
"PostCode": "70800",
"LatLong": "-34.1114,-57.6634"
},
{
"Name": "Colonia Miguelete",
"PostCode": "70800",
"LatLong": "-34.0065,-57.6479"
},
{
"Name": "Costas De San Juan",
"PostCode": "70800",
"LatLong": "-34.1114,-57.6634"
},
{
"Name": "Puntas De Juan Gonzalez",
"PostCode": "70800",
"LatLong": "-34.1024,-57.936"
},
{
"Name": "Paso Hospital Manantiales",
"PostCode": "70800",
"LatLong": "-34.1114,-57.6634"
},
{
"Name": "Gil",
"PostCode": "70800",
"LatLong": "-34.1114,-57.6634"
},
{
"Name": "Manantiales",
"PostCode": "70800",
"LatLong": "-34.1114,-57.6634"
},
{
"Name": "Molles De Miguelete",
"PostCode": "70800",
"LatLong": "-34.1114,-57.6634"
},
{
"Name": "Florencio Sanchez",
"PostCode": "75200",
"LatLong": "-33.8779,-57.3717"
},
{
"Name": "Juan Jackson",
"PostCode": "75200",
"LatLong": "-33.9144,-57.2285"
},
{
"Name": "Zunin",
"PostCode": "75200",
"LatLong": "-33.7334,-57.4003"
},
{
"Name": "Piedra Chata",
"PostCode": "75200",
"LatLong": "-33.7334,-57.4003"
},
{
"Name": "Paso Birriel",
"PostCode": "75200",
"LatLong": "-33.7334,-57.4003"
}
]
}
]
}
]
},
{
"Name": "Durazno",
"Code": "05",
"Provinces": [
{
"Communities": [
{
"Places": [
{
"Name": "Molles Chico",
"PostCode": "45100",
"LatLong": "-33.5,-55.2167"
},
{
"Name": "Parada Sur",
"PostCode": "45100",
"LatLong": "-32.8413,-56.4527"
},
{
"Name": "Pueblo Centenario",
"PostCode": "45100",
"LatLong": "-32.8667,-56.4667"
},
{
"Name": "Sarandi De La China",
"PostCode": "45100",
"LatLong": "-32.8413,-56.4527"
},
{
"Name": "Parish",
"PostCode": "45100",
"LatLong": "-32.8413,-56.4527"
},
{
"Name": "Palmar De Porrua",
"PostCode": "65100",
"LatLong": "-32.7917,-57.4764"
},
{
"Name": "Tejera",
"PostCode": "97000",
"LatLong": "-33.3333,-56.4667"
},
{
"Name": "Barrio Duran",
"PostCode": "97000",
"LatLong": "-33.0983,-56.0159"
},
{
"Name": "Capilla De Farruco",
"PostCode": "97000",
"LatLong": "-32.8833,-55.4167"
},
{
"Name": "Fonseca",
"PostCode": "97000",
"LatLong": "-33.0983,-56.0159"
},
{
"Name": "Carlos Reyles",
"PostCode": "97000",
"LatLong": "-33.05,-56.4833"
},
{
"Name": "Cuchilla De Ramirez",
"PostCode": "97000",
"LatLong": "-33.0983,-56.0159"
},
{
"Name": "Ombues De Oribe",
"PostCode": "97000",
"LatLong": "-33.3,-56.35"
},
{
"Name": "Cuchilla Del Rincon",
"PostCode": "97000",
"LatLong": "-33.0983,-56.0159"
},
{
"Name": "Verdun",
"PostCode": "97000",
"LatLong": "-32.6667,-55.45"
},
{
"Name": "Rincon De Los Tapes",
"PostCode": "97000",
"LatLong": "-33.0983,-56.0159"
},
{
"Name": "Rolon",
"PostCode": "97000",
"LatLong": "-33.1167,-55.9833"
},
{
"Name": "Estacion Chileno",
"PostCode": "97000",
"LatLong": "-33.0983,-56.0159"
},
{
"Name": "Cerrezuelo",
"PostCode": "97000",
"LatLong": "-32.7667,-55.4333"
},
{
"Name": "Salinas Chico",
"PostCode": "97000",
"LatLong": "-33.0983,-56.0159"
},
{
"Name": "Villa Del Carmen",
"PostCode": "97000",
"LatLong": "-33.25,-56.0167"
},
{
"Name": "Paso Real De Carpinteria",
"PostCode": "97000",
"LatLong": "-33.0983,-56.0159"
},
{
"Name": "Aguas Buenas",
"PostCode": "97000",
"LatLong": "-32.8,-55.8"
},
{
"Name": "Las Palmas",
"PostCode": "97000",
"LatLong": "-33.0983,-56.0159"
},
{
"Name": "Las Tunas",
"PostCode": "97000",
"LatLong": "-34.7802,-55.5648"
},
{
"Name": "Higueras De Carpinteria",
"PostCode": "97000",
"LatLong": "-33.0983,-56.0159"
},
{
"Name": "Cerro Convento",
"PostCode": "97000",
"LatLong": "-32.75,-55.65"
},
{
"Name": "Puntas De Carpinteria",
"PostCode": "97000",
"LatLong": "-33.0983,-56.0159"
},
{
"Name": "La Paloma",
"PostCode": "97000",
"LatLong": "-32.7167,-55.6"
},
{
"Name": "Maestre Campo",
"PostCode": "97000",
"LatLong": "-33.0983,-56.0159"
},
{
"Name": "La Mazamorra",
"PostCode": "97000",
"LatLong": "-32.5333,-55.5"
},
{
"Name": "Chacras De Durazno",
"PostCode": "97000",
"LatLong": "-33.0983,-56.0159"
},
{
"Name": "Baygorria",
"PostCode": "97000",
"LatLong": "-32.8768,-56.8134"
},
{
"Name": "Mariscala Del Carmen",
"PostCode": "97000",
"LatLong": "-33.0983,-56.0159"
},
{
"Name": "Rincon De Cuadra",
"PostCode": "97000",
"LatLong": "-33.3833,-56.4167"
},
{
"Name": "Chileno",
"PostCode": "97000",
"LatLong": "-33.0983,-56.0159"
},
{
"Name": "Barrancas Coloradas",
"PostCode": "97000",
"LatLong": "-34.2417,-57.2209"
},
{
"Name": "Caballero",
"PostCode": "97000",
"LatLong": "-33.0983,-56.0159"
},
{
"Name": "Las Cañas",
"PostCode": "97000",
"LatLong": "-32.9333,-55.5167"
},
{
"Name": "Puglia",
"PostCode": "97000",
"LatLong": "-33.0983,-56.0159"
},
{
"Name": "Feliciano",
"PostCode": "97000",
"LatLong": "-33.1828,-56.8117"
},
{
"Name": "Arroyo De Los Perros",
"PostCode": "97000",
"LatLong": "-33.0983,-56.0159"
},
{
"Name": "Salinas",
"PostCode": "97000",
"LatLong": "-34.7724,-55.8574"
},
{
"Name": "Chileno Chico",
"PostCode": "97000",
"LatLong": "-33.0983,-56.0159"
},
{
"Name": "Ceibal",
"PostCode": "97000",
"LatLong": "-32.8833,-55.5167"
},
{
"Name": "Blanquillo Al Oeste",
"PostCode": "97000",
"LatLong": "-33.0983,-56.0159"
},
{
"Name": "Los Agregados",
"PostCode": "97000",
"LatLong": "-32.7833,-55.9"
},
{
"Name": "Mouriño",
"PostCode": "97000",
"LatLong": "-32.9,-56.1333"
},
{
"Name": "Molles De Quinteros",
"PostCode": "97000",
"LatLong": "-33.0983,-56.0159"
},
{
"Name": "Sarandi De Rio Negro",
"PostCode": "97000",
"LatLong": "-32.5437,-56.8658"
},
{
"Name": "Pueblo De Alvarez",
"PostCode": "97000",
"LatLong": "-33.0983,-56.0159"
},
{
"Name": "San Jose De Las Cañas",
"PostCode": "97000",
"LatLong": "-32.8333,-55.4833"
},
{
"Name": "Chileno Grande (Aguero)",
"PostCode": "97000",
"LatLong": "-33.0983,-56.0159"
},
{
"Name": "Batovi",
"PostCode": "97000",
"LatLong": "-31.9167,-55.9333"
},
{
"Name": "Las Acacias",
"PostCode": "97000",
"LatLong": "-33.0983,-56.0159"
},
{
"Name": "San Jorge",
"PostCode": "97000",
"LatLong": "-32.8667,-55.9167"
},
{
"Name": "Sandu Chico",
"PostCode": "97000",
"LatLong": "-33.0983,-56.0159"
},
{
"Name": "Santa Bernardina",
"PostCode": "97000",
"LatLong": "-33.3667,-56.4833"
},
{
"Name": "Paso Ramirez",
"PostCode": "97000",
"LatLong": "-33.0983,-56.0159"
},
{
"Name": "Durazno",
"PostCode": "97000",
"LatLong": "-33.3806,-56.5236"
},
{
"Name": "Municipio De Durazno",
"PostCode": "97000",
"LatLong": "-33.0983,-56.0159"
},
{
"Name": "Blanquillo",
"PostCode": "97000",
"LatLong": "-32.7667,-55.6333"
},
{
"Name": "Villasboas",
"PostCode": "97000",
"LatLong": "-33.0983,-56.0159"
},
{
"Name": "Maria Cejas",
"PostCode": "97000",
"LatLong": "-33.0833,-56.1833"
},
{
"Name": "Costa De Cuadra",
"PostCode": "97000",
"LatLong": "-33.0983,-56.0159"
},
{
"Name": "La Alegria",
"PostCode": "97000",
"LatLong": "-32.6,-55.5833"
},
{
"Name": "Sauce De Herrera",
"PostCode": "97000",
"LatLong": "-33.0983,-56.0159"
},
{
"Name": "Abella",
"PostCode": "97000",
"LatLong": "-33.0983,-56.0159"
},
{
"Name": "Paso Tejera",
"PostCode": "97000",
"LatLong": "-33.0983,-56.0159"
},
{
"Name": "Los Tapes",
"PostCode": "97000",
"LatLong": "-33.0983,-56.0159"
},
{
"Name": "Sarandi Del Yi",
"PostCode": "98000",
"LatLong": "-33.35,-55.6333"
},
{
"Name": "Rossell Y Rius",
"PostCode": "98000",
"LatLong": "-33.1833,-55.7"
},
{
"Name": "Paso De Aguirre",
"PostCode": "98000",
"LatLong": "-33.4201,-55.4206"
},
{
"Name": "Elias Regules",
"PostCode": "98000",
"LatLong": "-33.4201,-55.4206"
},
{
"Name": "Malbajar Este",
"PostCode": "98000",
"LatLong": "-33.4201,-55.4206"
},
{
"Name": "Mariscala",
"PostCode": "98000",
"LatLong": "-34.0409,-54.7773"
},
{
"Name": "Tala De Mariscala",
"PostCode": "98000",
"LatLong": "-33.4201,-55.4206"
},
{
"Name": "Paso De Castro",
"PostCode": "98000",
"LatLong": "-33.4201,-55.4206"
},
{
"Name": "Malbajar Oeste",
"PostCode": "98000",
"LatLong": "-33.4201,-55.4206"
},
{
"Name": "Puntas De Malbajar",
"PostCode": "98000",
"LatLong": "-33.4201,-55.4206"
},
{
"Name": "Paso Del Medio Las Palmas",
"PostCode": "98000",
"LatLong": "-33.4201,-55.4206"
},
{
"Name": "De Dios",
"PostCode": "98000",
"LatLong": "-33.4201,-55.4206"
},
{
"Name": "Puntas De Herrera",
"PostCode": "98000",
"LatLong": "-33.4201,-55.4206"
}
]
}
]
}
]
},
{
"Name": "Flores",
"Code": "06",
"Provinces": [
{
"Communities": [
{
"Places": [
{
"Name": "Arroyo Malo",
"PostCode": "85000",
"LatLong": "-33.3333,-56.9333"
},
{
"Name": "Costas Del Tala",
"PostCode": "85000",
"LatLong": "-33.5592,-56.904"
},
{
"Name": "Sarandi",
"PostCode": "85000",
"LatLong": "-33.7333,-56.3333"
},
{
"Name": "Chacras",
"PostCode": "85000",
"LatLong": "-33.5592,-56.904"
},
{
"Name": "Ismael Cortinas",
"PostCode": "85000",
"LatLong": "-33.9606,-57.0898"
},
{
"Name": "Villa Pastora",
"PostCode": "85000",
"LatLong": "-33.5592,-56.904"
},
{
"Name": "El Coronilla",
"PostCode": "85000",
"LatLong": "-33.2608,-57.077"
},
{
"Name": "Ferrizo",
"PostCode": "85000",
"LatLong": "-33.5592,-56.904"
},
{
"Name": "Pueblo Pintos",
"PostCode": "85000",
"LatLong": "-33.884,-56.8384"
},
{
"Name": "Paso  De Lugo",
"PostCode": "85000",
"LatLong": "-33.5592,-56.904"
},
{
"Name": "Costas De San Jose",
"PostCode": "85000",
"LatLong": "-33.85,-56.8833"
},
{
"Name": "Arenal Grande",
"PostCode": "85000",
"LatLong": "-33.5592,-56.904"
},
{
"Name": "Paso Hondo",
"PostCode": "85000",
"LatLong": "-32.3333,-55.8833"
},
{
"Name": "Cuchilla De Villasboas",
"PostCode": "85000",
"LatLong": "-33.5592,-56.904"
},
{
"Name": "Andresito",
"PostCode": "85000",
"LatLong": "-33.1683,-57.1285"
},
{
"Name": "Rincon Del Palacio",
"PostCode": "85000",
"LatLong": "-33.5592,-56.904"
},
{
"Name": "Arenal Chico",
"PostCode": "85000",
"LatLong": "-33.5785,-57.1102"
},
{
"Name": "Villasboas",
"PostCode": "85000",
"LatLong": "-33.5592,-56.904"
},
{
"Name": "Puntas Del Sauce",
"PostCode": "85000",
"LatLong": "-33.8215,-57.0195"
},
{
"Name": "Puntas De San Jose",
"PostCode": "85000",
"LatLong": "-33.5592,-56.904"
},
{
"Name": "Juan Jose Castro",
"PostCode": "85000",
"LatLong": "-33.5,-56.75"
},
{
"Name": "Los Puentes",
"PostCode": "85000",
"LatLong": "-33.5592,-56.904"
},
{
"Name": "Santa Adelaida",
"PostCode": "85000",
"LatLong": "-33.7654,-57.1544"
},
{
"Name": "Puntas De Chamanga",
"PostCode": "85000",
"LatLong": "-33.5592,-56.904"
},
{
"Name": "Marincho",
"PostCode": "85000",
"LatLong": "-33.2333,-57.1333"
},
{
"Name": "Colonia Alemana",
"PostCode": "85000",
"LatLong": "-33.4618,-57.0252"
},
{
"Name": "San Gregorio De Flores",
"PostCode": "85000",
"LatLong": "-33.5592,-56.904"
},
{
"Name": "Cerro Colorado",
"PostCode": "85000",
"LatLong": "-33.7262,-56.7989"
},
{
"Name": "La Casilla",
"PostCode": "85000",
"LatLong": "-33.6703,-56.9472"
},
{
"Name": "La Alianza",
"PostCode": "85000",
"LatLong": "-33.5592,-56.904"
},
{
"Name": "Trinidad",
"PostCode": "85000",
"LatLong": "-33.5389,-56.8886"
},
{
"Name": "Cañada Amilivia",
"PostCode": "85000",
"LatLong": "-33.5592,-56.904"
},
{
"Name": "Puntas De Marincho",
"PostCode": "85000",
"LatLong": "-33.5222,-57.0497"
},
{
"Name": "Puntas De Sarandi",
"PostCode": "85000",
"LatLong": "-33.5592,-56.904"
},
{
"Name": "El Totoral",
"PostCode": "85000",
"LatLong": "-33.4318,-56.9709"
},
{
"Name": "La Guardia",
"PostCode": "85000",
"LatLong": "-33.5592,-56.904"
},
{
"Name": "Chacras De Borghi",
"PostCode": "85000",
"LatLong": "-33.5592,-56.904"
},
{
"Name": "Ahogados",
"PostCode": "94100",
"LatLong": "-33.75,-56.4667"
},
{
"Name": "Puntas Del Corral De Piedra",
"PostCode": "94100",
"LatLong": "-33.5224,-56.5237"
},
{
"Name": "Talas De Maciel",
"PostCode": "94100",
"LatLong": "-33.5224,-56.5237"
},
{
"Name": "La Cordobesa",
"PostCode": "97000",
"LatLong": "-33.0983,-56.0159"
}
]
}
]
}
]
},
{
"Name": "Florida",
"Code": "07",
"Provinces": [
{
"Communities": [
{
"Places": [
{
"Name": "Nico Perez",
"PostCode": "34200",
"LatLong": "-33.4833,-55.15"
},
{
"Name": "Arrayan",
"PostCode": "34200",
"LatLong": "-33.1944,-55.3167"
},
{
"Name": "Molles Del Pescado",
"PostCode": "34200",
"LatLong": "-33.4667,-55.2"
},
{
"Name": "Puntas De Illescas",
"PostCode": "34200",
"LatLong": "-33.1944,-55.3167"
},
{
"Name": "Pueblo De Los Morochos",
"PostCode": "35100",
"LatLong": "-33.2667,-55.1"
},
{
"Name": "Santa Teresa",
"PostCode": "94000",
"LatLong": "-34.4333,-57.7167"
},
{
"Name": "San Juan",
"PostCode": "94000",
"LatLong": "-33.9333,-57.4667"
},
{
"Name": "Juncal",
"PostCode": "94000",
"LatLong": "-34.0971,-56.1851"
},
{
"Name": "San Geronimo",
"PostCode": "94000",
"LatLong": "-34.1414,-56.4228"
},
{
"Name": "Candil",
"PostCode": "94000",
"LatLong": "-34.0667,-56.3"
},
{
"Name": "Costa De Arias",
"PostCode": "94000",
"LatLong": "-34.1414,-56.4228"
},
{
"Name": "San Gabriel",
"PostCode": "94000",
"LatLong": "-34.05,-55.8833"
},
{
"Name": "Las Piedritas",
"PostCode": "94000",
"LatLong": "-34.1414,-56.4228"
},
{
"Name": "Berrondo",
"PostCode": "94000",
"LatLong": "-34.1474,-56.2812"
},
{
"Name": "Colonia Sanchez",
"PostCode": "94000",
"LatLong": "-34.1414,-56.4228"
},
{
"Name": "Palermo",
"PostCode": "94000",
"LatLong": "-34.9102,-56.1784"
},
{
"Name": "Hernandarias",
"PostCode": "94000",
"LatLong": "-34.1414,-56.4228"
},
{
"Name": "Villa Vieja",
"PostCode": "94000",
"LatLong": "-34.0584,-56.3673"
},
{
"Name": "Puntas De Calleros",
"PostCode": "94000",
"LatLong": "-34.1414,-56.4228"
},
{
"Name": "La Cruz",
"PostCode": "94000",
"LatLong": "-33.9299,-56.2385"
},
{
"Name": "Tornero",
"PostCode": "94000",
"LatLong": "-34.1414,-56.4228"
},
{
"Name": "Florida",
"PostCode": "94000",
"LatLong": "-34.0956,-56.2142"
},
{
"Name": "Costas Del Pintado",
"PostCode": "94000",
"LatLong": "-34.1414,-56.4228"
},
{
"Name": "Talita",
"PostCode": "94000",
"LatLong": "-33.9252,-56.0422"
},
{
"Name": "Cerro De La Macana",
"PostCode": "94000",
"LatLong": "-34.1414,-56.4228"
},
{
"Name": "Chacras De Florida",
"PostCode": "94000",
"LatLong": "-34.1414,-56.4228"
},
{
"Name": "Costa De La Cruz",
"PostCode": "94000",
"LatLong": "-34.1414,-56.4228"
},
{
"Name": "La Macana",
"PostCode": "94000",
"LatLong": "-34.05,-56.2"
},
{
"Name": "Urioste",
"PostCode": "94000",
"LatLong": "-34.1414,-56.4228"
},
{
"Name": "Cerros De Florida",
"PostCode": "94000",
"LatLong": "-34.1414,-56.4228"
},
{
"Name": "Pantanoso De Castro",
"PostCode": "94000",
"LatLong": "-34.1414,-56.4228"
},
{
"Name": "Molles Del Timote",
"PostCode": "94000",
"LatLong": "-34.1414,-56.4228"
},
{
"Name": "Dr. A. Gallinal",
"PostCode": "94000",
"LatLong": "-34.1414,-56.4228"
},
{
"Name": "Paso Calleros",
"PostCode": "94000",
"LatLong": "-34.1414,-56.4228"
},
{
"Name": "Tala De Castro",
"PostCode": "94000",
"LatLong": "-34.1414,-56.4228"
},
{
"Name": "Costas De Arias",
"PostCode": "94000",
"LatLong": "-34.1414,-56.4228"
},
{
"Name": "Chacras Del Pintado",
"PostCode": "94000",
"LatLong": "-34.1414,-56.4228"
},
{
"Name": "San Pedro De Timote",
"PostCode": "94000",
"LatLong": "-34.1414,-56.4228"
},
{
"Name": "Polanco Del Yi",
"PostCode": "94100",
"LatLong": "-33.4833,-56.15"
},
{
"Name": "Piedras Coloradas",
"PostCode": "94100",
"LatLong": "-32.3718,-57.609"
},
{
"Name": "Puntas De Sarandi",
"PostCode": "94100",
"LatLong": "-33.5224,-56.5237"
},
{
"Name": "Sarandi Grande",
"PostCode": "94100",
"LatLong": "-33.7333,-56.3333"
},
{
"Name": "Caserio La Fundacion",
"PostCode": "94100",
"LatLong": "-33.5224,-56.5237"
},
{
"Name": "Puntas De Maciel",
"PostCode": "94100",
"LatLong": "-33.6,-56.35"
},
{
"Name": "Calleri",
"PostCode": "94100",
"LatLong": "-33.5224,-56.5237"
},
{
"Name": "Corral De Piedra",
"PostCode": "94100",
"LatLong": "-33.8833,-56.45"
},
{
"Name": "Sauce De Maciel",
"PostCode": "94100",
"LatLong": "-33.5224,-56.5237"
},
{
"Name": "Pintado",
"PostCode": "94100",
"LatLong": "-33.8347,-56.307"
},
{
"Name": "Puntas De Sauce De Maciel",
"PostCode": "94100",
"LatLong": "-33.5224,-56.5237"
},
{
"Name": "Costas De Maciel",
"PostCode": "94100",
"LatLong": "-33.5224,-56.5237"
},
{
"Name": "Costa Del Tala",
"PostCode": "94100",
"LatLong": "-33.5224,-56.5237"
},
{
"Name": "Tala De Maciel",
"PostCode": "94100",
"LatLong": "-33.5224,-56.5237"
},
{
"Name": "Cuchilla Santo Domingo",
"PostCode": "94100",
"LatLong": "-33.5224,-56.5237"
},
{
"Name": "Villa Hipica",
"PostCode": "94100",
"LatLong": "-33.5224,-56.5237"
},
{
"Name": "Costa De Parana",
"PostCode": "94100",
"LatLong": "-33.5224,-56.5237"
},
{
"Name": "Arroyo De Los Negros",
"PostCode": "94100",
"LatLong": "-33.5224,-56.5237"
},
{
"Name": "La Cimbra",
"PostCode": "94100",
"LatLong": "-33.5224,-56.5237"
},
{
"Name": "25 De Mayo",
"PostCode": "95100",
"LatLong": "-34.1892,-56.3394"
},
{
"Name": "Paso Vela",
"PostCode": "95100",
"LatLong": "-34.1776,-56.3703"
},
{
"Name": "Paso De Los Novillos",
"PostCode": "95100",
"LatLong": "-34.166,-56.4012"
},
{
"Name": "Cardal",
"PostCode": "95200",
"LatLong": "-34.2906,-56.3889"
},
{
"Name": "Costas De Santa Lucia Chico",
"PostCode": "95200",
"LatLong": "-34.2906,-56.3889"
},
{
"Name": "Independencia",
"PostCode": "95300",
"LatLong": "-34.3517,-56.3983"
},
{
"Name": "25 De Agosto",
"PostCode": "95400",
"LatLong": "-34.4117,-56.4022"
},
{
"Name": "Mendoza Grande",
"PostCode": "95500",
"LatLong": "-34.2744,-56.3578"
},
{
"Name": "Rincon De Vignoli",
"PostCode": "95500",
"LatLong": "-34.2744,-56.3578"
},
{
"Name": "Puente De Mendoza",
"PostCode": "95500",
"LatLong": "-34.2744,-56.3578"
},
{
"Name": "Arroyo Pelado",
"PostCode": "95500",
"LatLong": "-34.2744,-56.3578"
},
{
"Name": "Mendoza Chico",
"PostCode": "95600",
"LatLong": "-34.2375,-56.2167"
},
{
"Name": "Chamizo",
"PostCode": "96100",
"LatLong": "-34.2413,-55.9167"
},
{
"Name": "Costas De Chamizo",
"PostCode": "96100",
"LatLong": "-34.2413,-55.9167"
},
{
"Name": "Chamizo Chico",
"PostCode": "96100",
"LatLong": "-34.2413,-55.9167"
},
{
"Name": "Costas Del Santa Lucia Grande",
"PostCode": "96100",
"LatLong": "-34.2413,-55.9167"
},
{
"Name": "Fray Marcos",
"PostCode": "96200",
"LatLong": "-34.1939,-55.7345"
},
{
"Name": "Costas De Chamizo Grande",
"PostCode": "96200",
"LatLong": "-34.2081,-55.732"
},
{
"Name": "Arroyo Latorre",
"PostCode": "96200",
"LatLong": "-34.2081,-55.732"
},
{
"Name": "La Escobilla",
"PostCode": "96200",
"LatLong": "-34.2081,-55.732"
},
{
"Name": "Arroyo Chamizo",
"PostCode": "96200",
"LatLong": "-34.2081,-55.732"
},
{
"Name": "Puntas Del Arroyo Latorre",
"PostCode": "96200",
"LatLong": "-34.2081,-55.732"
},
{
"Name": "Puntas De La Escobilla",
"PostCode": "96200",
"LatLong": "-34.2081,-55.732"
},
{
"Name": "Casupa",
"PostCode": "96300",
"LatLong": "-34.0999,-55.6481"
},
{
"Name": "Vignoli",
"PostCode": "96300",
"LatLong": "-34.0999,-55.6481"
},
{
"Name": "Costas Del Amarillo",
"PostCode": "96300",
"LatLong": "-34.0999,-55.6481"
},
{
"Name": "Puntas De Chamizo",
"PostCode": "96300",
"LatLong": "-34.0999,-55.6481"
},
{
"Name": "Reboledo",
"PostCode": "96400",
"LatLong": "-33.9911,-55.6474"
},
{
"Name": "Piedra Campana",
"PostCode": "96400",
"LatLong": "-33.9911,-55.6474"
},
{
"Name": "Alejandro Gallinal",
"PostCode": "96500",
"LatLong": "-33.8625,-55.5426"
},
{
"Name": "Paso Real De Mansavillagra",
"PostCode": "96500",
"LatLong": "-33.8625,-55.5426"
},
{
"Name": "Arteaga",
"PostCode": "96500",
"LatLong": "-33.8625,-55.5426"
},
{
"Name": "Puntas De Mansavillagra",
"PostCode": "96500",
"LatLong": "-33.8625,-55.5426"
},
{
"Name": "Puntas De Chamame",
"PostCode": "96500",
"LatLong": "-33.8625,-55.5426"
},
{
"Name": "Sauce Del Yi",
"PostCode": "97000",
"LatLong": "-33.4667,-55.6167"
},
{
"Name": "Goñi",
"PostCode": "97000",
"LatLong": "-33.5167,-56.4"
},
{
"Name": "Sauce De Villanueva",
"PostCode": "97000",
"LatLong": "-33.0983,-56.0159"
},
{
"Name": "Rincon De Los Camilos",
"PostCode": "97000",
"LatLong": "-33.0983,-56.0159"
},
{
"Name": "Santa Clara",
"PostCode": "98000",
"LatLong": "-32.9167,-54.9667"
},
{
"Name": "Mansavillagra",
"PostCode": "98000",
"LatLong": "-33.4201,-55.4206"
},
{
"Name": "Ferrer",
"PostCode": "98000",
"LatLong": "-33.4833,-55.5667"
},
{
"Name": "Chilcas",
"PostCode": "98000",
"LatLong": "-33.55,-55.6667"
},
{
"Name": "Montecoral",
"PostCode": "98000",
"LatLong": "-33.4201,-55.4206"
},
{
"Name": "Capilla Del Sauce",
"PostCode": "98000",
"LatLong": "-33.4167,-55.6333"
},
{
"Name": "La Victoria",
"PostCode": "98000",
"LatLong": "-33.4201,-55.4206"
},
{
"Name": "Barra Molles Del Timote",
"PostCode": "98000",
"LatLong": "-33.4201,-55.4206"
},
{
"Name": "Estacion Capilla Del Sauce",
"PostCode": "98000",
"LatLong": "-33.4201,-55.4206"
},
{
"Name": "Rincon Sauce Del Yi",
"PostCode": "98000",
"LatLong": "-33.4201,-55.4206"
},
{
"Name": "Tabare",
"PostCode": "98000",
"LatLong": "-33.4201,-55.4206"
},
{
"Name": "Arroyo Monzon",
"PostCode": "98000",
"LatLong": "-33.4201,-55.4206"
},
{
"Name": "Costa De Illescas",
"PostCode": "98000",
"LatLong": "-33.4201,-55.4206"
},
{
"Name": "Chingolas",
"PostCode": "98000",
"LatLong": "-33.4201,-55.4206"
},
{
"Name": "La Palma",
"PostCode": "98000",
"LatLong": "-33.4201,-55.4206"
},
{
"Name": "Barra Sauce De Mansavillagra",
"PostCode": "98000",
"LatLong": "-33.4201,-55.4206"
}
]
}
]
}
]
},
{
"Name": "Lavalleja",
"Code": "08",
"Provinces": [
{
"Communities": [
{
"Places": [
{
"Name": "Paso De Los Troncos",
"PostCode": "20500",
"LatLong": "-34.06,-54.5059"
},
{
"Name": "Pororo",
"PostCode": "20500",
"LatLong": "-34.06,-54.5059"
},
{
"Name": "Marmaraja",
"PostCode": "20500",
"LatLong": "-34.06,-54.5059"
},
{
"Name": "Puente De Marmaraja",
"PostCode": "20500",
"LatLong": "-34.06,-54.5059"
},
{
"Name": "Villa Del Rosario",
"PostCode": "30000",
"LatLong": "-34.3112,-55.476"
},
{
"Name": "Ladrillos",
"PostCode": "30000",
"LatLong": "-33.75,-55.2833"
},
{
"Name": "Estacion Solis",
"PostCode": "30000",
"LatLong": "-34.3663,-55.4478"
},
{
"Name": "Polanco Norte",
"PostCode": "30000",
"LatLong": "-33.8752,-55.1217"
},
{
"Name": "Vejigas",
"PostCode": "30000",
"LatLong": "-34.2833,-55.2333"
},
{
"Name": "Tapes Grande",
"PostCode": "30000",
"LatLong": "-34.0654,-55.0475"
},
{
"Name": "Polanco",
"PostCode": "30000",
"LatLong": "-33.8752,-55.1217"
},
{
"Name": "Estacion Ortiz",
"PostCode": "30000",
"LatLong": "-34.3398,-55.3933"
},
{
"Name": "Puntas De Santa Lucia",
"PostCode": "30000",
"LatLong": "-34.1919,-55.1609"
},
{
"Name": "El Alto",
"PostCode": "30000",
"LatLong": "-34.0654,-55.0475"
},
{
"Name": "Solis",
"PostCode": "30000",
"LatLong": "-34.3333,-55.45"
},
{
"Name": "Barriga Negra",
"PostCode": "30000",
"LatLong": "-34.0654,-55.0475"
},
{
"Name": "Las Achiras",
"PostCode": "30000",
"LatLong": "-33.7259,-54.6237"
},
{
"Name": "San Francisco De Las Sierras",
"PostCode": "30000",
"LatLong": "-34.0654,-55.0475"
},
{
"Name": "El Soldado",
"PostCode": "30000",
"LatLong": "-34.2057,-55.3622"
},
{
"Name": "Rincon De Silva",
"PostCode": "30000",
"LatLong": "-34.0654,-55.0475"
},
{
"Name": "Santa Lucia",
"PostCode": "30000",
"LatLong": "-34.1919,-55.1609"
},
{
"Name": "Abra De Zabaleta",
"PostCode": "30000",
"LatLong": "-34.0654,-55.0475"
},
{
"Name": "Mariscala",
"PostCode": "30000",
"LatLong": "-34.0409,-54.7773"
},
{
"Name": "Soldado",
"PostCode": "30000",
"LatLong": "-34.0654,-55.0475"
},
{
"Name": "Barrio La Coronilla - Ancap",
"PostCode": "30000",
"LatLong": "-34.3947,-55.299"
},
{
"Name": "Arroyo De Los Patos",
"PostCode": "30000",
"LatLong": "-34.0654,-55.0475"
},
{
"Name": "Verdun",
"PostCode": "30000",
"LatLong": "-32.6667,-55.45"
},
{
"Name": "Manguera Azul",
"PostCode": "30000",
"LatLong": "-34.0654,-55.0475"
},
{
"Name": "Minas",
"PostCode": "30000",
"LatLong": "-34.3759,-55.2377"
},
{
"Name": "Barra De Los Chanchos",
"PostCode": "30000",
"LatLong": "-34.0654,-55.0475"
},
{
"Name": "Higueritas",
"PostCode": "30000",
"LatLong": "-34.3442,-55.282"
},
{
"Name": "Ombues De Bentancor",
"PostCode": "30000",
"LatLong": "-34.0654,-55.0475"
},
{
"Name": "Cerro Pelado",
"PostCode": "30000",
"LatLong": "-34.8815,-54.9767"
},
{
"Name": "El Tigre",
"PostCode": "30000",
"LatLong": "-34.0654,-55.0475"
},
{
"Name": "Polanco Sur",
"PostCode": "30000",
"LatLong": "-33.8983,-55.1672"
},
{
"Name": "Canteras Del Verdun",
"PostCode": "30000",
"LatLong": "-34.0654,-55.0475"
},
{
"Name": "La Cuchilla",
"PostCode": "30000",
"LatLong": "-32.598,-53.3858"
},
{
"Name": "Espuelitas",
"PostCode": "30000",
"LatLong": "-34.0654,-55.0475"
},
{
"Name": "Piraraja",
"PostCode": "30000",
"LatLong": "-33.7333,-54.75"
},
{
"Name": "Puntas De Barriga Negra",
"PostCode": "30000",
"LatLong": "-34.0654,-55.0475"
},
{
"Name": "Rincon De Mariscala",
"PostCode": "30000",
"LatLong": "-33.9347,-54.5856"
},
{
"Name": "Puntas De Polanco",
"PostCode": "30000",
"LatLong": "-34.0654,-55.0475"
},
{
"Name": "Velazquez",
"PostCode": "30000",
"LatLong": "-34.4707,-55.2859"
},
{
"Name": "Valle De Solis",
"PostCode": "30000",
"LatLong": "-34.0654,-55.0475"
},
{
"Name": "Marco De Los Reyes",
"PostCode": "30000",
"LatLong": "-34.3919,-54.9852"
},
{
"Name": "Colon",
"PostCode": "30000",
"LatLong": "-33.8764,-54.7203"
},
{
"Name": "Casupa Chico",
"PostCode": "30000",
"LatLong": "-34.0654,-55.0475"
},
{
"Name": "Barrancas",
"PostCode": "30000",
"LatLong": "-33.6341,-53.8059"
},
{
"Name": "Los Tapes",
"PostCode": "30000",
"LatLong": "-34.0654,-55.0475"
},
{
"Name": "Campanero",
"PostCode": "30000",
"LatLong": "-34.3307,-55.25"
},
{
"Name": "Arroyo Del Medio",
"PostCode": "30000",
"LatLong": "-34.0654,-55.0475"
},
{
"Name": "Villa Serrana",
"PostCode": "30000",
"LatLong": "-34.3184,-54.9836"
},
{
"Name": "Arequita",
"PostCode": "30000",
"LatLong": "-34.0654,-55.0475"
},
{
"Name": "La Plata",
"PostCode": "30000",
"LatLong": "-34.4324,-55.302"
},
{
"Name": "Roldan",
"PostCode": "30000",
"LatLong": "-34.0654,-55.0475"
},
{
"Name": "Costas Del Soldado",
"PostCode": "30000",
"LatLong": "-34.1906,-55.3451"
},
{
"Name": "Puntas De San Francisco",
"PostCode": "30000",
"LatLong": "-34.0654,-55.0475"
},
{
"Name": "Chamame",
"PostCode": "30000",
"LatLong": "-34.0654,-55.0475"
},
{
"Name": "Molles De Aigua",
"PostCode": "30000",
"LatLong": "-34.0654,-55.0475"
},
{
"Name": "Paso De Mesa",
"PostCode": "30000",
"LatLong": "-34.0654,-55.0475"
},
{
"Name": "Puntas Del Perdido",
"PostCode": "30000",
"LatLong": "-34.0654,-55.0475"
},
{
"Name": "Puntas De Vejigas",
"PostCode": "30000",
"LatLong": "-34.0654,-55.0475"
},
{
"Name": "Puntas De Los Chanchos",
"PostCode": "30000",
"LatLong": "-34.0654,-55.0475"
},
{
"Name": "Sierras Blancas",
"PostCode": "30000",
"LatLong": "-34.0654,-55.0475"
},
{
"Name": "Tapes Chico",
"PostCode": "30000",
"LatLong": "-34.0654,-55.0475"
},
{
"Name": "Ortiz Castro",
"PostCode": "30000",
"LatLong": "-34.0654,-55.0475"
},
{
"Name": "Estacion Andreoni",
"PostCode": "30000",
"LatLong": "-34.0654,-55.0475"
},
{
"Name": "El Perdido",
"PostCode": "30000",
"LatLong": "-34.0654,-55.0475"
},
{
"Name": "Costa Del Lenguazo",
"PostCode": "30000",
"LatLong": "-34.0654,-55.0475"
},
{
"Name": "Blanes Viale",
"PostCode": "30000",
"LatLong": "-34.0654,-55.0475"
},
{
"Name": "Consejo Del Niño",
"PostCode": "30000",
"LatLong": "-34.0654,-55.0475"
},
{
"Name": "Puntas De Solis",
"PostCode": "30000",
"LatLong": "-34.0654,-55.0475"
},
{
"Name": "Solis De Mataojo",
"PostCode": "30100",
"LatLong": "-34.5995,-55.4681"
},
{
"Name": "Aguas Blancas",
"PostCode": "30100",
"LatLong": "-34.6146,-55.4214"
},
{
"Name": "Paso Arbelo",
"PostCode": "30100",
"LatLong": "-34.6146,-55.4214"
},
{
"Name": "Sarandi De Gutierrez",
"PostCode": "30300",
"LatLong": "-33.5333,-54.6"
},
{
"Name": "Jose Pedro Varela",
"PostCode": "30300",
"LatLong": "-33.4545,-54.5359"
},
{
"Name": "Molles De Cañada Grande",
"PostCode": "30300",
"LatLong": "-33.6221,-54.5426"
},
{
"Name": "Retamosa",
"PostCode": "30300",
"LatLong": "-33.6167,-54.5703"
},
{
"Name": "Rincon De Cebollati",
"PostCode": "30300",
"LatLong": "-33.6533,-54.4554"
},
{
"Name": "Carnales",
"PostCode": "30300",
"LatLong": "-33.6167,-54.5703"
},
{
"Name": "Gutierrez",
"PostCode": "30300",
"LatLong": "-33.5333,-54.6"
},
{
"Name": "Costas De Corrales",
"PostCode": "30300",
"LatLong": "-33.6167,-54.5703"
},
{
"Name": "19 De Junio",
"PostCode": "30300",
"LatLong": "-33.6102,-54.3299"
},
{
"Name": "Alonso",
"PostCode": "30300",
"LatLong": "-33.4199,-54.388"
},
{
"Name": "Aramendia",
"PostCode": "30300",
"LatLong": "-33.6378,-54.6195"
},
{
"Name": "Azucar",
"PostCode": "30300",
"LatLong": "-34.7787,-55.2358"
},
{
"Name": "Sauce De Olimar Chico",
"PostCode": "34100",
"LatLong": "-33.5167,-54.9167"
},
{
"Name": "Zapican",
"PostCode": "34100",
"LatLong": "-33.5167,-54.9167"
},
{
"Name": "Molles Del Sauce",
"PostCode": "34100",
"LatLong": "-33.5167,-54.9167"
},
{
"Name": "Larrosa",
"PostCode": "34200",
"LatLong": "-33.3833,-55.0833"
},
{
"Name": "Godoy",
"PostCode": "34200",
"LatLong": "-31.7667,-56.0167"
},
{
"Name": "Illescas",
"PostCode": "34200",
"LatLong": "-33.6,-55.3333"
},
{
"Name": "Jose Batlle Y Ordoñez",
"PostCode": "34200",
"LatLong": "-33.4667,-55.1167"
},
{
"Name": "Solis Grande",
"PostCode": "91700",
"LatLong": "-34.4782,-55.5309"
},
{
"Name": "Gaetan (Cuchilla De Carbajal)",
"PostCode": "96300",
"LatLong": "-34.0999,-55.6481"
}
]
}
]
}
]
},
{
"Name": "Maldonado",
"Code": "09",
"Provinces": [
{
"Communities": [
{
"Places": [
{
"Name": "Sarandi Del Mataojo",
"PostCode": "20000",
"LatLong": "-34.6728,-55.0382"
},
{
"Name": "Canteras De Marelli",
"PostCode": "20000",
"LatLong": "-34.8435,-54.9451"
},
{
"Name": "Zanja Del Tigre",
"PostCode": "20000",
"LatLong": "-34.579,-55.0594"
},
{
"Name": "Laguna Del Sauce",
"PostCode": "20000",
"LatLong": "-34.8442,-54.9532"
},
{
"Name": "El Eden",
"PostCode": "20000",
"LatLong": "-34.6308,-55.0563"
},
{
"Name": "Los Aromos",
"PostCode": "20000",
"LatLong": "-34.8442,-54.9532"
},
{
"Name": "Mataojo",
"PostCode": "20000",
"LatLong": "-34.6728,-55.0382"
},
{
"Name": "Rincon De Los Sosa",
"PostCode": "20000",
"LatLong": "-34.8442,-54.9532"
},
{
"Name": "Balneario Buenos Aires",
"PostCode": "20000",
"LatLong": "-34.8884,-54.7931"
},
{
"Name": "Pinares - Las Delicias",
"PostCode": "20000",
"LatLong": "-34.8442,-54.9532"
},
{
"Name": "Eden Rock",
"PostCode": "20000",
"LatLong": "-34.865,-54.7558"
},
{
"Name": "Lago De Los Cisnes",
"PostCode": "20000",
"LatLong": "-34.8442,-54.9532"
},
{
"Name": "La Capuera",
"PostCode": "20000",
"LatLong": "-34.8541,-55.129"
},
{
"Name": "San Vicente",
"PostCode": "20000",
"LatLong": "-34.8442,-54.9532"
},
{
"Name": "Maldonado",
"PostCode": "20000",
"LatLong": "-34.9,-54.95"
},
{
"Name": "La Juanita",
"PostCode": "20000",
"LatLong": "-34.8442,-54.9532"
},
{
"Name": "Las Cumbres",
"PostCode": "20000",
"LatLong": "-34.8468,-55.0317"
},
{
"Name": "Rincon Del Indio",
"PostCode": "20000",
"LatLong": "-34.8442,-54.9532"
},
{
"Name": "Portezuelo",
"PostCode": "20000",
"LatLong": "-34.8729,-55.1396"
},
{
"Name": "Los Corchos",
"PostCode": "20000",
"LatLong": "-34.8442,-54.9532"
},
{
"Name": "Sauce De Portezuelo",
"PostCode": "20000",
"LatLong": "-34.8729,-55.1396"
},
{
"Name": "Barra Del Sauce",
"PostCode": "20000",
"LatLong": "-34.8442,-54.9532"
},
{
"Name": "Arenas De Jose Ignacio",
"PostCode": "20000",
"LatLong": "-34.8223,-54.6224"
},
{
"Name": "Faro Jose Ignacio Norte",
"PostCode": "20000",
"LatLong": "-34.8442,-54.9532"
},
{
"Name": "Manantiales",
"PostCode": "20000",
"LatLong": "-34.9045,-54.8262"
},
{
"Name": "San Juan Del Este",
"PostCode": "20000",
"LatLong": "-34.8442,-54.9532"
},
{
"Name": "La Barra",
"PostCode": "20000",
"LatLong": "-34.9157,-54.8639"
},
{
"Name": "Puntas De Pan De Azucar",
"PostCode": "20000",
"LatLong": "-34.8442,-54.9532"
},
{
"Name": "Ocean Park",
"PostCode": "20000",
"LatLong": "-34.869,-55.1151"
},
{
"Name": "Chihuahua",
"PostCode": "20000",
"LatLong": "-34.8741,-55.0888"
},
{
"Name": "Puntas De Mataojo",
"PostCode": "20000",
"LatLong": "-34.8442,-54.9532"
},
{
"Name": "Barrio Hipodromo",
"PostCode": "20000",
"LatLong": "-34.8615,-54.9431"
},
{
"Name": "El Chorro",
"PostCode": "20000",
"LatLong": "-34.9021,-54.8128"
},
{
"Name": "Faro Jose Ignacio",
"PostCode": "20000",
"LatLong": "-34.8442,-54.9532"
},
{
"Name": "Punta Ballena",
"PostCode": "20000",
"LatLong": "-34.8883,-55.0391"
},
{
"Name": "Cerro Pelado",
"PostCode": "20000",
"LatLong": "-34.8815,-54.9767"
},
{
"Name": "Barrio Kennedy",
"PostCode": "20000",
"LatLong": "-34.8442,-54.9532"
},
{
"Name": "Punta Del Este",
"PostCode": "20000",
"LatLong": "-34.9475,-54.9338"
},
{
"Name": "Laguna Blanca",
"PostCode": "20000",
"LatLong": "-34.8442,-54.9532"
},
{
"Name": "Villa Delia",
"PostCode": "20000",
"LatLong": "-34.8919,-54.9716"
},
{
"Name": "La Sonrisa",
"PostCode": "20000",
"LatLong": "-34.8442,-54.9532"
},
{
"Name": "Buenos Aires",
"PostCode": "20000",
"LatLong": "-34.9399,-54.943"
},
{
"Name": "San Rafael - El Placer",
"PostCode": "20000",
"LatLong": "-34.8442,-54.9532"
},
{
"Name": "Santa Monica",
"PostCode": "20000",
"LatLong": "-34.8497,-54.6993"
},
{
"Name": "El Tesoro",
"PostCode": "20000",
"LatLong": "-34.9033,-54.8702"
},
{
"Name": "Playa Verde",
"PostCode": "20200",
"LatLong": "-34.8266,-55.3146"
},
{
"Name": "Punta Colorada",
"PostCode": "20200",
"LatLong": "-34.9006,-55.2596"
},
{
"Name": "Bella Vista",
"PostCode": "20200",
"LatLong": "-34.8022,-55.3569"
},
{
"Name": "Barra De Portezuelo",
"PostCode": "20200",
"LatLong": "-34.7984,-55.4908"
},
{
"Name": "Piriapolis",
"PostCode": "20200",
"LatLong": "-34.8629,-55.2747"
},
{
"Name": "Playa Hermosa",
"PostCode": "20200",
"LatLong": "-34.8373,-55.3005"
},
{
"Name": "Las Flores - Estacion",
"PostCode": "20200",
"LatLong": "-34.7984,-55.4908"
},
{
"Name": "La Falda",
"PostCode": "20200",
"LatLong": "-34.8529,-55.2696"
},
{
"Name": "Colonia J. Suarez",
"PostCode": "20200",
"LatLong": "-34.2655,-57.6187"
},
{
"Name": "San Francisco",
"PostCode": "20200",
"LatLong": "-34.8854,-55.2694"
},
{
"Name": "Las Flores",
"PostCode": "20200",
"LatLong": "-34.8152,-55.3271"
},
{
"Name": "Punta Negra",
"PostCode": "20200",
"LatLong": "-34.8893,-55.2169"
},
{
"Name": "Playa Grande",
"PostCode": "20200",
"LatLong": "-34.8498,-55.302"
},
{
"Name": "Solis",
"PostCode": "20200",
"LatLong": "-34.7933,-55.3799"
},
{
"Name": "Puntas De La Sierra",
"PostCode": "20300",
"LatLong": "-34.7536,-55.3193"
},
{
"Name": "La Sierra",
"PostCode": "20300",
"LatLong": "-34.7473,-55.4001"
},
{
"Name": "Gerona",
"PostCode": "20300",
"LatLong": "-34.7649,-55.2555"
},
{
"Name": "Pueblo Solis",
"PostCode": "20300",
"LatLong": "-34.7536,-55.3193"
},
{
"Name": "Cerros Azules",
"PostCode": "20300",
"LatLong": "-34.766,-55.365"
},
{
"Name": "Gregorio Aznarez",
"PostCode": "20300",
"LatLong": "-34.7466,-55.3967"
},
{
"Name": "Ruta 37 Y 9",
"PostCode": "20300",
"LatLong": "-34.7536,-55.3193"
},
{
"Name": "Pan De Azucar",
"PostCode": "20300",
"LatLong": "-34.7787,-55.2358"
},
{
"Name": "Nueva Carrara",
"PostCode": "20300",
"LatLong": "-34.718,-55.2623"
},
{
"Name": "Puntas De Jose Ignacio",
"PostCode": "20400",
"LatLong": "-34.4209,-54.5866"
},
{
"Name": "Abra De Perdomo",
"PostCode": "20400",
"LatLong": "-34.7396,-54.9864"
},
{
"Name": "Parque Medina",
"PostCode": "20400",
"LatLong": "-34.7983,-54.8927"
},
{
"Name": "Los Ceibos",
"PostCode": "20400",
"LatLong": "-34.7644,-54.9671"
},
{
"Name": "Guardia Vieja",
"PostCode": "20400",
"LatLong": "-34.7363,-55.0236"
},
{
"Name": "Partido Oeste",
"PostCode": "20400",
"LatLong": "-34.7188,-54.961"
},
{
"Name": "Paso De La Cantera",
"PostCode": "20400",
"LatLong": "-34.5339,-54.9035"
},
{
"Name": "Las Cañas",
"PostCode": "20400",
"LatLong": "-32.9333,-55.5167"
},
{
"Name": "Carape",
"PostCode": "20400",
"LatLong": "-34.5339,-54.9035"
},
{
"Name": "Jose Ignacio",
"PostCode": "20400",
"LatLong": "-34.8443,-54.6373"
},
{
"Name": "Alfaro",
"PostCode": "20400",
"LatLong": "-34.5339,-54.9035"
},
{
"Name": "Garzon",
"PostCode": "20400",
"LatLong": "-34.5913,-54.545"
},
{
"Name": "Carlos Cal",
"PostCode": "20400",
"LatLong": "-34.5339,-54.9035"
},
{
"Name": "San Carlos",
"PostCode": "20400",
"LatLong": "-34.7912,-54.9182"
},
{
"Name": "Pago De La Paja",
"PostCode": "20400",
"LatLong": "-34.5339,-54.9035"
},
{
"Name": "El Quijote",
"PostCode": "20400",
"LatLong": "-34.5339,-54.9035"
},
{
"Name": "Puntas Del Campanera",
"PostCode": "20400",
"LatLong": "-34.5339,-54.9035"
},
{
"Name": "Cañada Bellaca",
"PostCode": "20400",
"LatLong": "-34.5339,-54.9035"
},
{
"Name": "Cañada De La Cruz",
"PostCode": "20400",
"LatLong": "-34.5339,-54.9035"
},
{
"Name": "Molles De Garzon",
"PostCode": "20400",
"LatLong": "-34.5339,-54.9035"
},
{
"Name": "Corte De La Leña",
"PostCode": "20400",
"LatLong": "-34.5339,-54.9035"
},
{
"Name": "Partido Norte",
"PostCode": "20400",
"LatLong": "-34.5339,-54.9035"
},
{
"Name": "Arroyito De Medina",
"PostCode": "20400",
"LatLong": "-34.5339,-54.9035"
},
{
"Name": "Costas De Jose Ignacio",
"PostCode": "20400",
"LatLong": "-34.5339,-54.9035"
},
{
"Name": "Sauce De Aigua",
"PostCode": "20500",
"LatLong": "-34.2616,-54.7264"
},
{
"Name": "Alferez",
"PostCode": "20500",
"LatLong": "-34.06,-54.5059"
},
{
"Name": "Aigua",
"PostCode": "20500",
"LatLong": "-34.205,-54.7566"
},
{
"Name": "Valdivia",
"PostCode": "20500",
"LatLong": "-34.06,-54.5059"
},
{
"Name": "Salamanca",
"PostCode": "20500",
"LatLong": "-34.1667,-54.6667"
},
{
"Name": "Sarandi De Aigua",
"PostCode": "20500",
"LatLong": "-34.06,-54.5059"
},
{
"Name": "Coronilla",
"PostCode": "20500",
"LatLong": "-33.5579,-53.858"
},
{
"Name": "Paso De Los Talas",
"PostCode": "20500",
"LatLong": "-34.1087,-54.522"
},
{
"Name": "Rincon De Aparicio",
"PostCode": "27300",
"LatLong": "-33.8969,-54.3212"
},
{
"Name": "Los Talas",
"PostCode": "27300",
"LatLong": "-34.0931,-54.4906"
},
{
"Name": "Abra De Castellanos",
"PostCode": "30100",
"LatLong": "-34.6297,-55.3748"
}
]
}
]
}
]
},
{
"Name": "Montevideo",
"Code": "10",
"Provinces": [
{
"Communities": [
{
"Places": [
{
"Name": "Puerto",
"PostCode": "11000",
"LatLong": "-34.9083,-56.2083"
},
{
"Name": "Ciudad Vieja",
"PostCode": "11000",
"LatLong": "-34.9083,-56.2083"
},
{
"Name": "Centro",
"PostCode": "11100",
"LatLong": "-34.9053,-56.1944"
},
{
"Name": "Barrio Sur",
"PostCode": "11100",
"LatLong": "-34.9122,-56.1888"
},
{
"Name": "Parque Rodo",
"PostCode": "11200",
"LatLong": "-34.9114,-56.1668"
},
{
"Name": "Cordon",
"PostCode": "11200",
"LatLong": "-34.905,-56.1683"
},
{
"Name": "Palermo",
"PostCode": "11200",
"LatLong": "-34.9102,-56.1784"
},
{
"Name": "Pocitos",
"PostCode": "11300",
"LatLong": "-34.9097,-56.1522"
},
{
"Name": "Punta Carretas",
"PostCode": "11300",
"LatLong": "-34.9228,-56.1597"
},
{
"Name": "Malvin Norte",
"PostCode": "11400",
"LatLong": "-34.881,-56.1168"
},
{
"Name": "Union",
"PostCode": "11400",
"LatLong": "-34.8706,-56.1336"
},
{
"Name": "Malvin",
"PostCode": "11400",
"LatLong": "-34.8912,-56.0994"
},
{
"Name": "Punta Gorda",
"PostCode": "11400",
"LatLong": "-34.8927,-56.0818"
},
{
"Name": "Carrasco Norte",
"PostCode": "11500",
"LatLong": "-34.8747,-56.0669"
},
{
"Name": "Carrasco",
"PostCode": "11500",
"LatLong": "-34.8853,-56.0606"
},
{
"Name": "La Blanqueada",
"PostCode": "11600",
"LatLong": "-34.8874,-56.1536"
},
{
"Name": "Buceo",
"PostCode": "11600",
"LatLong": "-34.9,-56.1333"
},
{
"Name": "Larrañaga",
"PostCode": "11600",
"LatLong": "-34.8937,-56.1435"
},
{
"Name": "Pque Batlle Villa Dolores",
"PostCode": "11600",
"LatLong": "-34.8937,-56.1435"
},
{
"Name": "Atahualpa",
"PostCode": "11700",
"LatLong": "-34.8647,-56.1897"
},
{
"Name": "Brazo Oriental",
"PostCode": "11700",
"LatLong": "-34.8641,-56.1761"
},
{
"Name": "Aires Puros",
"PostCode": "11700",
"LatLong": "-34.8515,-56.1885"
},
{
"Name": "Prado Nueva Savona",
"PostCode": "11700",
"LatLong": "-34.8601,-56.1848"
},
{
"Name": "La Comercial",
"PostCode": "11800",
"LatLong": "-34.8872,-56.168"
},
{
"Name": "Reducto",
"PostCode": "11800",
"LatLong": "-34.8833,-56.1833"
},
{
"Name": "Tres Cruces",
"PostCode": "11800",
"LatLong": "-34.8962,-56.168"
},
{
"Name": "Aguada",
"PostCode": "11800",
"LatLong": "-34.8914,-56.1889"
},
{
"Name": "Figurita",
"PostCode": "11800",
"LatLong": "-34.8865,-56.1756"
},
{
"Name": "Jacinto Vera",
"PostCode": "11800",
"LatLong": "-34.8745,-56.1698"
},
{
"Name": "Villa Muñoz Retiro",
"PostCode": "11800",
"LatLong": "-34.8865,-56.1756"
},
{
"Name": "Capurro Bella Vista",
"PostCode": "11800",
"LatLong": "-34.8865,-56.1756"
},
{
"Name": "La Teja",
"PostCode": "11900",
"LatLong": "-34.8648,-56.234"
},
{
"Name": "Nuevo Paris",
"PostCode": "11900",
"LatLong": "-34.85,-56.2333"
},
{
"Name": "Belvedere",
"PostCode": "11900",
"LatLong": "-34.85,-56.2167"
},
{
"Name": "Tres Ombues Pblo Victoria",
"PostCode": "11900",
"LatLong": "-34.8549,-56.228"
},
{
"Name": "Villa Española",
"PostCode": "12000",
"LatLong": "-34.8833,-56.15"
},
{
"Name": "Ituzaingo",
"PostCode": "12000",
"LatLong": "-34.85,-56.1167"
},
{
"Name": "Mercado Modelo Y Bolivar",
"PostCode": "12000",
"LatLong": "-34.8667,-56.1333"
},
{
"Name": "Castro Castellanos",
"PostCode": "12000",
"LatLong": "-34.8667,-56.1333"
},
{
"Name": "Las Canteras",
"PostCode": "12100",
"LatLong": "-34.8714,-56.1058"
},
{
"Name": "Maroñas Parque Guarani",
"PostCode": "12100",
"LatLong": "-34.8714,-56.1058"
},
{
"Name": "Cerrito",
"PostCode": "12300",
"LatLong": "-34.5702,-56.0814"
},
{
"Name": "Manga",
"PostCode": "12300",
"LatLong": "-34.8167,-56.1"
},
{
"Name": "Piedras Blancas",
"PostCode": "12300",
"LatLong": "-34.8286,-56.1394"
},
{
"Name": "Las Acacias",
"PostCode": "12300",
"LatLong": "-34.7385,-56.107"
},
{
"Name": "Casavalle",
"PostCode": "12300",
"LatLong": "-34.7385,-56.107"
},
{
"Name": "Peñarol Lavalleja",
"PostCode": "12400",
"LatLong": "-34.812,-56.1636"
},
{
"Name": "Colon Sureste Abayuba",
"PostCode": "12400",
"LatLong": "-34.812,-56.1636"
},
{
"Name": "Manga Toledo Chico",
"PostCode": "12400",
"LatLong": "-34.812,-56.1636"
},
{
"Name": "Lezica Melilla",
"PostCode": "12500",
"LatLong": "-34.812,-56.1636"
},
{
"Name": "Colon Centro Y Noroeste",
"PostCode": "12500",
"LatLong": "-34.812,-56.1636"
},
{
"Name": "Paso De La Arena",
"PostCode": "12700",
"LatLong": "-34.821,-56.3123"
},
{
"Name": "Cerro",
"PostCode": "12800",
"LatLong": "-34.812,-56.1636"
},
{
"Name": "La Paloma Tomkinson",
"PostCode": "12800",
"LatLong": "-34.812,-56.1636"
},
{
"Name": "Casabo Pajas Blancas",
"PostCode": "12800",
"LatLong": "-34.812,-56.1636"
},
{
"Name": "Sayago",
"PostCode": "12900",
"LatLong": "-34.8333,-56.2333"
},
{
"Name": "Paso De Las Duranas",
"PostCode": "12900",
"LatLong": "-34.8333,-56.2333"
},
{
"Name": "Conciliacion",
"PostCode": "12900",
"LatLong": "-34.8333,-56.2333"
},
{
"Name": "Flor De Maroñas",
"PostCode": "13000",
"LatLong": "-34.85,-56.1167"
},
{
"Name": "Villa Garcia Manga Rural",
"PostCode": "13000",
"LatLong": "-34.85,-56.1167"
},
{
"Name": "Bañados De Carrasco",
"PostCode": "13000",
"LatLong": "-34.85,-56.1167"
},
{
"Name": "Punta Rieles Bella Italia",
"PostCode": "13000",
"LatLong": "-34.85,-56.1167"
},
{
"Name": "Jardines Del Hipodromo",
"PostCode": "13000",
"LatLong": "-34.85,-56.1167"
},
{
"Name": "Toledo Chico",
"PostCode": "15700",
"LatLong": "-33.6142,-56.6893"
}
]
}
]
}
]
},
{
"Name": "Paysandu",
"Code": "11",
"Provinces": [
{
"Communities": [
{
"Places": [
{
"Name": "Tambores",
"PostCode": "45000",
"LatLong": "-31.8774,-56.2444"
},
{
"Name": "Piedra Sola",
"PostCode": "45000",
"LatLong": "-32.0829,-56.3098"
},
{
"Name": "Tomas Paz",
"PostCode": "50000",
"LatLong": "-31.6328,-57.6963"
},
{
"Name": "San Mauricio",
"PostCode": "50000",
"LatLong": "-31.3475,-57.1208"
},
{
"Name": "Bella Vista",
"PostCode": "50000",
"LatLong": "-31.6624,-57.7198"
},
{
"Name": "Parada Dayman",
"PostCode": "50000",
"LatLong": "-31.3475,-57.1208"
},
{
"Name": "Chapicuy",
"PostCode": "50000",
"LatLong": "-31.6605,-57.8881"
},
{
"Name": "Tres Bocas",
"PostCode": "60000",
"LatLong": "-31.8833,-57.4833"
},
{
"Name": "Costa De Sacra",
"PostCode": "60000",
"LatLong": "-32.3575,-58.034"
},
{
"Name": "Cuchilla San Jose",
"PostCode": "60000",
"LatLong": "-32.1576,-57.6514"
},
{
"Name": "Sauce De Abajo",
"PostCode": "60000",
"LatLong": "-32.1235,-57.6424"
},
{
"Name": "Chacras De Paysandu Sur",
"PostCode": "60000",
"LatLong": "-32.1576,-57.6514"
},
{
"Name": "Estacion Porvenir",
"PostCode": "60000",
"LatLong": "-32.3665,-57.8591"
},
{
"Name": "Puntas De Bacacua",
"PostCode": "60000",
"LatLong": "-32.1576,-57.6514"
},
{
"Name": "Paysandu",
"PostCode": "60000",
"LatLong": "-32.3214,-58.0756"
},
{
"Name": "Pueblo Federacion",
"PostCode": "60000",
"LatLong": "-32.1576,-57.6514"
},
{
"Name": "El Tarugo",
"PostCode": "60000",
"LatLong": "-32,-57.3"
},
{
"Name": "Colonia Cangue",
"PostCode": "60000",
"LatLong": "-32.1576,-57.6514"
},
{
"Name": "San Felix",
"PostCode": "60000",
"LatLong": "-32.3333,-58.1333"
},
{
"Name": "Las Palmas",
"PostCode": "60000",
"LatLong": "-32.1576,-57.6514"
},
{
"Name": "Guayabos",
"PostCode": "60000",
"LatLong": "-32.2692,-57.3159"
},
{
"Name": "Puntas De Cangue",
"PostCode": "60000",
"LatLong": "-32.1576,-57.6514"
},
{
"Name": "El Chaco",
"PostCode": "60000",
"LatLong": "-31.959,-57.5133"
},
{
"Name": "Queguay Grande",
"PostCode": "60000",
"LatLong": "-32.1576,-57.6514"
},
{
"Name": "El Horno",
"PostCode": "60000",
"LatLong": "-31.9836,-57.485"
},
{
"Name": "Colonia Las Delicias",
"PostCode": "60000",
"LatLong": "-32.1576,-57.6514"
},
{
"Name": "Zeballos",
"PostCode": "60000",
"LatLong": "-32.0457,-57.4164"
},
{
"Name": "San Francisco",
"PostCode": "60000",
"LatLong": "-32.1576,-57.6514"
},
{
"Name": "Sauce Del Queguay",
"PostCode": "60000",
"LatLong": "-32.0916,-57.6117"
},
{
"Name": "Molles Grande",
"PostCode": "60000",
"LatLong": "-32.1576,-57.6514"
},
{
"Name": "Puntas De Buricayupi",
"PostCode": "60000",
"LatLong": "-31.8628,-57.3429"
},
{
"Name": "Perico Moreno",
"PostCode": "60000",
"LatLong": "-32.1576,-57.6514"
},
{
"Name": "Sauce Del Buricayupi",
"PostCode": "60000",
"LatLong": "-31.8628,-57.3429"
},
{
"Name": "Puntas De Gualeguay",
"PostCode": "60000",
"LatLong": "-32.1576,-57.6514"
},
{
"Name": "Araujo",
"PostCode": "60000",
"LatLong": "-32.1,-57.8167"
},
{
"Name": "Cangue",
"PostCode": "60000",
"LatLong": "-32.1576,-57.6514"
},
{
"Name": "La Tentacion",
"PostCode": "60000",
"LatLong": "-32.4862,-57.7451"
},
{
"Name": "San Miguel",
"PostCode": "60000",
"LatLong": "-32.1576,-57.6514"
},
{
"Name": "Constancia",
"PostCode": "60000",
"LatLong": "-32.2066,-58.0074"
},
{
"Name": "Chacras De Paysandu",
"PostCode": "60000",
"LatLong": "-32.1576,-57.6514"
},
{
"Name": "Nuevo Paysandu",
"PostCode": "60000",
"LatLong": "-32.2699,-58.0773"
},
{
"Name": "El Duraznal",
"PostCode": "60000",
"LatLong": "-32.1576,-57.6514"
},
{
"Name": "El Eucaliptus",
"PostCode": "60000",
"LatLong": "-31.899,-57.2629"
},
{
"Name": "Colonia Paysandu",
"PostCode": "60000",
"LatLong": "-32.1576,-57.6514"
},
{
"Name": "Lorenzo Geyres",
"PostCode": "60000",
"LatLong": "-32.0771,-57.9168"
},
{
"Name": "Etchemendi",
"PostCode": "60000",
"LatLong": "-32.1576,-57.6514"
},
{
"Name": "Rabon",
"PostCode": "60000",
"LatLong": "-32.5262,-57.9689"
},
{
"Name": "Gallinal",
"PostCode": "60000",
"LatLong": "-31.8786,-57.4775"
},
{
"Name": "Parada Pandule",
"PostCode": "60000",
"LatLong": "-32.1576,-57.6514"
},
{
"Name": "Porvenir",
"PostCode": "60000",
"LatLong": "-32.3927,-57.9696"
},
{
"Name": "Chacras De Paysandu Norte",
"PostCode": "60000",
"LatLong": "-32.1576,-57.6514"
},
{
"Name": "Casa Blanca",
"PostCode": "60000",
"LatLong": "-32.3968,-58.1615"
},
{
"Name": "La Paz (Ruta 3 Km. 346)",
"PostCode": "60000",
"LatLong": "-32.1576,-57.6514"
},
{
"Name": "Valdez",
"PostCode": "60000",
"LatLong": "-32.4648,-57.8081"
},
{
"Name": "Puntas De Las Isletas",
"PostCode": "60000",
"LatLong": "-32.1576,-57.6514"
},
{
"Name": "Paso De Los Carros",
"PostCode": "60000",
"LatLong": "-31.9803,-57.4324"
},
{
"Name": "Colonia Uruguaya",
"PostCode": "60000",
"LatLong": "-32.1576,-57.6514"
},
{
"Name": "Cañada Del Pueblo",
"PostCode": "60000",
"LatLong": "-31.9427,-57.1831"
},
{
"Name": "Queguayar",
"PostCode": "60000",
"LatLong": "-32.1576,-57.6514"
},
{
"Name": "Carumbe",
"PostCode": "60000",
"LatLong": "-31.5231,-56.6037"
},
{
"Name": "Al Sur De Arroyo Sacra",
"PostCode": "60000",
"LatLong": "-32.1576,-57.6514"
},
{
"Name": "Orgoroso",
"PostCode": "60000",
"LatLong": "-32.38,-57.5173"
},
{
"Name": "La Lata Ruta 3 (Km. 375)",
"PostCode": "60000",
"LatLong": "-32.1576,-57.6514"
},
{
"Name": "Soto",
"PostCode": "60000",
"LatLong": "-31.9713,-57.5596"
},
{
"Name": "Cuchilla De Buricayupi",
"PostCode": "60000",
"LatLong": "-32.1576,-57.6514"
},
{
"Name": "Cerro Chato",
"PostCode": "60000",
"LatLong": "-31.8628,-57.54"
},
{
"Name": "Pueblo Esperanza",
"PostCode": "60000",
"LatLong": "-32.1576,-57.6514"
},
{
"Name": "Guichon",
"PostCode": "60100",
"LatLong": "-32.3585,-57.1978"
},
{
"Name": "Piñera",
"PostCode": "60100",
"LatLong": "-32.3269,-57.0486"
},
{
"Name": "Colonia Juncal",
"PostCode": "60100",
"LatLong": "-32.3517,-56.9094"
},
{
"Name": "Arbolito (Totoral)",
"PostCode": "60100",
"LatLong": "-32.2163,-56.457"
},
{
"Name": "Termas De Almiron",
"PostCode": "60100",
"LatLong": "-32.3517,-56.9094"
},
{
"Name": "Beisso",
"PostCode": "60100",
"LatLong": "-32.3153,-57.0532"
},
{
"Name": "Morato (Tres Arboles)",
"PostCode": "60100",
"LatLong": "-32.3517,-56.9094"
},
{
"Name": "Villa Maria (Tiatucura)",
"PostCode": "60100",
"LatLong": "-32.3402,-56.5457"
},
{
"Name": "Cuchilla De Fuego",
"PostCode": "60100",
"LatLong": "-32.3517,-56.9094"
},
{
"Name": "Pueblo Alonzo",
"PostCode": "60100",
"LatLong": "-32.3517,-56.9094"
},
{
"Name": "Arroyo Malo",
"PostCode": "60200",
"LatLong": "-33.3333,-56.9333"
},
{
"Name": "Colonia Arroyo Malo",
"PostCode": "60200",
"LatLong": "-32.6343,-57.4174"
},
{
"Name": "Quebracho",
"PostCode": "60200",
"LatLong": "-31.9353,-57.9014"
},
{
"Name": "Santa Kilda",
"PostCode": "60200",
"LatLong": "-32.6343,-57.4174"
},
{
"Name": "Guaviyu De Quebracho",
"PostCode": "60200",
"LatLong": "-32.6343,-57.4174"
},
{
"Name": "Termas De Guaviyu",
"PostCode": "60200",
"LatLong": "-32.6343,-57.4174"
},
{
"Name": "Parada Rivas",
"PostCode": "60200",
"LatLong": "-32.6343,-57.4174"
},
{
"Name": "Palmar Del Quebracho",
"PostCode": "60200",
"LatLong": "-32.6343,-57.4174"
},
{
"Name": "Colonia Santa Blanca",
"PostCode": "60200",
"LatLong": "-32.6343,-57.4174"
},
{
"Name": "Arroyo Negro",
"PostCode": "60300",
"LatLong": "-32.475,-57.5557"
},
{
"Name": "Puntas De Arroyo Negro",
"PostCode": "60300",
"LatLong": "-32.4144,-57.5785"
},
{
"Name": "Piedras Coloradas",
"PostCode": "60300",
"LatLong": "-32.3718,-57.609"
},
{
"Name": "Las Flores",
"PostCode": "60300",
"LatLong": "-32.3964,-57.5709"
}
]
}
]
}
]
},
{
"Name": "Rio Negro",
"Code": "12",
"Provinces": [
{
"Communities": [
{
"Places": [
{
"Name": "Sarandi De Navarro",
"PostCode": "45100",
"LatLong": "-32.5437,-56.8658"
},
{
"Name": "El Progreso",
"PostCode": "45100",
"LatLong": "-32.7325,-56.9485"
},
{
"Name": "La Coronilla",
"PostCode": "45100",
"LatLong": "-32.6098,-56.7532"
},
{
"Name": "Santa Rosa",
"PostCode": "45100",
"LatLong": "-34.4982,-56.0379"
},
{
"Name": "Rolon",
"PostCode": "45100",
"LatLong": "-32.6373,-56.8908"
},
{
"Name": "Estacion Francia",
"PostCode": "45100",
"LatLong": "-32.8413,-56.4527"
},
{
"Name": "Paso De Soca",
"PostCode": "45100",
"LatLong": "-32.6335,-56.7348"
},
{
"Name": "Isla De Arguelles",
"PostCode": "45100",
"LatLong": "-32.8413,-56.4527"
},
{
"Name": "La Palma",
"PostCode": "45100",
"LatLong": "-32.8413,-56.4527"
},
{
"Name": "Santa Elisa",
"PostCode": "60000",
"LatLong": "-32.4755,-58.1472"
},
{
"Name": "Uleste",
"PostCode": "60000",
"LatLong": "-32.5882,-57.8424"
},
{
"Name": "Arroyo Negro",
"PostCode": "60000",
"LatLong": "-32.475,-57.5557"
},
{
"Name": "Los Mellizos",
"PostCode": "60100",
"LatLong": "-32.5198,-57.1591"
},
{
"Name": "Merinos",
"PostCode": "60100",
"LatLong": "-32.3849,-56.9043"
},
{
"Name": "Palmar Grande",
"PostCode": "60100",
"LatLong": "-32.3517,-56.9094"
},
{
"Name": "Puntas De Averias",
"PostCode": "60100",
"LatLong": "-32.3517,-56.9094"
},
{
"Name": "Algorta",
"PostCode": "60400",
"LatLong": "-32.4212,-57.3893"
},
{
"Name": "Tres Quintas",
"PostCode": "61100",
"LatLong": "-32.6929,-57.9749"
},
{
"Name": "San Javier",
"PostCode": "61100",
"LatLong": "-32.6652,-58.1332"
},
{
"Name": "Nuevo Berlin",
"PostCode": "65000",
"LatLong": "-32.9771,-58.0517"
},
{
"Name": "Barrio Anglo",
"PostCode": "65000",
"LatLong": "-33.0878,-58.2377"
},
{
"Name": "Las Cañas",
"PostCode": "65000",
"LatLong": "-33.1644,-58.3583"
},
{
"Name": "Las Fracciones",
"PostCode": "65000",
"LatLong": "-33.0878,-58.2377"
},
{
"Name": "Fray Bentos",
"PostCode": "65000",
"LatLong": "-33.1219,-58.3031"
},
{
"Name": "Los Ranchos",
"PostCode": "65000",
"LatLong": "-33.0878,-58.2377"
},
{
"Name": "Porton Haedo",
"PostCode": "65000",
"LatLong": "-33.0878,-58.2377"
},
{
"Name": "Yaguarete",
"PostCode": "65000",
"LatLong": "-33.0878,-58.2377"
},
{
"Name": "El Abrojal",
"PostCode": "65000",
"LatLong": "-33.0878,-58.2377"
},
{
"Name": "Ombucitos",
"PostCode": "65000",
"LatLong": "-33.0878,-58.2377"
},
{
"Name": "Pte. San Martin",
"PostCode": "65000",
"LatLong": "-33.0878,-58.2377"
},
{
"Name": "Cañitas",
"PostCode": "65000",
"LatLong": "-33.0878,-58.2377"
},
{
"Name": "San Lorenzo",
"PostCode": "65000",
"LatLong": "-33.0878,-58.2377"
},
{
"Name": "Caracoles",
"PostCode": "65000",
"LatLong": "-33.0878,-58.2377"
},
{
"Name": "Las Margaritas",
"PostCode": "65000",
"LatLong": "-33.0878,-58.2377"
},
{
"Name": "Villa Maria",
"PostCode": "65100",
"LatLong": "-32.56,-57.3763"
},
{
"Name": "Estancia Vichadero",
"PostCode": "65100",
"LatLong": "-32.7917,-57.4764"
},
{
"Name": "La Union",
"PostCode": "65100",
"LatLong": "-32.75,-57.75"
},
{
"Name": "El Surco",
"PostCode": "65100",
"LatLong": "-32.7917,-57.4764"
},
{
"Name": "Menafra",
"PostCode": "65100",
"LatLong": "-32.5582,-57.4846"
},
{
"Name": "Molles De Porrua",
"PostCode": "65100",
"LatLong": "-32.7917,-57.4764"
},
{
"Name": "Sarandi",
"PostCode": "65100",
"LatLong": "-32.5437,-56.8658"
},
{
"Name": "Valle De Soba",
"PostCode": "65100",
"LatLong": "-32.7917,-57.4764"
},
{
"Name": "Villa General Borges",
"PostCode": "65100",
"LatLong": "-32.555,-57.3882"
},
{
"Name": "Colonia John F. Kennedy",
"PostCode": "65100",
"LatLong": "-32.7917,-57.4764"
},
{
"Name": "Las Flores",
"PostCode": "65100",
"LatLong": "-32.8145,-57.044"
},
{
"Name": "Pueblo Grecco",
"PostCode": "65100",
"LatLong": "-32.7917,-57.4764"
},
{
"Name": "Santa Isabel",
"PostCode": "65100",
"LatLong": "-32.8167,-56.5167"
},
{
"Name": "Colonia El Ombu",
"PostCode": "65100",
"LatLong": "-32.7917,-57.4764"
},
{
"Name": "Paso De Los Cobres",
"PostCode": "65100",
"LatLong": "-32.9451,-57.553"
},
{
"Name": "Paso De Leopoldo",
"PostCode": "65100",
"LatLong": "-32.7917,-57.4764"
},
{
"Name": "Sanchez Chico",
"PostCode": "65100",
"LatLong": "-32.8138,-57.755"
},
{
"Name": "Bellaco",
"PostCode": "65100",
"LatLong": "-32.7639,-57.8837"
},
{
"Name": "Paso De Balbuena",
"PostCode": "65100",
"LatLong": "-32.7917,-57.4764"
},
{
"Name": "Tres Bocas",
"PostCode": "65100",
"LatLong": "-33.7333,-57.8333"
},
{
"Name": "Don Esteban",
"PostCode": "65100",
"LatLong": "-32.7917,-57.4764"
},
{
"Name": "Young",
"PostCode": "65100",
"LatLong": "-32.6984,-57.6269"
},
{
"Name": "Pauru",
"PostCode": "65100",
"LatLong": "-32.7917,-57.4764"
},
{
"Name": "Sanchez",
"PostCode": "65100",
"LatLong": "-32.8138,-57.755"
},
{
"Name": "Mataojo",
"PostCode": "65100",
"LatLong": "-32.6472,-57.2565"
},
{
"Name": "La Florida",
"PostCode": "65100",
"LatLong": "-32.7484,-57.8023"
},
{
"Name": "Sauce",
"PostCode": "65100",
"LatLong": "-32.9052,-57.7318"
},
{
"Name": "Los Arrayanes",
"PostCode": "75000",
"LatLong": "-33.2332,-58.0385"
},
{
"Name": "La Arena",
"PostCode": "97000",
"LatLong": "-33.0983,-56.0159"
}
]
}
]
}
]
},
{
"Name": "Rivera",
"Code": "13",
"Provinces": [
{
"Communities": [
{
"Places": [
{
"Name": "Santa Teresa",
"PostCode": "40000",
"LatLong": "-34.4333,-57.7167"
},
{
"Name": "Paso Del Tapado",
"PostCode": "40000",
"LatLong": "-31.25,-55.3333"
},
{
"Name": "Paso Lapuente",
"PostCode": "40000",
"LatLong": "-31.7141,-55.7228"
},
{
"Name": "Paso Ataques",
"PostCode": "40000",
"LatLong": "-31.1,-55.6667"
},
{
"Name": "Yaguari",
"PostCode": "40000",
"LatLong": "-31.5167,-54.9667"
},
{
"Name": "Santa Isabel",
"PostCode": "40000",
"LatLong": "-32.8167,-56.5167"
},
{
"Name": "Tres Puentes",
"PostCode": "40000",
"LatLong": "-31.7141,-55.7228"
},
{
"Name": "Ataques",
"PostCode": "40000",
"LatLong": "-31.1,-55.6667"
},
{
"Name": "Batovi",
"PostCode": "40000",
"LatLong": "-31.9167,-55.9333"
},
{
"Name": "Capon Alto",
"PostCode": "40000",
"LatLong": "-31.7141,-55.7228"
},
{
"Name": "Platon",
"PostCode": "40000",
"LatLong": "-31,-55.6833"
},
{
"Name": "Bañado Del Chaja",
"PostCode": "40000",
"LatLong": "-31.7141,-55.7228"
},
{
"Name": "Puntas De Corrales",
"PostCode": "40000",
"LatLong": "-31.3167,-55.2"
},
{
"Name": "Rivera",
"PostCode": "40000",
"LatLong": "-30.9053,-55.5508"
},
{
"Name": "Lagos Del Norte",
"PostCode": "40000",
"LatLong": "-31.7141,-55.7228"
},
{
"Name": "Cerrillada",
"PostCode": "40000",
"LatLong": "-31.5,-54.7167"
},
{
"Name": "Puntas De Cuñapiru",
"PostCode": "40000",
"LatLong": "-31.7141,-55.7228"
},
{
"Name": "Cerro Caqueiro",
"PostCode": "40000",
"LatLong": "-31.7141,-55.7228"
},
{
"Name": "Barra De Ataques",
"PostCode": "40000",
"LatLong": "-31.7141,-55.7228"
},
{
"Name": "Cuchilla De Tres Cerros",
"PostCode": "40000",
"LatLong": "-31.7141,-55.7228"
},
{
"Name": "Arroyo Sauzal",
"PostCode": "40000",
"LatLong": "-31.7141,-55.7228"
},
{
"Name": "Cerro Chapeu",
"PostCode": "40000",
"LatLong": "-31.7141,-55.7228"
},
{
"Name": "La Caillava",
"PostCode": "40000",
"LatLong": "-31.7141,-55.7228"
},
{
"Name": "Curticeiras",
"PostCode": "40000",
"LatLong": "-31.7141,-55.7228"
},
{
"Name": "Cruz De San Pedro",
"PostCode": "40000",
"LatLong": "-31.7141,-55.7228"
},
{
"Name": "Guaviyu",
"PostCode": "40000",
"LatLong": "-31.7141,-55.7228"
},
{
"Name": "La Pedrera",
"PostCode": "40000",
"LatLong": "-31.7141,-55.7228"
},
{
"Name": "Sauce De Batovi",
"PostCode": "40000",
"LatLong": "-31.7141,-55.7228"
},
{
"Name": "Tres Cruces",
"PostCode": "40000",
"LatLong": "-31.7141,-55.7228"
},
{
"Name": "Paso Serpa",
"PostCode": "40000",
"LatLong": "-31.7141,-55.7228"
},
{
"Name": "Lagunon",
"PostCode": "40000",
"LatLong": "-31.7141,-55.7228"
},
{
"Name": "Villa Indart",
"PostCode": "40000",
"LatLong": "-31.7141,-55.7228"
},
{
"Name": "Cuchilla Mangueras",
"PostCode": "40000",
"LatLong": "-31.7141,-55.7228"
},
{
"Name": "Paso Del Lagunon",
"PostCode": "40000",
"LatLong": "-31.7141,-55.7228"
},
{
"Name": "Mandubi",
"PostCode": "40000",
"LatLong": "-31.7141,-55.7228"
},
{
"Name": "Barrio Recreo",
"PostCode": "40000",
"LatLong": "-31.7141,-55.7228"
},
{
"Name": "Puntas Del Yaguari",
"PostCode": "40000",
"LatLong": "-31.7141,-55.7228"
},
{
"Name": "Cerro Solito",
"PostCode": "40000",
"LatLong": "-31.7141,-55.7228"
},
{
"Name": "Paso De La Arena",
"PostCode": "40100",
"LatLong": "-34.821,-56.3123"
},
{
"Name": "Lunarejo",
"PostCode": "40100",
"LatLong": "-31.1,-55.9833"
},
{
"Name": "Tranqueras",
"PostCode": "40100",
"LatLong": "-31.2,-55.75"
},
{
"Name": "Los Potreros",
"PostCode": "40100",
"LatLong": "-31.25,-55.95"
},
{
"Name": "Rincon De Moraes",
"PostCode": "40100",
"LatLong": "-31.3,-55.8667"
},
{
"Name": "Sauzal",
"PostCode": "40100",
"LatLong": "-30.9333,-55.55"
},
{
"Name": "Buena Union",
"PostCode": "40100",
"LatLong": "-31.2333,-55.6333"
},
{
"Name": "Piedras Blancas",
"PostCode": "40100",
"LatLong": "-34.8286,-56.1394"
},
{
"Name": "La Palma",
"PostCode": "40100",
"LatLong": "-31.974,-55.8724"
},
{
"Name": "Paso De Ataques",
"PostCode": "40100",
"LatLong": "-31.1,-55.6667"
},
{
"Name": "Cerro Alegre",
"PostCode": "40100",
"LatLong": "-31.974,-55.8724"
},
{
"Name": "Paso De La Calera",
"PostCode": "40100",
"LatLong": "-31.974,-55.8724"
},
{
"Name": "Puntas Del Sauzal",
"PostCode": "40100",
"LatLong": "-31.974,-55.8724"
},
{
"Name": "Parada Medina",
"PostCode": "40100",
"LatLong": "-31.974,-55.8724"
},
{
"Name": "Zanja Honda De Tranqueras",
"PostCode": "40100",
"LatLong": "-31.974,-55.8724"
},
{
"Name": "Masoller",
"PostCode": "40200",
"LatLong": "-31.0812,-56.0045"
},
{
"Name": "La Calera",
"PostCode": "41100",
"LatLong": "-31.45,-55.4167"
},
{
"Name": "Berruti",
"PostCode": "41100",
"LatLong": "-31.4333,-55.2333"
},
{
"Name": "Minas De Corrales",
"PostCode": "41100",
"LatLong": "-31.5833,-55.4667"
},
{
"Name": "Cuñapiru",
"PostCode": "41100",
"LatLong": "-31.5333,-55.5833"
},
{
"Name": "San Gregorio",
"PostCode": "41100",
"LatLong": "-32.6167,-55.8333"
},
{
"Name": "Cerro Pelado",
"PostCode": "41100",
"LatLong": "-31.4705,-55.1538"
},
{
"Name": "Minas De Cuñapiru (Usinas)",
"PostCode": "41100",
"LatLong": "-31.81,-55.5156"
},
{
"Name": "Segarra",
"PostCode": "41100",
"LatLong": "-31.5,-55.1667"
},
{
"Name": "Blanquillos",
"PostCode": "41100",
"LatLong": "-32.35,-55.8333"
},
{
"Name": "Cuchilla De Yaguari",
"PostCode": "41100",
"LatLong": "-31.81,-55.5156"
},
{
"Name": "Carpinteria",
"PostCode": "41100",
"LatLong": "-32.8333,-56.1833"
},
{
"Name": "Santa Ernestina",
"PostCode": "41100",
"LatLong": "-31.55,-55.55"
},
{
"Name": "Cerros De La Calera",
"PostCode": "41100",
"LatLong": "-31.81,-55.5156"
},
{
"Name": "Minas De Zapucay",
"PostCode": "41100",
"LatLong": "-31.7167,-55.3333"
},
{
"Name": "Laureles",
"PostCode": "41100",
"LatLong": "-31.6833,-55.4333"
},
{
"Name": "Curtume",
"PostCode": "41100",
"LatLong": "-31.81,-55.5156"
},
{
"Name": "Las Flores",
"PostCode": "41100",
"LatLong": "-31.81,-55.5156"
},
{
"Name": "Buena Orden Al Norte",
"PostCode": "41100",
"LatLong": "-31.81,-55.5156"
},
{
"Name": "Cerro Blanco De Cuñapiru",
"PostCode": "41100",
"LatLong": "-31.81,-55.5156"
},
{
"Name": "Rincon De Roland",
"PostCode": "41100",
"LatLong": "-31.81,-55.5156"
},
{
"Name": "Coronilla De Corrales",
"PostCode": "41100",
"LatLong": "-31.81,-55.5156"
},
{
"Name": "Cerro Pelado Al Este",
"PostCode": "41100",
"LatLong": "-31.81,-55.5156"
},
{
"Name": "Costas De Cuñapiru",
"PostCode": "41100",
"LatLong": "-31.81,-55.5156"
},
{
"Name": "Paso Casildo",
"PostCode": "41100",
"LatLong": "-31.81,-55.5156"
},
{
"Name": "Rincon De Los Castillos",
"PostCode": "41100",
"LatLong": "-31.81,-55.5156"
},
{
"Name": "El Ceibo",
"PostCode": "41200",
"LatLong": "-33.5167,-53.7833"
},
{
"Name": "Cerros Blancos",
"PostCode": "41200",
"LatLong": "-31.7667,-54.8"
},
{
"Name": "Zanja Honda",
"PostCode": "41200",
"LatLong": "-31.8167,-54.6667"
},
{
"Name": "Arroyo Blanco",
"PostCode": "41200",
"LatLong": "-31.6833,-54.7667"
},
{
"Name": "Abrojal",
"PostCode": "41200",
"LatLong": "-31.75,-55.0167"
},
{
"Name": "La Cerrillada",
"PostCode": "41200",
"LatLong": "-32.1506,-54.6891"
},
{
"Name": "Coronilla",
"PostCode": "41200",
"LatLong": "-33.5579,-53.858"
},
{
"Name": "Amarillo",
"PostCode": "41200",
"LatLong": "-32.1506,-54.6891"
},
{
"Name": "Rincon De Yaguari",
"PostCode": "41200",
"LatLong": "-31.8167,-55.1833"
},
{
"Name": "El Palmito",
"PostCode": "41200",
"LatLong": "-32.1506,-54.6891"
},
{
"Name": "Vichadero",
"PostCode": "41200",
"LatLong": "-31.8,-54.7167"
},
{
"Name": "Alborada",
"PostCode": "41200",
"LatLong": "-32.1506,-54.6891"
},
{
"Name": "Cerro Chato",
"PostCode": "41200",
"LatLong": "-33.1,-55.1333"
},
{
"Name": "Paso Del Puerto",
"PostCode": "41200",
"LatLong": "-32.1506,-54.6891"
},
{
"Name": "Caraguata",
"PostCode": "41200",
"LatLong": "-31.7833,-54.75"
},
{
"Name": "Hospital",
"PostCode": "41200",
"LatLong": "-31.6833,-54.65"
},
{
"Name": "Paso De Frontera",
"PostCode": "41200",
"LatLong": "-32.1506,-54.6891"
},
{
"Name": "Moirones",
"PostCode": "41200",
"LatLong": "-31.6333,-55"
},
{
"Name": "Paso De Arriera",
"PostCode": "41200",
"LatLong": "-32.1506,-54.6891"
},
{
"Name": "La Chilca",
"PostCode": "41200",
"LatLong": "-32.05,-54.6333"
},
{
"Name": "Puntas De Abrojal",
"PostCode": "41200",
"LatLong": "-32.1506,-54.6891"
},
{
"Name": "Rincon De Amarillo",
"PostCode": "41200",
"LatLong": "-32.1506,-54.6891"
},
{
"Name": "Pueblo De Los Santos",
"PostCode": "41200",
"LatLong": "-32.1506,-54.6891"
},
{
"Name": "Pueblo Socorro",
"PostCode": "41200",
"LatLong": "-32.1506,-54.6891"
},
{
"Name": "Rincon De Rodriguez",
"PostCode": "41200",
"LatLong": "-32.1506,-54.6891"
},
{
"Name": "Paso Amarillo",
"PostCode": "41200",
"LatLong": "-32.1506,-54.6891"
},
{
"Name": "Chirca De Caraguata",
"PostCode": "41200",
"LatLong": "-32.1506,-54.6891"
},
{
"Name": "Tres Cerros",
"PostCode": "45000",
"LatLong": "-31.3667,-55.6667"
},
{
"Name": "Rincon De Tres Cerros",
"PostCode": "45000",
"LatLong": "-31.9435,-55.7274"
},
{
"Name": "Rincon De Diniz",
"PostCode": "45000",
"LatLong": "-31.9435,-55.7274"
},
{
"Name": "Manuel Diaz",
"PostCode": "45000",
"LatLong": "-31.9435,-55.7274"
},
{
"Name": "Paso De Gaire",
"PostCode": "45000",
"LatLong": "-31.9435,-55.7274"
}
]
}
]
}
]
},
{
"Name": "Rocha",
"Code": "14",
"Provinces": [
{
"Communities": [
{
"Places": [
{
"Name": "19 De Abril",
"PostCode": "27000",
"LatLong": "-34.3628,-54.0672"
},
{
"Name": "Garzon Al Medio",
"PostCode": "27000",
"LatLong": "-34.5339,-54.621"
},
{
"Name": "La Sierra",
"PostCode": "27000",
"LatLong": "-34.7473,-55.4001"
},
{
"Name": "Paralle",
"PostCode": "27000",
"LatLong": "-34.2215,-54.3161"
},
{
"Name": "Puntas De Don Carlos",
"PostCode": "27000",
"LatLong": "-34.5339,-54.621"
},
{
"Name": "Rocha",
"PostCode": "27000",
"LatLong": "-34.4833,-54.3333"
},
{
"Name": "Picada Tolosa",
"PostCode": "27000",
"LatLong": "-34.6434,-54.5025"
},
{
"Name": "Sarandi De La India Muerta",
"PostCode": "27000",
"LatLong": "-34.5339,-54.621"
},
{
"Name": "Los Cerrillos",
"PostCode": "27000",
"LatLong": "-34.605,-56.3564"
},
{
"Name": "La Ribiera",
"PostCode": "27000",
"LatLong": "-34.5452,-54.3266"
},
{
"Name": "Garzon Abajo",
"PostCode": "27000",
"LatLong": "-34.5339,-54.621"
},
{
"Name": "El Canelon",
"PostCode": "27000",
"LatLong": "-34.5957,-54.4158"
},
{
"Name": "Puerto De Los Botes",
"PostCode": "27000",
"LatLong": "-34.5448,-54.3185"
},
{
"Name": "Cuchilla De Garzon",
"PostCode": "27000",
"LatLong": "-34.5339,-54.621"
},
{
"Name": "Lomas",
"PostCode": "27000",
"LatLong": "-34.5903,-54.1734"
},
{
"Name": "La Centinela",
"PostCode": "27000",
"LatLong": "-34.5339,-54.621"
},
{
"Name": "Sauce De Rocha",
"PostCode": "27000",
"LatLong": "-34.5339,-54.621"
},
{
"Name": "India Muerta",
"PostCode": "27000",
"LatLong": "-34.5339,-54.621"
},
{
"Name": "Paso Doña Rosa",
"PostCode": "27000",
"LatLong": "-34.5339,-54.621"
},
{
"Name": "Sierra De Los Rocha",
"PostCode": "27000",
"LatLong": "-34.5339,-54.621"
},
{
"Name": "Garzon Arriba",
"PostCode": "27000",
"LatLong": "-34.5339,-54.621"
},
{
"Name": "Kilometro 18",
"PostCode": "27000",
"LatLong": "-34.5339,-54.621"
},
{
"Name": "Arbolito",
"PostCode": "27000",
"LatLong": "-34.5339,-54.621"
},
{
"Name": "La Coronilla",
"PostCode": "27100",
"LatLong": "-33.5579,-53.858"
},
{
"Name": "La Fortaleza De Santa Teresa",
"PostCode": "27100",
"LatLong": "-33.7612,-53.5241"
},
{
"Name": "Palmares De La Coronilla",
"PostCode": "27100",
"LatLong": "-33.8491,-53.484"
},
{
"Name": "Samuel",
"PostCode": "27100",
"LatLong": "-33.7612,-53.5241"
},
{
"Name": "Barra Del Chuy",
"PostCode": "27100",
"LatLong": "-33.7491,-53.3794"
},
{
"Name": "Chuy",
"PostCode": "27100",
"LatLong": "-33.6979,-53.4593"
},
{
"Name": "Barrancas De La Coronilla",
"PostCode": "27100",
"LatLong": "-33.7612,-53.5241"
},
{
"Name": "Capacho",
"PostCode": "27100",
"LatLong": "-33.8947,-53.5286"
},
{
"Name": "Fortin De San Miguel",
"PostCode": "27100",
"LatLong": "-33.7612,-53.5241"
},
{
"Name": "18 De Julio",
"PostCode": "27100",
"LatLong": "-33.6822,-53.5532"
},
{
"Name": "Barrio Carpacho",
"PostCode": "27100",
"LatLong": "-33.7612,-53.5241"
},
{
"Name": "Puimayen",
"PostCode": "27100",
"LatLong": "-33.7741,-53.4093"
},
{
"Name": "Los Indios",
"PostCode": "27100",
"LatLong": "-33.7612,-53.5241"
},
{
"Name": "Barrio Pereira",
"PostCode": "27100",
"LatLong": "-33.8845,-53.5209"
},
{
"Name": "Aguas Dulces",
"PostCode": "27200",
"LatLong": "-34.2745,-53.7821"
},
{
"Name": "Castillos",
"PostCode": "27200",
"LatLong": "-34.1987,-53.8592"
},
{
"Name": "La Esmeralda",
"PostCode": "27200",
"LatLong": "-34.1573,-53.6976"
},
{
"Name": "Vuelta Del Palmar",
"PostCode": "27200",
"LatLong": "-34.1979,-53.7867"
},
{
"Name": "Palmar De Castillos",
"PostCode": "27200",
"LatLong": "-34.2661,-53.9351"
},
{
"Name": "Oratorio",
"PostCode": "27200",
"LatLong": "-33.9833,-53.9833"
},
{
"Name": "Paso Del Bañado",
"PostCode": "27200",
"LatLong": "-34.2,-53.9333"
},
{
"Name": "Cerro De Los Rocha",
"PostCode": "27200",
"LatLong": "-34.2145,-53.8161"
},
{
"Name": "Cabo Polonio",
"PostCode": "27200",
"LatLong": "-34.4024,-53.7826"
},
{
"Name": "Punta Palmar",
"PostCode": "27200",
"LatLong": "-34.2145,-53.8161"
},
{
"Name": "Barra De Valizas",
"PostCode": "27200",
"LatLong": "-34.3359,-53.7958"
},
{
"Name": "Cerro De Pescadores",
"PostCode": "27200",
"LatLong": "-34.2145,-53.8161"
},
{
"Name": "Punta Del Diablo",
"PostCode": "27200",
"LatLong": "-34.0458,-53.5405"
},
{
"Name": "Puente Valizas",
"PostCode": "27200",
"LatLong": "-34.2145,-53.8161"
},
{
"Name": "Rincon De Los Olivera",
"PostCode": "27200",
"LatLong": "-34.303,-53.8479"
},
{
"Name": "Barrio Cardozo",
"PostCode": "27200",
"LatLong": "-34.2145,-53.8161"
},
{
"Name": "Barrio Torres",
"PostCode": "27200",
"LatLong": "-34.2091,-53.849"
},
{
"Name": "Rincon De Valizas",
"PostCode": "27200",
"LatLong": "-34.2145,-53.8161"
},
{
"Name": "Plano 291",
"PostCode": "27200",
"LatLong": "-34.2145,-53.8161"
},
{
"Name": "Palmar",
"PostCode": "27200",
"LatLong": "-34.2145,-53.8161"
},
{
"Name": "San Luis Al Medio",
"PostCode": "27300",
"LatLong": "-33.6035,-53.7166"
},
{
"Name": "Paso De Lopez",
"PostCode": "27300",
"LatLong": "-33.8969,-54.3212"
},
{
"Name": "Lascano",
"PostCode": "27300",
"LatLong": "-33.6724,-54.2065"
},
{
"Name": "La Tuna",
"PostCode": "27300",
"LatLong": "-34.7802,-55.5648"
},
{
"Name": "Isla Negra",
"PostCode": "27300",
"LatLong": "-33.8969,-54.3212"
},
{
"Name": "Cebollati",
"PostCode": "27300",
"LatLong": "-33.267,-53.7943"
},
{
"Name": "El Chimango",
"PostCode": "27300",
"LatLong": "-33.8256,-54.1952"
},
{
"Name": "Barrio Porvenir",
"PostCode": "27300",
"LatLong": "-33.8969,-54.3212"
},
{
"Name": "Velazquez",
"PostCode": "27300",
"LatLong": "-34.0363,-54.2805"
},
{
"Name": "Quebracho",
"PostCode": "27300",
"LatLong": "-33.8969,-54.3212"
},
{
"Name": "Punta Cebollati",
"PostCode": "27300",
"LatLong": "-33.8969,-54.3212"
},
{
"Name": "Los Ajos",
"PostCode": "27300",
"LatLong": "-33.8969,-54.3212"
},
{
"Name": "Alferez",
"PostCode": "27300",
"LatLong": "-33.8969,-54.3212"
},
{
"Name": "Cuchilla Del Arbolito",
"PostCode": "27300",
"LatLong": "-33.8969,-54.3212"
},
{
"Name": "Colonia Greissing",
"PostCode": "27300",
"LatLong": "-33.8969,-54.3212"
},
{
"Name": "Paso Del Ombu",
"PostCode": "27300",
"LatLong": "-33.8969,-54.3212"
},
{
"Name": "Costas De Cebollati",
"PostCode": "27300",
"LatLong": "-33.8969,-54.3212"
},
{
"Name": "Empalme De Velazquez",
"PostCode": "27300",
"LatLong": "-33.8969,-54.3212"
},
{
"Name": "Abra De Alferez",
"PostCode": "27300",
"LatLong": "-33.8969,-54.3212"
},
{
"Name": "Barra Isla Negra",
"PostCode": "27300",
"LatLong": "-33.8969,-54.3212"
},
{
"Name": "Costa Azul",
"PostCode": "27400",
"LatLong": "-34.6293,-54.1531"
},
{
"Name": "Oceania Del Polonio",
"PostCode": "27400",
"LatLong": "-34.588,-54.4242"
},
{
"Name": "La Pedrera",
"PostCode": "27400",
"LatLong": "-34.5921,-54.1235"
},
{
"Name": "Balneario Pueblo Nuevo",
"PostCode": "27400",
"LatLong": "-34.588,-54.4242"
},
{
"Name": "Pueblo Nuevo",
"PostCode": "27400",
"LatLong": "-34.4424,-56.443"
},
{
"Name": "Tajamares De La Pedrera",
"PostCode": "27400",
"LatLong": "-34.588,-54.4242"
},
{
"Name": "Punta Rubia",
"PostCode": "27400",
"LatLong": "-34.5777,-54.1201"
},
{
"Name": "San Sebastian",
"PostCode": "27400",
"LatLong": "-34.588,-54.4242"
},
{
"Name": "Puerto La Paloma",
"PostCode": "27400",
"LatLong": "-34.6627,-54.1645"
},
{
"Name": "La Aguada Y Costa Azul",
"PostCode": "27400",
"LatLong": "-34.588,-54.4242"
},
{
"Name": "La Aguada",
"PostCode": "27400",
"LatLong": "-34.6374,-54.1605"
},
{
"Name": "San Sebastian De La Pedrera",
"PostCode": "27400",
"LatLong": "-34.588,-54.4242"
},
{
"Name": "San Antonio",
"PostCode": "27400",
"LatLong": "-34.5479,-54.0786"
},
{
"Name": "Antoniopolis",
"PostCode": "27400",
"LatLong": "-34.588,-54.4242"
},
{
"Name": "Arachania",
"PostCode": "27400",
"LatLong": "-34.6148,-54.1507"
}
]
}
]
}
]
},
{
"Name": "Salto",
"Code": "15",
"Provinces": [
{
"Communities": [
{
"Places": [
{
"Name": "Salto",
"PostCode": "50000",
"LatLong": "-31.3833,-57.9667"
},
{
"Name": "Paso Del Potrero",
"PostCode": "50000",
"LatLong": "-31.438,-56.8383"
},
{
"Name": "Paso  Valega",
"PostCode": "50000",
"LatLong": "-31.3475,-57.1208"
},
{
"Name": "Lluveras",
"PostCode": "50000",
"LatLong": "-31.1015,-57.0641"
},
{
"Name": "Ferreira",
"PostCode": "50000",
"LatLong": "-31.1019,-56.9562"
},
{
"Name": "Mataojito",
"PostCode": "50000",
"LatLong": "-31.1785,-56.3676"
},
{
"Name": "Las Flores",
"PostCode": "50000",
"LatLong": "-31.3475,-57.1208"
},
{
"Name": "Pueblo Cayetano",
"PostCode": "50000",
"LatLong": "-31.2367,-56.7621"
},
{
"Name": "Saucedo",
"PostCode": "50000",
"LatLong": "-31.1076,-57.5293"
},
{
"Name": "Arenitas Blancas",
"PostCode": "50000",
"LatLong": "-31.4161,-58"
},
{
"Name": "Paso De Las Piedras De Arerungua",
"PostCode": "50000",
"LatLong": "-31.3475,-57.1208"
},
{
"Name": "Parada Herreria",
"PostCode": "50000",
"LatLong": "-31.367,-57.7923"
},
{
"Name": "Sopas",
"PostCode": "50000",
"LatLong": "-31.3475,-57.1208"
},
{
"Name": "Paso Cementerio",
"PostCode": "50000",
"LatLong": "-31.3992,-56.7436"
},
{
"Name": "Cuchilla Del Salto",
"PostCode": "50000",
"LatLong": "-31.3475,-57.1208"
},
{
"Name": "Laureles",
"PostCode": "50000",
"LatLong": "-31.499,-57.5255"
},
{
"Name": "Tropezon",
"PostCode": "50000",
"LatLong": "-31.3475,-57.1208"
},
{
"Name": "Toro Negro",
"PostCode": "50000",
"LatLong": "-31.35,-56.6333"
},
{
"Name": "Talas De Itapebi",
"PostCode": "50000",
"LatLong": "-31.3475,-57.1208"
},
{
"Name": "Colonia Lavalleja",
"PostCode": "50000",
"LatLong": "-31.0939,-57.0233"
},
{
"Name": "Los Orientales",
"PostCode": "50000",
"LatLong": "-31.3475,-57.1208"
},
{
"Name": "Parque Jose Luis",
"PostCode": "50000",
"LatLong": "-31.2896,-57.943"
},
{
"Name": "La Caballada",
"PostCode": "50000",
"LatLong": "-31.3475,-57.1208"
},
{
"Name": "Pueblo Fernandez",
"PostCode": "50000",
"LatLong": "-31.1785,-56.3676"
},
{
"Name": "Paso Del Parque Del Dayman",
"PostCode": "50000",
"LatLong": "-31.3475,-57.1208"
},
{
"Name": "San Antonio",
"PostCode": "50000",
"LatLong": "-31.3513,-57.759"
},
{
"Name": "Colonia 18 De Julio",
"PostCode": "50000",
"LatLong": "-31.3475,-57.1208"
},
{
"Name": "Bordenave",
"PostCode": "50000",
"LatLong": "-31.0835,-56.6868"
},
{
"Name": "Osimani Y Llerena",
"PostCode": "50000",
"LatLong": "-31.3475,-57.1208"
},
{
"Name": "Cerros De Vera",
"PostCode": "50000",
"LatLong": "-31.5992,-56.8106"
},
{
"Name": "Pueblo Farias",
"PostCode": "50000",
"LatLong": "-31.3475,-57.1208"
},
{
"Name": "Mataojo Grande",
"PostCode": "50000",
"LatLong": "-31.3475,-57.1208"
},
{
"Name": "Russo",
"PostCode": "50000",
"LatLong": "-31.3475,-57.1208"
},
{
"Name": "Cerrilladas De Saucedo",
"PostCode": "50000",
"LatLong": "-31.1392,-57.5206"
},
{
"Name": "Colonia Osimani",
"PostCode": "50000",
"LatLong": "-31.3475,-57.1208"
},
{
"Name": "Itapebi",
"PostCode": "50000",
"LatLong": "-31.2863,-57.705"
},
{
"Name": "La Bolsa 03",
"PostCode": "50000",
"LatLong": "-31.3475,-57.1208"
},
{
"Name": "Rincon De Valentin",
"PostCode": "50000",
"LatLong": "-31.2825,-57.2002"
},
{
"Name": "La Bolsa 02",
"PostCode": "50000",
"LatLong": "-31.3475,-57.1208"
},
{
"Name": "Cerrillada",
"PostCode": "50000",
"LatLong": "-31.65,-56.8333"
},
{
"Name": "Pueblo Quintana",
"PostCode": "50000",
"LatLong": "-31.3475,-57.1208"
},
{
"Name": "Sauce Chico",
"PostCode": "50000",
"LatLong": "-31.5167,-57.5833"
},
{
"Name": "Zanja Del Tigre",
"PostCode": "50000",
"LatLong": "-31.3475,-57.1208"
},
{
"Name": "Cerro Chato",
"PostCode": "50000",
"LatLong": "-33.1,-55.1333"
},
{
"Name": "Nueva Hesperides",
"PostCode": "50000",
"LatLong": "-31.3475,-57.1208"
},
{
"Name": "Carumbe",
"PostCode": "50000",
"LatLong": "-31.5231,-56.6037"
},
{
"Name": "Zanja De Alcain",
"PostCode": "50000",
"LatLong": "-31.3475,-57.1208"
},
{
"Name": "Garibaldi",
"PostCode": "50000",
"LatLong": "-31.3393,-57.8274"
},
{
"Name": "El Mellado",
"PostCode": "50000",
"LatLong": "-31.3475,-57.1208"
},
{
"Name": "Valentin Grande",
"PostCode": "50000",
"LatLong": "-31.2735,-57.1568"
},
{
"Name": "Pueblo Ramos",
"PostCode": "50000",
"LatLong": "-31.3475,-57.1208"
},
{
"Name": "Palomas",
"PostCode": "50000",
"LatLong": "-31.0809,-57.6093"
},
{
"Name": "Corralito",
"PostCode": "50000",
"LatLong": "-31.3475,-57.1208"
},
{
"Name": "Cuchilla De Guaviyu",
"PostCode": "50000",
"LatLong": "-31.0266,-56.5611"
},
{
"Name": "Paso Fialho",
"PostCode": "50000",
"LatLong": "-31.3475,-57.1208"
},
{
"Name": "Termas Del Arapey",
"PostCode": "50000",
"LatLong": "-30.9475,-57.5209"
},
{
"Name": "Corral De Piedra",
"PostCode": "50000",
"LatLong": "-31.3475,-57.1208"
},
{
"Name": "Olivera",
"PostCode": "50000",
"LatLong": "-31.119,-56.8781"
},
{
"Name": "Colonia Rubio",
"PostCode": "50000",
"LatLong": "-31.3475,-57.1208"
},
{
"Name": "Sarandi De Arapey",
"PostCode": "50000",
"LatLong": "-30.9875,-56.2154"
},
{
"Name": "Balneario Albisu",
"PostCode": "50000",
"LatLong": "-31.3475,-57.1208"
},
{
"Name": "Tropiezo",
"PostCode": "50000",
"LatLong": "-31.4,-57.7833"
},
{
"Name": "La Viticola",
"PostCode": "50000",
"LatLong": "-31.3475,-57.1208"
},
{
"Name": "Termas Del Dayman",
"PostCode": "50000",
"LatLong": "-31.4526,-57.9079"
},
{
"Name": "Campo De Todos",
"PostCode": "50000",
"LatLong": "-31.5596,-57.614"
},
{
"Name": "Colonia Itapebi",
"PostCode": "50000",
"LatLong": "-31.3333,-57.4122"
},
{
"Name": "La Bolsa",
"PostCode": "50000",
"LatLong": "-31.25,-57.2"
},
{
"Name": "Celeste",
"PostCode": "50000",
"LatLong": "-31.3,-57.0667"
},
{
"Name": "Biassini",
"PostCode": "50000",
"LatLong": "-31.2759,-57.1241"
},
{
"Name": "Paso Del Tapado",
"PostCode": "50000",
"LatLong": "-31.25,-55.3333"
},
{
"Name": "Puntas De Valentin",
"PostCode": "50000",
"LatLong": "-31.4969,-57.1329"
},
{
"Name": "Guaviyu De Arapey",
"PostCode": "50000",
"LatLong": "-31.0315,-56.6322"
},
{
"Name": "Pepe Nuñez",
"PostCode": "50000",
"LatLong": "-31.4543,-56.3868"
},
{
"Name": "Paso Nuevo Del Arapey",
"PostCode": "50000",
"LatLong": "-31.1269,-56.6634"
},
{
"Name": "El Espinillar",
"PostCode": "50100",
"LatLong": "-30.9562,-57.845"
},
{
"Name": "Constitucion",
"PostCode": "50100",
"LatLong": "-31.0691,-57.8495"
},
{
"Name": "Chacras De Constitucion",
"PostCode": "50100",
"LatLong": "-31.0725,-57.7893"
},
{
"Name": "Belen",
"PostCode": "50200",
"LatLong": "-30.7872,-57.7758"
},
{
"Name": "Yacuy",
"PostCode": "50200",
"LatLong": "-30.741,-57.6296"
},
{
"Name": "Chacras De Belen",
"PostCode": "50200",
"LatLong": "-30.8074,-57.7737"
}
]
}
]
}
]
},
{
"Name": "San Jose",
"Code": "16",
"Provinces": [
{
"Communities": [
{
"Places": [
{
"Name": "Juncal",
"PostCode": "80000",
"LatLong": "-34.0971,-56.1851"
},
{
"Name": "Mal Abrigo",
"PostCode": "80000",
"LatLong": "-34.147,-56.9526"
},
{
"Name": "San Jose De Mayo",
"PostCode": "80000",
"LatLong": "-34.3375,-56.7136"
},
{
"Name": "Escudero",
"PostCode": "80000",
"LatLong": "-34.2167,-57"
},
{
"Name": "Perico Perez",
"PostCode": "80000",
"LatLong": "-34.2487,-56.7256"
},
{
"Name": "Colonia America",
"PostCode": "80000",
"LatLong": "-34.2,-56.9833"
},
{
"Name": "Carreta Quemada",
"PostCode": "80000",
"LatLong": "-34.1726,-56.5523"
},
{
"Name": "Cruz De Los Caminos",
"PostCode": "80000",
"LatLong": "-34.25,-56.6833"
},
{
"Name": "Juan Soler",
"PostCode": "80000",
"LatLong": "-34.3232,-56.8043"
},
{
"Name": "Pantanoso",
"PostCode": "80000",
"LatLong": "-34.5429,-56.0601"
},
{
"Name": "Bañado",
"PostCode": "80000",
"LatLong": "-34.2487,-56.7256"
},
{
"Name": "Gonzalez",
"PostCode": "80000",
"LatLong": "-34.2292,-56.8742"
},
{
"Name": "Rincon De Arias",
"PostCode": "80000",
"LatLong": "-34.2487,-56.7256"
},
{
"Name": "Chamizo",
"PostCode": "80000",
"LatLong": "-34.1667,-56.6833"
},
{
"Name": "Mundo Azul Aguirre",
"PostCode": "80000",
"LatLong": "-34.2487,-56.7256"
},
{
"Name": "Cañada Grande",
"PostCode": "80000",
"LatLong": "-34.4079,-56.7391"
},
{
"Name": "Paso Del Carreton",
"PostCode": "80000",
"LatLong": "-34.2487,-56.7256"
},
{
"Name": "Puntas De Cañada Grande",
"PostCode": "80000",
"LatLong": "-34.4079,-56.7391"
},
{
"Name": "Cagancha Chico",
"PostCode": "80000",
"LatLong": "-34.2487,-56.7256"
},
{
"Name": "Bella Vista",
"PostCode": "80000",
"LatLong": "-34.3167,-57"
},
{
"Name": "Paso De Cames",
"PostCode": "80000",
"LatLong": "-34.2487,-56.7256"
},
{
"Name": "San Gregorio",
"PostCode": "80000",
"LatLong": "-33.9336,-56.756"
},
{
"Name": "Arroyo De La Virgen",
"PostCode": "80000",
"LatLong": "-34.1333,-56.4"
},
{
"Name": "Puntas De Laurel",
"PostCode": "80000",
"LatLong": "-34.2487,-56.7256"
},
{
"Name": "Pavon",
"PostCode": "80000",
"LatLong": "-34.3117,-56.9044"
},
{
"Name": "Rincon De Nazareth",
"PostCode": "80000",
"LatLong": "-34.2487,-56.7256"
},
{
"Name": "Rincon Del Pino",
"PostCode": "80000",
"LatLong": "-34.5033,-56.8348"
},
{
"Name": "Tala De Pereira",
"PostCode": "80000",
"LatLong": "-34.2487,-56.7256"
},
{
"Name": "Villa Maria",
"PostCode": "80000",
"LatLong": "-34.5154,-56.7614"
},
{
"Name": "Rocho",
"PostCode": "80000",
"LatLong": "-34.2487,-56.7256"
},
{
"Name": "Raigon",
"PostCode": "80000",
"LatLong": "-34.3402,-56.663"
},
{
"Name": "Tabarez",
"PostCode": "80000",
"LatLong": "-34.2487,-56.7256"
},
{
"Name": "La Casilla",
"PostCode": "80000",
"LatLong": "-33.6703,-56.9472"
},
{
"Name": "Pachina",
"PostCode": "80000",
"LatLong": "-34.2487,-56.7256"
},
{
"Name": "Fajina",
"PostCode": "80000",
"LatLong": "-34.2487,-56.7256"
},
{
"Name": "Laurel",
"PostCode": "80000",
"LatLong": "-34.2487,-56.7256"
},
{
"Name": "Jesus Maria",
"PostCode": "80000",
"LatLong": "-34.2487,-56.7256"
},
{
"Name": "Fajardo",
"PostCode": "80000",
"LatLong": "-34.2487,-56.7256"
},
{
"Name": "Cuchilla Seca",
"PostCode": "80000",
"LatLong": "-34.2487,-56.7256"
},
{
"Name": "Puntas De Chamizo",
"PostCode": "80000",
"LatLong": "-34.2487,-56.7256"
},
{
"Name": "Coronilla",
"PostCode": "80000",
"LatLong": "-34.2487,-56.7256"
},
{
"Name": "Mahoma",
"PostCode": "80000",
"LatLong": "-34.2487,-56.7256"
},
{
"Name": "Arroyo Llano",
"PostCode": "80000",
"LatLong": "-34.2487,-56.7256"
},
{
"Name": "Cuchilla De Pereira",
"PostCode": "80000",
"LatLong": "-34.2487,-56.7256"
},
{
"Name": "Costas Del Sauce",
"PostCode": "80000",
"LatLong": "-34.2487,-56.7256"
},
{
"Name": "Puntas De Cagancha",
"PostCode": "80000",
"LatLong": "-34.2487,-56.7256"
},
{
"Name": "Paso De Mas",
"PostCode": "80000",
"LatLong": "-34.2487,-56.7256"
},
{
"Name": "Mundo Azul",
"PostCode": "80000",
"LatLong": "-34.2487,-56.7256"
},
{
"Name": "Panta",
"PostCode": "80000",
"LatLong": "-34.2487,-56.7256"
},
{
"Name": "Tranquera Colorada",
"PostCode": "80000",
"LatLong": "-34.2487,-56.7256"
},
{
"Name": "Paso Del Rey",
"PostCode": "80000",
"LatLong": "-34.2487,-56.7256"
},
{
"Name": "Zanja Honda",
"PostCode": "80000",
"LatLong": "-34.2487,-56.7256"
},
{
"Name": "Puntas De Gregorio",
"PostCode": "80000",
"LatLong": "-34.2487,-56.7256"
},
{
"Name": "Valdez Chico",
"PostCode": "80100",
"LatLong": "-34.5308,-56.6187"
},
{
"Name": "Puntas De Tropa Vieja",
"PostCode": "80100",
"LatLong": "-34.5821,-56.509"
},
{
"Name": "Rincon De Buschental",
"PostCode": "80100",
"LatLong": "-34.5885,-56.5265"
},
{
"Name": "Sauce",
"PostCode": "80100",
"LatLong": "-34.5709,-56.0816"
},
{
"Name": "Orillas Del Plata",
"PostCode": "80100",
"LatLong": "-34.5821,-56.509"
},
{
"Name": "Libertad",
"PostCode": "80100",
"LatLong": "-34.6346,-56.6174"
},
{
"Name": "Puntas De Valdez",
"PostCode": "80100",
"LatLong": "-34.5855,-56.701"
},
{
"Name": "Sauce Chico",
"PostCode": "80100",
"LatLong": "-34.5821,-56.509"
},
{
"Name": "Cololo Tinosa",
"PostCode": "80100",
"LatLong": "-34.5821,-56.509"
},
{
"Name": "Costa Del Mauricio",
"PostCode": "80100",
"LatLong": "-34.5821,-56.509"
},
{
"Name": "Colonia Juan Maria Perez",
"PostCode": "80100",
"LatLong": "-34.5821,-56.509"
},
{
"Name": "Kiyu - Ordeig",
"PostCode": "80100",
"LatLong": "-34.5821,-56.509"
},
{
"Name": "Colonia Italia",
"PostCode": "80100",
"LatLong": "-34.5821,-56.509"
},
{
"Name": "Radial Ruta 3",
"PostCode": "80100",
"LatLong": "-34.5821,-56.509"
},
{
"Name": "Paso De Las Piedras",
"PostCode": "80200",
"LatLong": "-31.6667,-56.6333"
},
{
"Name": "Rafael Perazza",
"PostCode": "80200",
"LatLong": "-34.5233,-56.7971"
},
{
"Name": "Costas De Pereira",
"PostCode": "80200",
"LatLong": "-32.7689,-55.8324"
},
{
"Name": "Mangrullo",
"PostCode": "80200",
"LatLong": "-32.1167,-54.0667"
},
{
"Name": "Colonia Fernandez Crespo",
"PostCode": "80200",
"LatLong": "-32.7689,-55.8324"
},
{
"Name": "Colonia San Joaquin",
"PostCode": "80200",
"LatLong": "-32.7689,-55.8324"
},
{
"Name": "La Boyada",
"PostCode": "80300",
"LatLong": "-34.4075,-56.9877"
},
{
"Name": "Boca Del Cufre",
"PostCode": "80300",
"LatLong": "-34.4423,-57.1476"
},
{
"Name": "Colonia Delta",
"PostCode": "80300",
"LatLong": "-34.3945,-57.057"
},
{
"Name": "Scavino",
"PostCode": "80300",
"LatLong": "-34.3706,-57.0437"
},
{
"Name": "Ecilda Paullier",
"PostCode": "80300",
"LatLong": "-34.3578,-57.0488"
},
{
"Name": "Rincon De Cufre",
"PostCode": "80300",
"LatLong": "-34.3945,-57.057"
},
{
"Name": "Rincon De Arazati",
"PostCode": "80300",
"LatLong": "-34.3945,-57.057"
},
{
"Name": "Picada Gambetta",
"PostCode": "80300",
"LatLong": "-34.3945,-57.057"
},
{
"Name": "La Cuchilla",
"PostCode": "80400",
"LatLong": "-34.3648,-56.5316"
},
{
"Name": "Tropezon",
"PostCode": "80400",
"LatLong": "-34.4,-56.5333"
},
{
"Name": "Estacion Rodriguez",
"PostCode": "80400",
"LatLong": "-34.3824,-56.5325"
},
{
"Name": "Cagancha",
"PostCode": "80400",
"LatLong": "-34.3824,-56.5325"
},
{
"Name": "Cuchilla Del Vichadero",
"PostCode": "80400",
"LatLong": "-34.3824,-56.5325"
},
{
"Name": "Rincon De La Torre",
"PostCode": "80400",
"LatLong": "-34.3824,-56.5325"
},
{
"Name": "Santa Monica",
"PostCode": "80500",
"LatLong": "-34.8497,-54.6993"
},
{
"Name": "Colonia Wilson",
"PostCode": "80500",
"LatLong": "-34.8389,-55.3444"
},
{
"Name": "Ciudad Del Plata",
"PostCode": "80500",
"LatLong": "-34.767,-56.3838"
},
{
"Name": "Tropas Viejas",
"PostCode": "80500",
"LatLong": "-34.8389,-55.3444"
},
{
"Name": "San Fernando",
"PostCode": "80500",
"LatLong": "-34.9,-54.95"
},
{
"Name": "Parque Postel Cnel. Adrian Medina",
"PostCode": "80500",
"LatLong": "-34.8389,-55.3444"
},
{
"Name": "Parque Postel",
"PostCode": "80500",
"LatLong": "-34.8389,-55.3444"
},
{
"Name": "Monte Grande",
"PostCode": "80500",
"LatLong": "-34.8389,-55.3444"
},
{
"Name": "Villa Olimpica",
"PostCode": "80500",
"LatLong": "-34.8389,-55.3444"
},
{
"Name": "Villa Rives",
"PostCode": "80500",
"LatLong": "-34.8389,-55.3444"
},
{
"Name": "San Fernando Chico",
"PostCode": "80500",
"LatLong": "-34.8389,-55.3444"
},
{
"Name": "Penino",
"PostCode": "80500",
"LatLong": "-34.8389,-55.3444"
},
{
"Name": "Autodromo Nacional",
"PostCode": "80500",
"LatLong": "-34.8389,-55.3444"
},
{
"Name": "Playa Pascual",
"PostCode": "80500",
"LatLong": "-34.8389,-55.3444"
},
{
"Name": "Safici",
"PostCode": "80500",
"LatLong": "-34.8389,-55.3444"
},
{
"Name": "Rincon De La Bolsa",
"PostCode": "80500",
"LatLong": "-34.8389,-55.3444"
},
{
"Name": "Ceramicas Del Sur",
"PostCode": "80500",
"LatLong": "-34.8389,-55.3444"
},
{
"Name": "Delta El Tigre",
"PostCode": "80500",
"LatLong": "-34.8389,-55.3444"
},
{
"Name": "Guaycuru",
"PostCode": "85000",
"LatLong": "-33.9849,-56.9844"
},
{
"Name": "Paso Del Guaycuru",
"PostCode": "85000",
"LatLong": "-33.9849,-56.9844"
},
{
"Name": "Ituzaingo",
"PostCode": "90200",
"LatLong": "-34.4203,-56.4249"
},
{
"Name": "18 De Julio",
"PostCode": "90200",
"LatLong": "-34.2746,-56.1122"
},
{
"Name": "Capurro",
"PostCode": "90200",
"LatLong": "-34.4366,-56.4645"
},
{
"Name": "Colonia Dr. Bernardo Etchepare",
"PostCode": "90200",
"LatLong": "-34.2746,-56.1122"
},
{
"Name": "Paso Belastiqui",
"PostCode": "90200",
"LatLong": "-34.2746,-56.1122"
},
{
"Name": "Rincon De Albano",
"PostCode": "90200",
"LatLong": "-34.2746,-56.1122"
}
]
}
]
}
]
},
{
"Name": "Soriano",
"Code": "17",
"Provinces": [
{
"Communities": [
{
"Places": [
{
"Name": "Castillos",
"PostCode": "70100",
"LatLong": "-33.8833,-57.6667"
},
{
"Name": "Lares",
"PostCode": "70100",
"LatLong": "-33.8283,-57.7905"
},
{
"Name": "Perseverano",
"PostCode": "70100",
"LatLong": "-33.9897,-58.1504"
},
{
"Name": "Villa Alejandrina",
"PostCode": "70700",
"LatLong": "-33.7667,-58.35"
},
{
"Name": "Agraciada",
"PostCode": "70700",
"LatLong": "-33.8098,-58.2667"
},
{
"Name": "Puntas De Arenales",
"PostCode": "70700",
"LatLong": "-33.7167,-58.2667"
},
{
"Name": "El Tala",
"PostCode": "75000",
"LatLong": "-33.25,-57.3333"
},
{
"Name": "Rincon De Cololo",
"PostCode": "75000",
"LatLong": "-33.0455,-57.8722"
},
{
"Name": "Palmar",
"PostCode": "75000",
"LatLong": "-33.0625,-57.4607"
},
{
"Name": "Bequelo",
"PostCode": "75000",
"LatLong": "-33.3244,-57.618"
},
{
"Name": "Mercedes",
"PostCode": "75000",
"LatLong": "-33.2524,-58.0305"
},
{
"Name": "Progreso",
"PostCode": "75000",
"LatLong": "-34.6674,-56.2176"
},
{
"Name": "Azotea De Vera",
"PostCode": "75000",
"LatLong": "-33.3244,-57.618"
},
{
"Name": "Villa Darwin",
"PostCode": "75000",
"LatLong": "-33.1127,-57.6333"
},
{
"Name": "Cerro Vera",
"PostCode": "75000",
"LatLong": "-33.1833,-57.4667"
},
{
"Name": "Santa Blanca",
"PostCode": "75000",
"LatLong": "-33.3244,-57.618"
},
{
"Name": "Colonia Diaz",
"PostCode": "75000",
"LatLong": "-33.3271,-58.0378"
},
{
"Name": "Sarandi Chico",
"PostCode": "75000",
"LatLong": "-33.3244,-57.618"
},
{
"Name": "San Dios",
"PostCode": "75000",
"LatLong": "-33.1009,-57.7574"
},
{
"Name": "Cololo",
"PostCode": "75000",
"LatLong": "-33.3244,-57.618"
},
{
"Name": "Cerro Alegre",
"PostCode": "75000",
"LatLong": "-33.3333,-57.95"
},
{
"Name": "La Tabla",
"PostCode": "75000",
"LatLong": "-33.3244,-57.618"
},
{
"Name": "Chacras De Mercedes",
"PostCode": "75000",
"LatLong": "-33.3244,-57.618"
},
{
"Name": "Asencio",
"PostCode": "75000",
"LatLong": "-33.3244,-57.618"
},
{
"Name": "Unidad Cooperaria No 1",
"PostCode": "75000",
"LatLong": "-33.3244,-57.618"
},
{
"Name": "Grito De Asencio",
"PostCode": "75000",
"LatLong": "-33.3244,-57.618"
},
{
"Name": "Espinillo",
"PostCode": "75100",
"LatLong": "-33.6167,-58.2833"
},
{
"Name": "La Palma",
"PostCode": "75100",
"LatLong": "-33.6637,-57.8373"
},
{
"Name": "Chacras De Dolores",
"PostCode": "75100",
"LatLong": "-33.5542,-58.2109"
},
{
"Name": "Costa Del Aguila",
"PostCode": "75100",
"LatLong": "-33.6637,-57.8373"
},
{
"Name": "Arenal Chico",
"PostCode": "75100",
"LatLong": "-33.5785,-57.1102"
},
{
"Name": "Buena Vista",
"PostCode": "75100",
"LatLong": "-33.6637,-57.8373"
},
{
"Name": "Maciel",
"PostCode": "75100",
"LatLong": "-33.6,-56.35"
},
{
"Name": "Paso De Ramos",
"PostCode": "75100",
"LatLong": "-33.6637,-57.8373"
},
{
"Name": "Bizcocho",
"PostCode": "75100",
"LatLong": "-33.431,-58.1339"
},
{
"Name": "Cañada Magallanes",
"PostCode": "75100",
"LatLong": "-33.6637,-57.8373"
},
{
"Name": "Dolores",
"PostCode": "75100",
"LatLong": "-33.5301,-58.217"
},
{
"Name": "Corralito",
"PostCode": "75100",
"LatLong": "-33.6637,-57.8373"
},
{
"Name": "La Concordia",
"PostCode": "75100",
"LatLong": "-33.5651,-58.4265"
},
{
"Name": "Cuatro Bocas De Buena Vista",
"PostCode": "75100",
"LatLong": "-33.6637,-57.8373"
},
{
"Name": "Cañada Nieto",
"PostCode": "75100",
"LatLong": "-33.6987,-58.109"
},
{
"Name": "Rincon De Ruiz",
"PostCode": "75100",
"LatLong": "-33.6637,-57.8373"
},
{
"Name": "Paso De La Arena",
"PostCode": "75100",
"LatLong": "-34.821,-56.3123"
},
{
"Name": "Cañada Paraguaya",
"PostCode": "75100",
"LatLong": "-33.5833,-58.0833"
},
{
"Name": "Las Maulas",
"PostCode": "75100",
"LatLong": "-33.6637,-57.8373"
},
{
"Name": "Villa Soriano",
"PostCode": "75100",
"LatLong": "-33.3981,-58.3218"
},
{
"Name": "La Loma",
"PostCode": "75100",
"LatLong": "-33.4224,-58.303"
},
{
"Name": "Colonia Concordia",
"PostCode": "75100",
"LatLong": "-33.6637,-57.8373"
},
{
"Name": "Palo Solo",
"PostCode": "75100",
"LatLong": "-33.8289,-58.0235"
},
{
"Name": "Rincon De Cañada Nieto",
"PostCode": "75100",
"LatLong": "-33.6637,-57.8373"
},
{
"Name": "Risso",
"PostCode": "75200",
"LatLong": "-33.6217,-57.5728"
},
{
"Name": "Colonia Larrañaga",
"PostCode": "75200",
"LatLong": "-33.7334,-57.4003"
},
{
"Name": "Arroyo Grande",
"PostCode": "75200",
"LatLong": "-33.9606,-57.0898"
},
{
"Name": "Puntas De San Salvador",
"PostCode": "75200",
"LatLong": "-33.7334,-57.4003"
},
{
"Name": "Egaña",
"PostCode": "75200",
"LatLong": "-33.6023,-57.6269"
},
{
"Name": "Costas Del Perdido",
"PostCode": "75200",
"LatLong": "-33.7334,-57.4003"
},
{
"Name": "Duraznito",
"PostCode": "75200",
"LatLong": "-33.65,-57.5333"
},
{
"Name": "Altos Del Perdido",
"PostCode": "75200",
"LatLong": "-33.7334,-57.4003"
},
{
"Name": "Puntas Del Tala",
"PostCode": "75200",
"LatLong": "-33.3833,-57.55"
},
{
"Name": "Colonia Santa Clara",
"PostCode": "75200",
"LatLong": "-33.7334,-57.4003"
},
{
"Name": "Cardona",
"PostCode": "75200",
"LatLong": "-33.8705,-57.3695"
},
{
"Name": "Cuchilla Del Perdido",
"PostCode": "75200",
"LatLong": "-33.7202,-57.2605"
},
{
"Name": "Cueva Del Tigre",
"PostCode": "75200",
"LatLong": "-33.7334,-57.4003"
},
{
"Name": "La Laguna",
"PostCode": "75200",
"LatLong": "-33.7334,-57.4003"
},
{
"Name": "Bajos Del Perdido",
"PostCode": "75200",
"LatLong": "-33.7334,-57.4003"
},
{
"Name": "Lata Del Perdido",
"PostCode": "75200",
"LatLong": "-33.7334,-57.4003"
},
{
"Name": "Monzon",
"PostCode": "75200",
"LatLong": "-33.7334,-57.4003"
},
{
"Name": "Colonia Uruguaya",
"PostCode": "75200",
"LatLong": "-33.7334,-57.4003"
},
{
"Name": "Zanja Honda",
"PostCode": "75300",
"LatLong": "-33.7944,-57.5511"
},
{
"Name": "Santa Catalina",
"PostCode": "75300",
"LatLong": "-33.791,-57.4882"
},
{
"Name": "Arroyo Del Medio",
"PostCode": "75300",
"LatLong": "-33.7927,-57.5197"
},
{
"Name": "Puntas De Durazno",
"PostCode": "75400",
"LatLong": "-32.9333,-55.5167"
},
{
"Name": "Jose Enrique Rodo",
"PostCode": "75400",
"LatLong": "-33.6962,-57.5315"
},
{
"Name": "San Martin",
"PostCode": "75400",
"LatLong": "-33.75,-57.6167"
},
{
"Name": "Parada Suarez",
"PostCode": "75400",
"LatLong": "-33.4598,-56.8883"
},
{
"Name": "Cuchilla Del Corralito",
"PostCode": "75400",
"LatLong": "-33.4598,-56.8883"
},
{
"Name": "Coquimbo",
"PostCode": "75500",
"LatLong": "-33.45,-57.7333"
},
{
"Name": "Palmitas",
"PostCode": "75500",
"LatLong": "-33.5072,-57.8008"
},
{
"Name": "Pedro Chico",
"PostCode": "75500",
"LatLong": "-33.5202,-56.4169"
},
{
"Name": "Olivera",
"PostCode": "75500",
"LatLong": "-33.6035,-53.7166"
},
{
"Name": "Garula",
"PostCode": "75500",
"LatLong": "-33.5202,-56.4169"
},
{
"Name": "El Aguila",
"PostCode": "75500",
"LatLong": "-33.5202,-56.4169"
}
]
}
]
}
]
},
{
"Name": "Tacuarembo",
"Code": "18",
"Provinces": [
{
"Communities": [
{
"Places": [
{
"Name": "La Bolsa 01",
"PostCode": "45000",
"LatLong": "-30.8509,-56.3398"
},
{
"Name": "Laureles",
"PostCode": "45000",
"LatLong": "-32.5,-56.0333"
},
{
"Name": "Rincon De Giloca",
"PostCode": "45000",
"LatLong": "-31.8333,-55.7667"
},
{
"Name": "Las Toscas De Caraguata",
"PostCode": "45000",
"LatLong": "-31.9435,-55.7274"
},
{
"Name": "Zapara",
"PostCode": "45000",
"LatLong": "-31.6938,-56.0382"
},
{
"Name": "Barrio Torres",
"PostCode": "45000",
"LatLong": "-31.9435,-55.7274"
},
{
"Name": "Cerro De Pastoreo",
"PostCode": "45000",
"LatLong": "-31.7,-56.1"
},
{
"Name": "Pueblo Clavijo",
"PostCode": "45000",
"LatLong": "-31.9435,-55.7274"
},
{
"Name": "Sauce De Batovi",
"PostCode": "45000",
"LatLong": "-31.9167,-56.0167"
},
{
"Name": "Cerros De Clara",
"PostCode": "45000",
"LatLong": "-31.9435,-55.7274"
},
{
"Name": "Zambullon",
"PostCode": "45000",
"LatLong": "-32.0333,-55.7833"
},
{
"Name": "Paso Victor",
"PostCode": "45000",
"LatLong": "-31.9435,-55.7274"
},
{
"Name": "Los Vazquez",
"PostCode": "45000",
"LatLong": "-31.8833,-55.4333"
},
{
"Name": "Los Semper",
"PostCode": "45000",
"LatLong": "-31.9435,-55.7274"
},
{
"Name": "Zapucay",
"PostCode": "45000",
"LatLong": "-31.8,-55.3333"
},
{
"Name": "Charata",
"PostCode": "45000",
"LatLong": "-31.9435,-55.7274"
},
{
"Name": "Martinote",
"PostCode": "45000",
"LatLong": "-31.8765,-55.9768"
},
{
"Name": "Los Ortices",
"PostCode": "45000",
"LatLong": "-31.9435,-55.7274"
},
{
"Name": "Las Arenas",
"PostCode": "45000",
"LatLong": "-32.0167,-55.0667"
},
{
"Name": "Caraguata Al Norte",
"PostCode": "45000",
"LatLong": "-31.9435,-55.7274"
},
{
"Name": "Heriberto",
"PostCode": "45000",
"LatLong": "-31.8167,-55.5"
},
{
"Name": "Los Malavares",
"PostCode": "45000",
"LatLong": "-31.9435,-55.7274"
},
{
"Name": "Balneario Ipora",
"PostCode": "45000",
"LatLong": "-31.6665,-55.964"
},
{
"Name": "Paso Del Medio",
"PostCode": "45000",
"LatLong": "-31.9435,-55.7274"
},
{
"Name": "Los Rosanos",
"PostCode": "45000",
"LatLong": "-31.8169,-56.1758"
},
{
"Name": "Paso De Perez",
"PostCode": "45000",
"LatLong": "-31.9435,-55.7274"
},
{
"Name": "Paso Hondo",
"PostCode": "45000",
"LatLong": "-32.3333,-55.8833"
},
{
"Name": "Rincon De Pereira",
"PostCode": "45000",
"LatLong": "-31.9435,-55.7274"
},
{
"Name": "Tacuarembo",
"PostCode": "45000",
"LatLong": "-31.7169,-55.9811"
},
{
"Name": "Arroyo Del Medio",
"PostCode": "45000",
"LatLong": "-31.9435,-55.7274"
},
{
"Name": "El Empalme",
"PostCode": "45000",
"LatLong": "-31.8165,-56.2659"
},
{
"Name": "Cuchilla De La Casa De Piedra",
"PostCode": "45000",
"LatLong": "-31.9435,-55.7274"
},
{
"Name": "Los Coitinhos",
"PostCode": "45000",
"LatLong": "-31.8333,-55.9833"
},
{
"Name": "San Joaquin",
"PostCode": "45000",
"LatLong": "-31.9435,-55.7274"
},
{
"Name": "Larrayos",
"PostCode": "45000",
"LatLong": "-32.1667,-55.0167"
},
{
"Name": "Rincon De Zamora",
"PostCode": "45000",
"LatLong": "-31.9435,-55.7274"
},
{
"Name": "Minuano",
"PostCode": "45000",
"LatLong": "-32.45,-55.0333"
},
{
"Name": "Coyo Martinez",
"PostCode": "45000",
"LatLong": "-31.9435,-55.7274"
},
{
"Name": "Cerro De Pereira",
"PostCode": "45000",
"LatLong": "-32.4667,-55.2333"
},
{
"Name": "Barrio La Matutina",
"PostCode": "45000",
"LatLong": "-31.9435,-55.7274"
},
{
"Name": "Paso De Los Novillos",
"PostCode": "45000",
"LatLong": "-31.9833,-55.6833"
},
{
"Name": "Sauce Solo Del Rio Negro",
"PostCode": "45000",
"LatLong": "-31.9435,-55.7274"
},
{
"Name": "Los Furtados",
"PostCode": "45000",
"LatLong": "-32.25,-55.75"
},
{
"Name": "Cuchilla De Laureles",
"PostCode": "45000",
"LatLong": "-31.9435,-55.7274"
},
{
"Name": "Pueblo Del Barro",
"PostCode": "45000",
"LatLong": "-32.05,-55.3833"
},
{
"Name": "Clavijo",
"PostCode": "45000",
"LatLong": "-31.9435,-55.7274"
},
{
"Name": "Sauce Solo",
"PostCode": "45000",
"LatLong": "-32.1,-54.8667"
},
{
"Name": "Bañado De Cañas",
"PostCode": "45000",
"LatLong": "-31.9435,-55.7274"
},
{
"Name": "Las Chircas",
"PostCode": "45000",
"LatLong": "-32.3833,-55.0667"
},
{
"Name": "Costas De Tres Cruces",
"PostCode": "45000",
"LatLong": "-31.9435,-55.7274"
},
{
"Name": "Paso Del Cerro",
"PostCode": "45000",
"LatLong": "-31.5167,-55.7667"
},
{
"Name": "Cinco Sauces",
"PostCode": "45000",
"LatLong": "-31.9435,-55.7274"
},
{
"Name": "Turupi",
"PostCode": "45000",
"LatLong": "-32.1833,-55.2833"
},
{
"Name": "Once Cerros",
"PostCode": "45000",
"LatLong": "-31.9435,-55.7274"
},
{
"Name": "Sauce De Tranqueras",
"PostCode": "45000",
"LatLong": "-31.8515,-55.9254"
},
{
"Name": "Punta De Carretera",
"PostCode": "45000",
"LatLong": "-31.9435,-55.7274"
},
{
"Name": "Paso De Ceferino",
"PostCode": "45000",
"LatLong": "-31.5197,-56.0766"
},
{
"Name": "Los Rosas",
"PostCode": "45000",
"LatLong": "-31.9435,-55.7274"
},
{
"Name": "Cerro Batovi",
"PostCode": "45000",
"LatLong": "-31.8833,-56"
},
{
"Name": "La Bolsa 02",
"PostCode": "45000",
"LatLong": "-31.9435,-55.7274"
},
{
"Name": "Paso Bonilla",
"PostCode": "45000",
"LatLong": "-31.8076,-55.9793"
},
{
"Name": "Villa Ansina",
"PostCode": "45000",
"LatLong": "-31.9435,-55.7274"
},
{
"Name": "Los Gomez",
"PostCode": "45000",
"LatLong": "-32.1833,-55.0333"
},
{
"Name": "Colman",
"PostCode": "45000",
"LatLong": "-31.9435,-55.7274"
},
{
"Name": "Valle Eden",
"PostCode": "45000",
"LatLong": "-31.8223,-56.1751"
},
{
"Name": "Cuchilla De La Palma",
"PostCode": "45000",
"LatLong": "-31.9435,-55.7274"
},
{
"Name": "Montevideo Chico",
"PostCode": "45000",
"LatLong": "-32.2167,-55.6"
},
{
"Name": "Tres Guitarras",
"PostCode": "45000",
"LatLong": "-31.9435,-55.7274"
},
{
"Name": "Pueblo De Arriba",
"PostCode": "45000",
"LatLong": "-31.75,-55.4667"
},
{
"Name": "Cerro Del Arbolito",
"PostCode": "45000",
"LatLong": "-31.9435,-55.7274"
},
{
"Name": "Los Feos",
"PostCode": "45000",
"LatLong": "-32.3,-55.3333"
},
{
"Name": "Picada De Cuello",
"PostCode": "45000",
"LatLong": "-31.9435,-55.7274"
},
{
"Name": "Cruz De Los Caminos",
"PostCode": "45000",
"LatLong": "-32.2326,-54.9671"
},
{
"Name": "Barrio Libertad",
"PostCode": "45000",
"LatLong": "-31.9435,-55.7274"
},
{
"Name": "Rincon De La Laguna",
"PostCode": "45000",
"LatLong": "-32,-55.4833"
},
{
"Name": "Tierras Coloradas",
"PostCode": "45000",
"LatLong": "-31.9435,-55.7274"
},
{
"Name": "Achar",
"PostCode": "45000",
"LatLong": "-32.4029,-56.1807"
},
{
"Name": "Puntas De Cinco Sauces",
"PostCode": "45000",
"LatLong": "-31.9435,-55.7274"
},
{
"Name": "Rincon De La Bolsa",
"PostCode": "45000",
"LatLong": "-31.8167,-55.9167"
},
{
"Name": "Barrio Lopez",
"PostCode": "45000",
"LatLong": "-31.9435,-55.7274"
},
{
"Name": "Cañas",
"PostCode": "45000",
"LatLong": "-31.3,-56.0167"
},
{
"Name": "Frigorifico Modelo",
"PostCode": "45000",
"LatLong": "-31.9435,-55.7274"
},
{
"Name": "Los Rodriguez",
"PostCode": "45000",
"LatLong": "-31.7667,-56.25"
},
{
"Name": "Las Pajas",
"PostCode": "45000",
"LatLong": "-31.9435,-55.7274"
},
{
"Name": "Clara",
"PostCode": "45000",
"LatLong": "-32.2333,-55.7333"
},
{
"Name": "Paso De Las Flores",
"PostCode": "45000",
"LatLong": "-31.9435,-55.7274"
},
{
"Name": "La Pedrera",
"PostCode": "45000",
"LatLong": "-31.7214,-56.0136"
},
{
"Name": "Tacuarembo Chico",
"PostCode": "45000",
"LatLong": "-31.9435,-55.7274"
},
{
"Name": "Bañado De Rocha",
"PostCode": "45000",
"LatLong": "-31.6,-55.85"
},
{
"Name": "Barrio Santangelo",
"PostCode": "45000",
"LatLong": "-31.9435,-55.7274"
},
{
"Name": "Blanquillos",
"PostCode": "45000",
"LatLong": "-32.35,-55.8333"
},
{
"Name": "Ataque",
"PostCode": "45000",
"LatLong": "-31.9435,-55.7274"
},
{
"Name": "Los Garcia",
"PostCode": "45000",
"LatLong": "-32.15,-54.95"
},
{
"Name": "Rincon De Los Machado",
"PostCode": "45000",
"LatLong": "-32.2167,-56.0167"
},
{
"Name": "La Palma",
"PostCode": "45000",
"LatLong": "-31.9435,-55.7274"
},
{
"Name": "Lambare",
"PostCode": "45000",
"LatLong": "-31.5167,-55.9667"
},
{
"Name": "Costas De Caraguata",
"PostCode": "45000",
"LatLong": "-31.9435,-55.7274"
},
{
"Name": "La Aldea",
"PostCode": "45000",
"LatLong": "-31.75,-56.0667"
},
{
"Name": "Paso Livindo",
"PostCode": "45000",
"LatLong": "-31.9435,-55.7274"
},
{
"Name": "La Hilera",
"PostCode": "45000",
"LatLong": "-32.0833,-55.65"
},
{
"Name": "Pampa",
"PostCode": "45000",
"LatLong": "-31.9435,-55.7274"
},
{
"Name": "Rivera Chico",
"PostCode": "45000",
"LatLong": "-32.0333,-55.6667"
},
{
"Name": "Cuchilla Del Ombu",
"PostCode": "45000",
"LatLong": "-31.8,-55.7"
},
{
"Name": "Rincon De La Aldea",
"PostCode": "45000",
"LatLong": "-31.75,-56.0667"
},
{
"Name": "Rincon De Freitas",
"PostCode": "45000",
"LatLong": "-31.6119,-56.1728"
},
{
"Name": "Los Cuadrados",
"PostCode": "45000",
"LatLong": "-32.1667,-55.95"
},
{
"Name": "Curtina",
"PostCode": "45000",
"LatLong": "-32.15,-56.1167"
},
{
"Name": "Laura",
"PostCode": "45000",
"LatLong": "-32.15,-54.8833"
},
{
"Name": "Paso De Las Carretas",
"PostCode": "45000",
"LatLong": "-31.5634,-56.0482"
},
{
"Name": "Paso De Las Toscas",
"PostCode": "45000",
"LatLong": "-32.1766,-55.0143"
},
{
"Name": "Chamberlain",
"PostCode": "45100",
"LatLong": "-32.6167,-56.4833"
},
{
"Name": "Cardoso",
"PostCode": "45100",
"LatLong": "-32.6333,-56.35"
},
{
"Name": "Estacion Menendez",
"PostCode": "45100",
"LatLong": "-32.8413,-56.4527"
},
{
"Name": "Rincon Del Bonete",
"PostCode": "45100",
"LatLong": "-32.8,-56.4167"
},
{
"Name": "Cuchilla De Peralta",
"PostCode": "45100",
"LatLong": "-32.4333,-56.35"
},
{
"Name": "Churchill",
"PostCode": "45100",
"LatLong": "-32.8413,-56.4527"
},
{
"Name": "Cardozo Chico",
"PostCode": "45100",
"LatLong": "-32.4566,-56.307"
},
{
"Name": "Paso De Los Toros",
"PostCode": "45100",
"LatLong": "-32.8167,-56.5167"
},
{
"Name": "San Gregorio De Polanco",
"PostCode": "45200",
"LatLong": "-32.6167,-55.8333"
},
{
"Name": "Los Laureles",
"PostCode": "45200",
"LatLong": "-32.5,-56.0333"
},
{
"Name": "Cerro Chato",
"PostCode": "45200",
"LatLong": "-32.45,-56.0333"
},
{
"Name": "Cañada Del Estado",
"PostCode": "45200",
"LatLong": "-32.37,-55.8567"
},
{
"Name": "San Benito",
"PostCode": "45200",
"LatLong": "-32.4667,-56.1667"
},
{
"Name": "Los Cerros",
"PostCode": "45200",
"LatLong": "-32.37,-55.8567"
},
{
"Name": "Carpinteria",
"PostCode": "45200",
"LatLong": "-31.8167,-55.2167"
},
{
"Name": "Puntas De Laureles",
"PostCode": "45200",
"LatLong": "-32.37,-55.8567"
}
]
}
]
}
]
},
{
"Name": "Treinta y Tres",
"Code": "19",
"Provinces": [
{
"Communities": [
{
"Places": [
{
"Name": "El Bellaco",
"PostCode": "30300",
"LatLong": "-33.414,-54.5932"
},
{
"Name": "Paso Del Sauce",
"PostCode": "30300",
"LatLong": "-33.6167,-54.5703"
},
{
"Name": "Maria Albina",
"PostCode": "30300",
"LatLong": "-33.4,-54.6833"
},
{
"Name": "Corrales De Cebollati",
"PostCode": "30300",
"LatLong": "-33.3426,-54.2597"
},
{
"Name": "Panteon",
"PostCode": "30300",
"LatLong": "-33.6167,-54.5703"
},
{
"Name": "Sauce De Corrales",
"PostCode": "30300",
"LatLong": "-33.6167,-54.5703"
},
{
"Name": "Vergara",
"PostCode": "31100",
"LatLong": "-32.9333,-53.95"
},
{
"Name": "Paso De Piriz",
"PostCode": "31100",
"LatLong": "-33.05,-54.0667"
},
{
"Name": "Arrozal Treinta Y Tres",
"PostCode": "31100",
"LatLong": "-33.0167,-53.7"
},
{
"Name": "Arrocera El Tigre",
"PostCode": "31100",
"LatLong": "-33,-53.9056"
},
{
"Name": "Cuchilla De Olmos",
"PostCode": "31100",
"LatLong": "-33,-53.9056"
},
{
"Name": "Siete Casas",
"PostCode": "31100",
"LatLong": "-33,-53.9056"
},
{
"Name": "Arrocera Los Ceibos",
"PostCode": "31100",
"LatLong": "-33,-53.9056"
},
{
"Name": "Arrocera Zapata",
"PostCode": "31100",
"LatLong": "-33,-53.9056"
},
{
"Name": "Bañado De Oro",
"PostCode": "31100",
"LatLong": "-33,-53.9056"
},
{
"Name": "Arrocera Mini",
"PostCode": "31100",
"LatLong": "-33,-53.9056"
},
{
"Name": "Costas Del Sarandi",
"PostCode": "31100",
"LatLong": "-33,-53.9056"
},
{
"Name": "Arrocera Las Palmas",
"PostCode": "31100",
"LatLong": "-33,-53.9056"
},
{
"Name": "Lechiguana De Corrales",
"PostCode": "33000",
"LatLong": "-33.3426,-54.2597"
},
{
"Name": "La Calavera",
"PostCode": "33000",
"LatLong": "-32.9333,-54.2667"
},
{
"Name": "Villa Passano",
"PostCode": "33000",
"LatLong": "-33.2907,-53.9007"
},
{
"Name": "Ejido De Treinta Y Tres",
"PostCode": "33000",
"LatLong": "-33.1159,-54.3391"
},
{
"Name": "Treinta Y Tres",
"PostCode": "33000",
"LatLong": "-33.2333,-54.3833"
},
{
"Name": "Puntas Del Oro",
"PostCode": "33000",
"LatLong": "-33.1159,-54.3391"
},
{
"Name": "Maria Isabel",
"PostCode": "33000",
"LatLong": "-32.9833,-54.5833"
},
{
"Name": "Rincon De Gadea",
"PostCode": "33000",
"LatLong": "-33.1159,-54.3391"
},
{
"Name": "Rincon De Los Francos",
"PostCode": "33000",
"LatLong": "-33.1727,-54.6224"
},
{
"Name": "Olimar Grande",
"PostCode": "33000",
"LatLong": "-33.1159,-54.3391"
},
{
"Name": "Puntas Del Parao",
"PostCode": "33000",
"LatLong": "-32.75,-54.4"
},
{
"Name": "Cañada De Las Piedras",
"PostCode": "33000",
"LatLong": "-33.1159,-54.3391"
},
{
"Name": "Los Ceibos",
"PostCode": "33000",
"LatLong": "-33.1821,-54.2256"
},
{
"Name": "Cuchilla De Dionisio",
"PostCode": "33000",
"LatLong": "-33.1159,-54.3391"
},
{
"Name": "Las Chacras",
"PostCode": "33000",
"LatLong": "-34.4583,-54.2965"
},
{
"Name": "Paso Ancho",
"PostCode": "33000",
"LatLong": "-33.1159,-54.3391"
},
{
"Name": "La Calera",
"PostCode": "33000",
"LatLong": "-31.45,-55.4167"
},
{
"Name": "Yerbal Chico",
"PostCode": "33000",
"LatLong": "-33.1159,-54.3391"
},
{
"Name": "Villa Sara",
"PostCode": "33000",
"LatLong": "-33.2534,-54.4195"
},
{
"Name": "Acosta",
"PostCode": "33000",
"LatLong": "-33.2449,-53.8438"
},
{
"Name": "Sierra Del Yerbal",
"PostCode": "33000",
"LatLong": "-33.1159,-54.3391"
},
{
"Name": "Cerro Pelado",
"PostCode": "33000",
"LatLong": "-34.8815,-54.9767"
},
{
"Name": "Verde Alto",
"PostCode": "33000",
"LatLong": "-33.1584,-54.4393"
},
{
"Name": "Costas Del Arroyo Malo",
"PostCode": "33000",
"LatLong": "-33.1159,-54.3391"
},
{
"Name": "Rincon",
"PostCode": "33000",
"LatLong": "-32.7833,-53.8333"
},
{
"Name": "Cipa Olimar",
"PostCode": "33000",
"LatLong": "-33.1159,-54.3391"
},
{
"Name": "Arrocera Los Teros",
"PostCode": "33000",
"LatLong": "-33.1159,-54.3391"
},
{
"Name": "Gral. Enrique Martinez",
"PostCode": "33000",
"LatLong": "-33.1159,-54.3391"
},
{
"Name": "Cañada Chica",
"PostCode": "33000",
"LatLong": "-33.317,-53.9817"
},
{
"Name": "Arrocera Santa Fe",
"PostCode": "33000",
"LatLong": "-33.1159,-54.3391"
},
{
"Name": "La Lata",
"PostCode": "33000",
"LatLong": "-31.7333,-54.4167"
},
{
"Name": "Paso De La Laguna",
"PostCode": "33000",
"LatLong": "-33.1159,-54.3391"
},
{
"Name": "Mendizabal",
"PostCode": "33000",
"LatLong": "-33.05,-54.15"
},
{
"Name": "Higuerones",
"PostCode": "33000",
"LatLong": "-33.1159,-54.3391"
},
{
"Name": "Molles De Olimar",
"PostCode": "33000",
"LatLong": "-33.1159,-54.3391"
},
{
"Name": "Cipa Secador",
"PostCode": "33000",
"LatLong": "-33.1159,-54.3391"
},
{
"Name": "El Catete",
"PostCode": "33000",
"LatLong": "-32.95,-54.2167"
},
{
"Name": "Puntas De Los Ceibos",
"PostCode": "33000",
"LatLong": "-33.1159,-54.3391"
},
{
"Name": "Puntas De Quebracho",
"PostCode": "33000",
"LatLong": "-33.1159,-54.3391"
},
{
"Name": "Julio Maria Sanz",
"PostCode": "33000",
"LatLong": "-33.15,-54.15"
},
{
"Name": "Avestruz Chico",
"PostCode": "33000",
"LatLong": "-33.1159,-54.3391"
},
{
"Name": "Barrio Abreu",
"PostCode": "33000",
"LatLong": "-33.1159,-54.3391"
},
{
"Name": "Arrocera Procipa",
"PostCode": "33000",
"LatLong": "-33.1159,-54.3391"
},
{
"Name": "Arrocera Bonomo",
"PostCode": "33000",
"LatLong": "-33.1159,-54.3391"
},
{
"Name": "Arrayanes De Corral De Cebollati",
"PostCode": "33000",
"LatLong": "-33.1159,-54.3391"
},
{
"Name": "Cañada Del Sauce",
"PostCode": "33000",
"LatLong": "-33.1159,-54.3391"
},
{
"Name": "Cipa Cebollati",
"PostCode": "33000",
"LatLong": "-33.1159,-54.3391"
},
{
"Name": "Yerbalito",
"PostCode": "33000",
"LatLong": "-33.1159,-54.3391"
},
{
"Name": "Puntas De Leoncho",
"PostCode": "33000",
"LatLong": "-33.1159,-54.3391"
},
{
"Name": "Cerros De Amaro",
"PostCode": "33000",
"LatLong": "-33.1159,-54.3391"
},
{
"Name": "Mate Dulce",
"PostCode": "33000",
"LatLong": "-33.1159,-54.3391"
},
{
"Name": "Palo A Pique",
"PostCode": "33000",
"LatLong": "-33.1159,-54.3391"
},
{
"Name": "Rincon De Quintana",
"PostCode": "33000",
"LatLong": "-33.1159,-54.3391"
},
{
"Name": "Rincon De Iguini",
"PostCode": "33000",
"LatLong": "-33.1159,-54.3391"
},
{
"Name": "Poblado Alonzo",
"PostCode": "33000",
"LatLong": "-33.1159,-54.3391"
},
{
"Name": "Arrayanes De Cebollati",
"PostCode": "33000",
"LatLong": "-33.1159,-54.3391"
},
{
"Name": "Valentines",
"PostCode": "35100",
"LatLong": "-33.2667,-55.1"
},
{
"Name": "Las Pavas",
"PostCode": "35100",
"LatLong": "-33.2667,-55.1"
},
{
"Name": "Paso De La Atahona",
"PostCode": "35100",
"LatLong": "-33.2667,-55.1"
},
{
"Name": "Rincon De Urtubey",
"PostCode": "35100",
"LatLong": "-33.2667,-55.1"
},
{
"Name": "Paso De Averias",
"PostCode": "35100",
"LatLong": "-33.2667,-55.1"
},
{
"Name": "Noques De Olimar Chico",
"PostCode": "35100",
"LatLong": "-33.2667,-55.1"
},
{
"Name": "Cerro Chato",
"PostCode": "35200",
"LatLong": "-33.1,-55.1333"
},
{
"Name": "El Carmen",
"PostCode": "35200",
"LatLong": "-33.1,-55.1333"
},
{
"Name": "Santa Clara De Olimar",
"PostCode": "35300",
"LatLong": "-32.9167,-54.9667"
},
{
"Name": "Arrocera San Fernando",
"PostCode": "37100",
"LatLong": "-33.0201,-53.5753"
},
{
"Name": "Arrocera La Catumbera",
"PostCode": "37100",
"LatLong": "-33.0201,-53.5753"
},
{
"Name": "Costas De Tacuari",
"PostCode": "37100",
"LatLong": "-33.0201,-53.5753"
},
{
"Name": "Arrocera La Querencia",
"PostCode": "37100",
"LatLong": "-33.0201,-53.5753"
},
{
"Name": "Arrocera Rincon",
"PostCode": "37100",
"LatLong": "-33.0201,-53.5753"
}
]
}
]
}
]
}
]