{"Structure":"State/Place","States":[{"Name":"Vaduz","Code":"7001","Places":[{"PostCode":"9490","LatLong":"47.1431,9.5256"}]},{"Name":"Triesen","Code":"7002","Places":[{"PostCode":"9495","LatLong":"47.0805,9.5515"}]},{"Name":"Balzers","Code":"7003","Places":[{"PostCode":"9496","LatLong":"47.067,9.5078"}]},{"Name":"Triesenberg","Code":"7004","Places":[{"PostCode":"9497","LatLong":"47.115,9.5831"}]},{"Name":"Schaan","Code":"7005","Places":[{"PostCode":"9494","LatLong":"47.1746,9.5247"}]},{"Name":"Planken","Code":"7006","Places":[{"PostCode":"9498","LatLong":"47.1821,9.5574"}]},{"Name":"Eschen","Code":"7007","Places":[{"Name":"Nendeln","PostCode":"9485","LatLong":"47.1984,9.5501"},{"PostCode":"9492","LatLong":"47.209,9.5223"}]},{"Name":"Mauren","Code":"7008","Places":[{"Name":"Schaanwald","PostCode":"9486","LatLong":"47.2151,9.562"},{"Name":"Mauren FL","PostCode":"9493","LatLong":"47.2191,9.5464"}]},{"Name":"Gamprin","Code":"7009","Places":[{"Name":"Gamprin-Bendern","PostCode":"9487","LatLong":"47.2249,9.5135"}]},{"Name":"Ruggell","Code":"7010","Places":[{"PostCode":"9491","LatLong":"47.2484,9.5345"}]},{"Name":"Schellenberg","Code":"7011","Places":[{"PostCode":"9488","LatLong":"47.2318,9.5478"}]}]}