{"Structure":"State/Province/Place","States":[{"Name":"Province Nord","Code":"01","Provinces":[{"Name":"Bélep","Code":"98801","Places":[{"PostCode":"98811","LatLong":"-19.7333,163.6667"}]},{"Name":"Canala","Code":"98804","Places":[{"PostCode":"98813","LatLong":"-21.517,165.9629"}]},{"Name":"Hienghéne","Code":"98807","Places":[{"PostCode":"98815","LatLong":"-20.6874,164.9377"}]},{"Name":"Houaïlou","Code":"98808","Places":[{"PostCode":"98816","LatLong":"-21.2865,165.6343"},{"Name":"Poro","PostCode":"98838","LatLong":"-21.3167,165.6333"}]},{"Name":"Kaala-Gomén","Code":"98810","Places":[{"PostCode":"98817","LatLong":"-20.6694,164.3977"}]},{"Name":"Koné","Code":"98811","Places":[{"PostCode":"98859","LatLong":"-21.0595,164.8658"},{"PostCode":"98860","LatLong":"-21.0569,164.8663"}]},{"Name":"Koumac","Code":"98812","Places":[{"PostCode":"98850","LatLong":"-20.555,164.2717"}]},{"Name":"Ouégoa","Code":"98819","Places":[{"PostCode":"98821","LatLong":"-20.3485,164.4262"}]},{"Name":"Poindimié","Code":"98822","Places":[{"PostCode":"98822","LatLong":"-20.9505,165.3415"}]},{"Name":"Ponérihouen","Code":"98823","Places":[{"PostCode":"98823","LatLong":"-21.0765,165.4005"}]},{"Name":"Pouébo","Code":"98824","Places":[{"PostCode":"98824","LatLong":"-20.3929,164.5827"}]},{"Name":"Pouembout","Code":"98825","Places":[{"PostCode":"98825","LatLong":"-21.1076,164.9834"}]},{"Name":"Poum","Code":"98826","Places":[{"PostCode":"98826","LatLong":"-20.2368,164.0292"}]},{"Name":"Poya","Code":"98827","Places":[{"PostCode":"98827","LatLong":"-21.3449,165.164"},{"Name":"Népoui","PostCode":"98877","LatLong":"-21.3283,164.9985"}]},{"Name":"Touho","Code":"98830","Places":[{"PostCode":"98831","LatLong":"-20.786,165.2423"}]},{"Name":"Voh","Code":"98831","Places":[{"PostCode":"98833","LatLong":"-20.9467,164.6854"},{"Name":"Ouåco","PostCode":"98883","LatLong":"-20.8353,164.4694"}]},{"Name":"Kouaoua","Code":"98833","Places":[{"PostCode":"98818","LatLong":"-21.3957,165.8283"}]}]},{"Name":"Province Sud","Code":"02","Provinces":[{"Name":"Bouloupari","Code":"98802","Places":[{"PostCode":"98812","LatLong":"-21.8607,166.0513"}]},{"Name":"Bourail","Code":"98803","Places":[{"PostCode":"98870","LatLong":"-21.5667,165.4667"}]},{"Name":"Dumbéa","Code":"98805","Places":[{"PostCode":"98830","LatLong":"-22.1496,166.4473"},{"PostCode":"98835","LatLong":"-22.1496,166.4473"},{"PostCode":"98836","LatLong":"-22.1496,166.4473"},{"PostCode":"98837","LatLong":"-22.1496,166.4473"},{"PostCode":"98839","LatLong":"-22.1496,166.4473"}]},{"Name":"Farino","Code":"98806","Places":[{"PostCode":"98880","LatLong":"-21.6651,165.776"},{"PostCode":"98881","LatLong":"-21.6667,165.7667"}]},{"Name":"L’Île des Pins","Code":"98809","Places":[{"PostCode":"98832","LatLong":"-22.6167,167.4833"}]},{"Name":"La Foa","Code":"98813","Places":[{"PostCode":"98880","LatLong":"-21.7079,165.8252"}]},{"Name":"Moindou","Code":"98816","Places":[{"PostCode":"98819","LatLong":"-21.6986,165.6804"}]},{"Name":"Le Mont-Dore","Code":"98817","Places":[{"PostCode":"98809","LatLong":"-22.2799,166.5805"},{"Name":"Mont-Dore","PostCode":"98810","LatLong":"-22.2626,166.5662"},{"Name":"Pont des Français","PostCode":"98874","LatLong":"-22.2167,166.4833"},{"Name":"Plum","PostCode":"98875","LatLong":"-22.2723,166.6144"},{"Name":"La Coulée","PostCode":"98876","LatLong":"-22.2313,166.5758"}]},{"Name":"Nouméa","Code":"98818","Places":[{"PostCode":"98800","LatLong":"-22.2667,166.4667"}]},{"Name":"Païta","Code":"98821","Places":[{"Name":"La Tontouta","PostCode":"98840","LatLong":"-22.0128,166.2237"},{"PostCode":"98889","LatLong":"-22.131,166.3572"},{"PostCode":"98890","LatLong":"-22.1299,166.3639"}]},{"Name":"Sarraméa","Code":"98828","Places":[{"PostCode":"98880","LatLong":"-21.6421,165.8451"},{"PostCode":"98882","LatLong":"-21.65,165.85"}]},{"Name":"Thio","Code":"98829","Places":[{"PostCode":"98829","LatLong":"-21.6057,166.2146"}]},{"Name":"Yaté","Code":"98832","Places":[{"PostCode":"98834","LatLong":"-22.0833,166.75"}]}]},{"Name":"Îles Loyauté","Code":"03","Provinces":[{"Name":"Lifou","Code":"98814","Places":[{"Name":"Wé","PostCode":"98820","LatLong":"-20.9169,167.2646"},{"Name":"Chépénéhé","PostCode":"98884","LatLong":"-20.7833,167.15"},{"Name":"Mou","PostCode":"98885","LatLong":"-21.0936,167.399"}]},{"Name":"Maré","Code":"98815","Places":[{"Name":"Tadine","PostCode":"98828","LatLong":"-21.55,167.8833"},{"Name":"La Roche","PostCode":"98878","LatLong":"-21.478,168.0259"}]},{"Name":"Ouvéa","Code":"98820","Places":[{"Name":"Fayaoué","PostCode":"98814","LatLong":"-20.6528,166.5364"}]}]}]}