{"Structure":"Province/Place","Provinces":[{"Name":"Anuradhapura","Places":[{"PostCode":"50000","LatLong":"8.3565,80.4173"},{"Name":"Perimiyankulama","PostCode":"50004","LatLong":"8.2667,80.5333"},{"Name":"Galkadawala","PostCode":"50006","LatLong":"8.6044,80.681"},{"Name":"Saliyapura","PostCode":"50008","LatLong":"8.4225,81.0541"},{"Name":"Viharapalugama","PostCode":"50012","LatLong":"8.3955,80.3103"},{"Name":"Elayapattuwa","PostCode":"50014","LatLong":"8.3955,80.3103"},{"Name":"Tantirimale","PostCode":"50016","LatLong":"8.3955,80.3103"},{"Name":"Pemaduwa","PostCode":"50020","LatLong":"8.3322,80.3645"},{"Name":"Mahawilachchiya","PostCode":"50022","LatLong":"8.3322,80.3645"},{"Name":"Pandulagama","PostCode":"50029","LatLong":"8.3322,80.3645"},{"Name":"Gnanikulama","PostCode":"50036","LatLong":"8.25,80.5167"},{"Name":"Sravasthipura","PostCode":"50042","LatLong":"8.2629,80.4325"},{"Name":"Hidogama","PostCode":"50044","LatLong":"8.2591,80.3983"},{"Name":"Nachchaduwa","PostCode":"50046","LatLong":"8.2667,80.4667"},{"Name":"Parasangahawewa","PostCode":"50055","LatLong":"8.3864,80.3725"},{"Name":"Gambirigaswewa","PostCode":"50057","LatLong":"8.2377,80.3368"},{"Name":"Kurundankulama","PostCode":"50062","LatLong":"8.2,80.45"},{"Name":"Galkulama","PostCode":"50064","LatLong":"8.2667,80.5"},{"Name":"Uttimaduwa","PostCode":"50067","LatLong":"8.25,80.55"},{"Name":"Sivalakulama","PostCode":"50068","LatLong":"8.25,80.6333"},{"Name":"Tirappane","PostCode":"50072","LatLong":"8.3,80.5833"},{"Name":"Maradankadawala","PostCode":"50080","LatLong":"8.1268,80.5621"},{"Name":"Walagambahuwa","PostCode":"50086","LatLong":"8.15,80.5"},{"Name":"Labunoruwa","PostCode":"50088","LatLong":"8.1667,80.6"},{"Name":"Kekirawa","PostCode":"50100","LatLong":"8.0385,80.5941"},{"Name":"Tammennawa","PostCode":"50104","LatLong":"8.0909,80.356"},{"Name":"Vijithapura","PostCode":"50110","LatLong":"7.9,80.5261"},{"Name":"Palagala","PostCode":"50111","LatLong":"7.9,80.5261"},{"Name":"Andiyagala","PostCode":"50112","LatLong":"7.9,80.5261"},{"Name":"Galkiriyagama","PostCode":"50120","LatLong":"7.9425,80.565"},{"Name":"Pubbogama","PostCode":"50122","LatLong":"7.9261,80.5936"},{"Name":"Halmillawa Dambulla","PostCode":"50124","LatLong":"7.9517,80.5913"},{"Name":"Maha Elagamuwa","PostCode":"50126","LatLong":"7.9865,80.6153"},{"Name":"Madatugama","PostCode":"50130","LatLong":"7.942,80.628"},{"Name":"Kitulhitiyawa","PostCode":"50132","LatLong":"7.9185,80.631"},{"Name":"Ganewalpola","PostCode":"50142","LatLong":"8.0933,80.6215"},{"Name":"Palugaswewa","PostCode":"50144","LatLong":"8.0577,80.707"},{"Name":"Habarana","PostCode":"50150","LatLong":"8.0363,80.7467"},{"Name":"Awukana","PostCode":"50169","LatLong":"7.9969,80.5461"},{"Name":"Galnewa","PostCode":"50170","LatLong":"8.0257,80.4803"},{"Name":"Kalankuttiya","PostCode":"50174","LatLong":"8.05,80.3833"},{"Name":"Hurigaswewa","PostCode":"50176","LatLong":"8.0759,80.373"},{"Name":"Negampaha","PostCode":"50180","LatLong":"7.998,80.4595"},{"Name":"Maneruwa","PostCode":"50182","LatLong":"7.9173,80.4859"},{"Name":"Siyambalewa","PostCode":"50184","LatLong":"7.9474,80.5172"},{"Name":"Mahabulankulama","PostCode":"50196","LatLong":"7.9969,80.5461"},{"Name":"Nochchiyagama","PostCode":"50200","LatLong":"8.2631,80.2044"},{"Name":"Pahala Halmillewa","PostCode":"50206","LatLong":"8.1334,80.3599"},{"Name":"Udunuwara Colony","PostCode":"50207","LatLong":"8.1982,80.2822"},{"Name":"Galadivulwewa","PostCode":"50210","LatLong":"7.9218,80.0859"},{"Name":"Ranorawa","PostCode":"50212","LatLong":"7.9267,80.1213"},{"Name":"Dunumadalawa","PostCode":"50214","LatLong":"7.9169,80.0505"},{"Name":"Pahala Maragahawe","PostCode":"50220","LatLong":"8.1929,80.1457"},{"Name":"Horiwila","PostCode":"50222","LatLong":"8.1929,80.1457"},{"Name":"Gemunupura","PostCode":"50224","LatLong":"8.1929,80.1457"},{"Name":"Kalaoya","PostCode":"50226","LatLong":"8.1929,80.1457"},{"Name":"Talawa","PostCode":"50230","LatLong":"8.2364,80.3476"},{"Name":"Karagahawewa","PostCode":"50232","LatLong":"8.2453,80.3307"},{"Name":"Malwanagama","PostCode":"50236","LatLong":"8.2409,80.3391"},{"Name":"Tambuttegama","PostCode":"50240","LatLong":"8.15,80.3"},{"Name":"Telhiriyawa","PostCode":"50242","LatLong":"8.1535,80.3244"},{"Name":"Pahalagama","PostCode":"50244","LatLong":"8.1988,80.2808"},{"Name":"Rajanganaya","PostCode":"50246","LatLong":"8.062,80.251"},{"Name":"Angamuwa","PostCode":"50248","LatLong":"8.1812,80.2013"},{"Name":"Kiralogama","PostCode":"50259","LatLong":"8.1971,80.3798"},{"Name":"Eppawala","PostCode":"50260","LatLong":"8.1426,80.403"},{"Name":"Katiyawa","PostCode":"50261","LatLong":"7.6208,80.5515"},{"Name":"lhala Halmillewa","PostCode":"50262","LatLong":"7.8817,80.4772"},{"Name":"Mahailluppallama","PostCode":"50270","LatLong":"8.1056,80.3107"},{"Name":"lpologama","PostCode":"50280","LatLong":"8.0875,80.5154"},{"Name":"Kagama","PostCode":"50282","LatLong":"8.0839,80.5586"},{"Name":"Senapura","PostCode":"50284","LatLong":"8.0911,80.4722"},{"Name":"Kalakarambewa","PostCode":"50288","LatLong":"8.0875,80.5154"},{"Name":"Mihintale","PostCode":"50300","LatLong":"8.3593,80.5103"},{"Name":"lhalagama","PostCode":"50304","LatLong":"8.3593,80.5103"},{"Name":"Mahakanadarawa","PostCode":"50306","LatLong":"8.3593,80.5103"},{"Name":"Maradankalla","PostCode":"50308","LatLong":"8.3593,80.5103"},{"Name":"Kahatagasdigiliya","PostCode":"50320","LatLong":"8.4214,80.6865"},{"Name":"Mulkiriyawa","PostCode":"50324","LatLong":"8.4214,80.6865"},{"Name":"Parakumpura","PostCode":"50326","LatLong":"8.4214,80.6865"},{"Name":"Mahapothana","PostCode":"50327","LatLong":"8.4214,80.6865"},{"Name":"Megodawewa","PostCode":"50334","LatLong":"8.2333,80.7333"},{"Name":"Padikaramaduwa","PostCode":"50338","LatLong":"8.2333,80.7333"},{"Name":"Namalpura","PostCode":"50339","LatLong":"8.2333,80.7333"},{"Name":"Muriyakadawala","PostCode":"50344","LatLong":"8.2333,80.65"},{"Name":"Morakewa","PostCode":"50349","LatLong":"8.5052,80.7887"},{"Name":"Horawpatana","PostCode":"50350","LatLong":"8.3889,80.766"},{"Name":"Parangiyawadiya","PostCode":"50354","LatLong":"8.4945,80.8654"},{"Name":"Dematawewa","PostCode":"50356","LatLong":"8.2833,80.6667"},{"Name":"Welimuwapotana","PostCode":"50358","LatLong":"8.3889,80.766"},{"Name":"Kapugallawa","PostCode":"50370","LatLong":"8.3558,80.6894"},{"Name":"Seeppukulama","PostCode":"50380","LatLong":"8.3804,80.5888"},{"Name":"Upuldeniya","PostCode":"50382","LatLong":"8.3916,80.6079"},{"Name":"Mailagaswewa","PostCode":"50384","LatLong":"8.3916,80.6079"},{"Name":"Rampathwila","PostCode":"50386","LatLong":"8.4028,80.6269"},{"Name":"Galenbindunuwewa","PostCode":"50390","LatLong":"8.2833,80.7167"},{"Name":"Getalawa","PostCode":"50392","LatLong":"8.3,80.7333"},{"Name":"Dutuwewa","PostCode":"50393","LatLong":"8.3167,80.75"},{"Name":"Hurulunikawewa","PostCode":"50394","LatLong":"8.3,80.7333"},{"Name":"Pandukabayapura","PostCode":"50448","LatLong":"8.4661,80.5484"},{"Name":"Rambewa","PostCode":"50450","LatLong":"8.4423,80.5054"},{"Name":"Kendewa","PostCode":"50452","LatLong":"8.4858,80.6067"},{"Name":"Kallanchiya","PostCode":"50454","LatLong":"8.4592,80.5643"},{"Name":"Wahamalgollewa","PostCode":"50492","LatLong":"8.4771,80.5173"},{"Name":"Medawachchiya","PostCode":"50500","LatLong":"8.5345,80.4923"},{"Name":"Kebithigollewa","PostCode":"50500","LatLong":"8.5345,80.4923"},{"Name":"Punewa","PostCode":"50506","LatLong":"8.6113,80.4715"},{"Name":"Kirigalwewa","PostCode":"50511","LatLong":"8.4941,80.4801"},{"Name":"Pihimbiyagolewa","PostCode":"50512","LatLong":"8.4941,80.4801"},{"Name":"Rathmalgahawewa","PostCode":"50514","LatLong":"8.4941,80.4801"},{"Name":"Walahaviddawewa","PostCode":"50516","LatLong":"8.4941,80.4801"},{"Name":"Etaweeragollewa","PostCode":"50518","LatLong":"8.4941,80.4801"},{"Name":"Halmillawetiya","PostCode":"50552","LatLong":"8.3407,80.2796"},{"Name":"Gonahaddenawa","PostCode":"50554","LatLong":"8.5287,80.5148"},{"Name":"Kalawedi Ulpotha","PostCode":"50556","LatLong":"8.5287,80.5148"},{"Name":"Tittagonewa","PostCode":"50558","LatLong":"8.7167,80.75"},{"Name":"Kahatagollewa","PostCode":"50562","LatLong":"8.4445,80.647"},{"Name":"Wahalkada","PostCode":"50564","LatLong":"8.3807,80.4436"},{"Name":"Bogahawewa","PostCode":"50566","LatLong":"8.3169,80.2401"},{"Name":"Pulmoddai","PostCode":"50567","LatLong":"8.3807,80.4436"},{"Name":"Padaviya","PostCode":"50570","LatLong":"8.4941,80.4801"},{"Name":"Padavi Maithripura","PostCode":"50572","LatLong":"8.4941,80.4801"},{"Name":"Mahasenpura","PostCode":"50574","LatLong":"8.4941,80.4801"},{"Name":"Padavi Parakramapura","PostCode":"50582","LatLong":"8.4941,80.4801"},{"Name":"Etawatunuwewa","PostCode":"50584","LatLong":"8.4941,80.4801"},{"Name":"Welioya Project","PostCode":"50586","LatLong":"8.4941,80.4801"},{"Name":"Padavi Sripura","PostCode":"50587","LatLong":"8.4941,80.4801"},{"Name":"Padavi Sritissapura","PostCode":"50588","LatLong":"8.4941,80.4801"}]},{"Name":"Ampara","Places":[{"PostCode":"32000","LatLong":"7.2975,81.682"},{"Name":"Deegawapiya","PostCode":"32006","LatLong":"7.2975,81.682"},{"Name":"Digamadulla Weeragoda","PostCode":"32008","LatLong":"7.2975,81.682"},{"Name":"Hingurana","PostCode":"32010","LatLong":"7.2144,81.6537"},{"Name":"Moragahapallama","PostCode":"32012","LatLong":"7.2076,81.654"},{"Name":"Damana","PostCode":"32014","LatLong":"7.2007,81.6542"},{"Name":"Madawalalanda","PostCode":"32016","LatLong":"7.2076,81.654"},{"Name":"Mahanagapura","PostCode":"32018","LatLong":"7.2076,81.654"},{"Name":"Pannalagama","PostCode":"32022","LatLong":"7.0724,81.6065"},{"Name":"Bakmitiyawa","PostCode":"32024","LatLong":"7.0194,81.6478"},{"Name":"Paragahakele","PostCode":"32031","LatLong":"7.25,81.6"},{"Name":"Polwaga Janapadaya","PostCode":"32032","LatLong":"7.137,81.5192"},{"Name":"Pahalalanda","PostCode":"32034","LatLong":"7.137,81.5192"},{"Name":"Koknahara","PostCode":"32035","LatLong":"7.186,81.5733"},{"Name":"Namaloya","PostCode":"32037","LatLong":"6.9952,81.3703"},{"Name":"Devalahinda","PostCode":"32038","LatLong":"7.137,81.5192"},{"Name":"Wadinagala","PostCode":"32039","LatLong":"7.1167,81.5333"},{"Name":"Dadayamtalawa","PostCode":"32046","LatLong":"7.1972,81.5989"},{"Name":"Siyambalawewa","PostCode":"32048","LatLong":"7.1972,81.5989"},{"Name":"Central Camp","PostCode":"32050","LatLong":"7.1972,81.5989"},{"Name":"Uhana","PostCode":"32060","LatLong":"7.3667,81.6333"},{"Name":"Werunketagoda","PostCode":"32062","LatLong":"7.4083,81.6333"},{"Name":"Gonagolla","PostCode":"32064","LatLong":"7.45,81.6333"},{"Name":"Galapitagala","PostCode":"32066","LatLong":"7.4083,81.6333"},{"Name":"Rajagalatenna","PostCode":"32068","LatLong":"7.4083,81.6333"},{"Name":"Mangalagama","PostCode":"32069","LatLong":"7.4083,81.6333"},{"Name":"Mahaoya","PostCode":"32070","LatLong":"7.1972,81.5989"},{"Name":"Tempitiya","PostCode":"32072","LatLong":"7.1972,81.5989"},{"Name":"Kekirihena","PostCode":"32074","LatLong":"7.1972,81.5989"},{"Name":"Padiyatalawa","PostCode":"32100","LatLong":"7.4002,81.2428"},{"Name":"Serankada","PostCode":"32101","LatLong":"7.4572,81.2808"},{"Name":"Kolamanthalawa","PostCode":"32102","LatLong":"7.4025,81.2745"},{"Name":"Dorakumbura","PostCode":"32104","LatLong":"7.35,81.3"},{"Name":"Nawamedagama","PostCode":"32120","LatLong":"7.3852,81.3892"},{"Name":"Damanewela","PostCode":"32126","LatLong":"7.3852,81.3892"},{"Name":"Dehiattakandiya","PostCode":"32150","LatLong":"7.3852,81.3892"},{"Name":"Siripura","PostCode":"32155","LatLong":"7.3852,81.3892"},{"Name":"Mawanagama","PostCode":"32158","LatLong":"7.3852,81.3892"},{"Name":"Malwatta","PostCode":"32198","LatLong":"7.3333,81.7333"},{"Name":"Samanthurai","PostCode":"32200","LatLong":"7.3833,81.8333"},{"Name":"Karativu","PostCode":"32250","LatLong":"7.3833,81.8333"},{"Name":"Sainthamaruthu","PostCode":"32280","LatLong":"7.3833,81.8333"},{"Name":"Kalmunai","PostCode":"32300","LatLong":"7.409,81.8347"},{"Name":"Navithanveli","PostCode":"32308","LatLong":"7.4333,81.7833"},{"Name":"Marathamune","PostCode":"32314","LatLong":"7.45,81.8167"},{"Name":"Periyaneelavanai","PostCode":"32316","LatLong":"7.45,81.8167"},{"Name":"Nintavur","PostCode":"32340","LatLong":"7.3498,81.853"},{"Name":"Addalaichenai","PostCode":"32350","LatLong":"7.2667,81.85"},{"Name":"Palamunai","PostCode":"32354","LatLong":"7.2667,81.85"},{"Name":"Oluvil","PostCode":"32360","LatLong":"7.2833,81.85"},{"Name":"Akkaraipattu","PostCode":"32400","LatLong":"7.2165,81.8538"},{"Name":"Kannakipuram","PostCode":"32405","LatLong":"7.2165,81.8538"},{"Name":"Thambiluvil","PostCode":"32415","LatLong":"7.1326,81.8514"},{"Name":"Komari","PostCode":"32418","LatLong":"6.9897,81.8621"},{"Name":"Tirukovil","PostCode":"32420","LatLong":"7.1203,81.849"},{"Name":"lmkkamam","PostCode":"32450","LatLong":"7.1148,81.8541"},{"Name":"Wanagamuwa","PostCode":"32454","LatLong":"7.1148,81.8541"},{"Name":"Pottuvil","PostCode":"32500","LatLong":"6.8762,81.8267"},{"Name":"Panama","PostCode":"32508","LatLong":"6.7552,81.8036"},{"Name":"Lahugala","PostCode":"32512","LatLong":"6.914,81.6639"},{"Name":"Hulannuge","PostCode":"32514","LatLong":"6.914,81.6639"}]},{"Name":"Batticaloa","Places":[{"PostCode":"30000","LatLong":"7.7102,81.6924"},{"Name":"Kannankudah","PostCode":"30016","LatLong":"7.6798,81.6702"},{"Name":"Navatkadu","PostCode":"30018","LatLong":"7.5833,81.7167"},{"Name":"Pillaiyaradi","PostCode":"30022","LatLong":"7.7527,81.6417"},{"Name":"Thannamunai","PostCode":"30024","LatLong":"7.7527,81.6417"},{"Name":"Kattankudi","PostCode":"30100","LatLong":"7.6824,81.7334"},{"Name":"Araipattai","PostCode":"30150","LatLong":"7.6667,81.7333"},{"Name":"Puthukudiyiruppu","PostCode":"30158","LatLong":"7.6333,81.75"},{"Name":"Kirankulam","PostCode":"30159","LatLong":"7.6,81.7667"},{"Name":"Kokkaddichcholai","PostCode":"30160","LatLong":"7.624,81.7599"},{"Name":"Ampilanthurai","PostCode":"30162","LatLong":"7.624,81.7599"},{"Name":"Kurukkalmadam","PostCode":"30192","LatLong":"7.5876,81.7829"},{"Name":"Cheddipalayam","PostCode":"30194","LatLong":"7.5833,81.7833"},{"Name":"Thettativu","PostCode":"30196","LatLong":"7.5855,81.7831"},{"Name":"Kaluwanchikudi","PostCode":"30200","LatLong":"7.5167,81.7833"},{"Name":"Vellavely","PostCode":"30204","LatLong":"7.5,81.7333"},{"Name":"Bakiella","PostCode":"30206","LatLong":"7.5083,81.7583"},{"Name":"Mandur","PostCode":"30220","LatLong":"7.4833,81.75"},{"Name":"Periyaporativu","PostCode":"30230","LatLong":"7.5167,81.7667"},{"Name":"Thirupalugamam","PostCode":"30234","LatLong":"7.525,81.725"},{"Name":"Thikkodai","PostCode":"30236","LatLong":"7.5333,81.6833"},{"Name":"Navagirinagar","PostCode":"30238","LatLong":"7.525,81.725"},{"Name":"Koddaikallar","PostCode":"30249","LatLong":"7.5028,81.7528"},{"Name":"Kallar","PostCode":"30250","LatLong":"7.4667,81.8"},{"Name":"Thuraineelavanai","PostCode":"30254","LatLong":"7.4667,81.8"},{"Name":"Eravur","PostCode":"30300","LatLong":"7.7782,81.6038"},{"Name":"Chenkaladi","PostCode":"30350","LatLong":"7.786,81.591"},{"Name":"Pankudavely","PostCode":"30352","LatLong":"7.7491,81.5689"},{"Name":"Karadiyanaru","PostCode":"30354","LatLong":"7.7121,81.5468"},{"Name":"Periyapullumalai","PostCode":"30358","LatLong":"7.7491,81.5689"},{"Name":"Ayithiyamalai","PostCode":"30362","LatLong":"7.6167,81.55"},{"Name":"Unnichchai","PostCode":"30364","LatLong":"7.6167,81.55"},{"Name":"Kaluwankemy","PostCode":"30372","LatLong":"7.7995,81.5773"},{"Name":"Vantharumoolai","PostCode":"30376","LatLong":"7.7995,81.5773"},{"Name":"Murakottanchanai","PostCode":"30392","LatLong":"7.8655,81.5375"},{"Name":"Kiran","PostCode":"30394","LatLong":"7.8655,81.5375"},{"Name":"Valaichenai","PostCode":"30400","LatLong":"7.6899,81.6011"},{"Name":"Kalkudah","PostCode":"30410","LatLong":"7.9167,81.5667"},{"Name":"Oddamavadi","PostCode":"30420","LatLong":"7.9167,81.5167"},{"Name":"Vakaneri","PostCode":"30424","LatLong":"7.9167,81.4333"},{"Name":"Miravodai","PostCode":"30426","LatLong":"7.9024,81.5098"},{"Name":"Punanai","PostCode":"30428","LatLong":"7.9667,81.3833"},{"Name":"Mankemi","PostCode":"30442","LatLong":"7.9574,81.4805"},{"Name":"Panichankemi","PostCode":"30444","LatLong":"7.9574,81.4805"},{"Name":"Vakarai","PostCode":"30450","LatLong":"8.1333,81.4333"},{"Name":"Kathiraveli","PostCode":"30456","LatLong":"8.2167,81.4"}]},{"Name":"Badulla","Places":[{"PostCode":"90000","LatLong":"6.9895,81.0557"},{"Name":"Soranatota","PostCode":"90008","LatLong":"7.0331,81.0508"},{"Name":"Timbirigaspitiya","PostCode":"90012","LatLong":"7.0195,81.0672"},{"Name":"Egodawela","PostCode":"90013","LatLong":"7.065,81.0619"},{"Name":"Taldena","PostCode":"90014","LatLong":"7.0956,81.0479"},{"Name":"Meegahakiula","PostCode":"90015","LatLong":"7.0866,81.0689"},{"Name":"Ketawatta","PostCode":"90016","LatLong":"7.094,81.0912"},{"Name":"Arawa","PostCode":"90017","LatLong":"7.1591,81.0761"},{"Name":"Baduluoya","PostCode":"90019","LatLong":"7.0866,81.0689"},{"Name":"Kandaketya","PostCode":"90020","LatLong":"7.1089,81.0089"},{"Name":"Maliyadda","PostCode":"90022","LatLong":"7.1089,81.0089"},{"Name":"Rilpola","PostCode":"90026","LatLong":"7.1089,81.0089"},{"Name":"Spring Valley","PostCode":"90028","LatLong":"7.1089,81.0089"},{"Name":"Wineethagama","PostCode":"90034","LatLong":"7.0057,81.0533"},{"Name":"Nelumgama","PostCode":"90042","LatLong":"7.0053,81.0743"},{"Name":"Sirimalgoda","PostCode":"90044","LatLong":"7.0031,81.0829"},{"Name":"Kuttiyagolla","PostCode":"90046","LatLong":"7.0214,81.0879"},{"Name":"Kendagolla","PostCode":"90048","LatLong":"6.9977,81.1086"},{"Name":"Kahataruppa","PostCode":"90052","LatLong":"7.0333,81.1167"},{"Name":"Hali Ela","PostCode":"90060","LatLong":"6.9536,81.0299"},{"Name":"Uva Uduwara","PostCode":"90061","LatLong":"7.0218,80.9957"},{"Name":"Uva Deegalla","PostCode":"90062","LatLong":"7.0218,80.9957"},{"Name":"Jangulla","PostCode":"90063","LatLong":"7.0218,80.9957"},{"Name":"Narangala","PostCode":"90064","LatLong":"7.0218,80.9957"},{"Name":"Galauda","PostCode":"90065","LatLong":"7.034,80.9861"},{"Name":"Beramada","PostCode":"90066","LatLong":"7.0544,80.9785"},{"Name":"Godunna","PostCode":"90067","LatLong":"7.0691,80.9803"},{"Name":"Landewela","PostCode":"90068","LatLong":"6.9977,81.0039"},{"Name":"Kandegedara","PostCode":"90070","LatLong":"7.0276,81.0339"},{"Name":"Pathanewatta","PostCode":"90071","LatLong":"7.0276,81.0339"},{"Name":"Tennepanguwa","PostCode":"90072","LatLong":"7.0276,81.0339"},{"Name":"Demodara","PostCode":"90080","LatLong":"6.9002,81.0555"},{"Name":"Gawarawela","PostCode":"90082","LatLong":"6.9,81.0639"},{"Name":"Ella","PostCode":"90090","LatLong":"6.8756,81.0463"},{"Name":"Uva Karandagolla","PostCode":"90091","LatLong":"6.8336,81.0705"},{"Name":"Ballaketuwa","PostCode":"90092","LatLong":"6.8667,81.1"},{"Name":"Helapupula","PostCode":"90094","LatLong":"6.8586,81.0723"},{"Name":"Bandarawela","PostCode":"90100","LatLong":"6.8334,80.9853"},{"Name":"Kebillawela","PostCode":"90102","LatLong":"6.811,80.9962"},{"Name":"Dulgolla","PostCode":"90104","LatLong":"7.2388,80.7293"},{"Name":"Liyangahawela","PostCode":"90106","LatLong":"6.9251,80.9389"},{"Name":"Ambadandegama","PostCode":"90108","LatLong":"6.8173,81.0448"},{"Name":"Heeloya","PostCode":"90112","LatLong":"6.8447,81.0199"},{"Name":"Makulella","PostCode":"90114","LatLong":"6.8447,81.0199"},{"Name":"Helahalpe","PostCode":"90122","LatLong":"6.8885,81.0357"},{"Name":"Diganatenna","PostCode":"90132","LatLong":"6.8667,80.9667"},{"Name":"Mirahawatta","PostCode":"90134","LatLong":"6.8718,80.9445"},{"Name":"Pattiyagedara","PostCode":"90138","LatLong":"6.8751,80.979"},{"Name":"Ettampitiya","PostCode":"90140","LatLong":"6.9387,80.9717"},{"Name":"Diyatalawa","PostCode":"90150","LatLong":"6.8007,80.9546"},{"Name":"Haputale","PostCode":"90160","LatLong":"6.7681,80.9595"},{"Name":"Ratkarawwa","PostCode":"90164","LatLong":"6.8,80.9167"},{"Name":"Nikapotha","PostCode":"90165","LatLong":"6.7333,80.9667"},{"Name":"Akkarasiyaya","PostCode":"90166","LatLong":"6.7797,80.9208"},{"Name":"Ohiya","PostCode":"90168","LatLong":"6.8173,80.8403"},{"Name":"Boralanda","PostCode":"90170","LatLong":"6.827,80.894"},{"Name":"Pitapola","PostCode":"90171","LatLong":"6.8097,80.893"},{"Name":"Haldummulla","PostCode":"90180","LatLong":"6.7603,80.8844"},{"Name":"Soragune","PostCode":"90183","LatLong":"6.8294,80.8806"},{"Name":"Kiriwanagama","PostCode":"90184","LatLong":"6.9682,80.9118"},{"Name":"Kalupahana","PostCode":"90186","LatLong":"6.7596,80.8455"},{"Name":"Uva Tenna","PostCode":"90188","LatLong":"6.8294,80.8806"},{"Name":"Koslanda","PostCode":"90190","LatLong":"6.7434,81.0189"},{"Name":"Uva Mawelagama","PostCode":"90192","LatLong":"6.7434,81.0189"},{"Name":"Welimada","PostCode":"90200","LatLong":"6.9044,80.9044"},{"Name":"Amunumulla","PostCode":"90204","LatLong":"6.8664,80.9084"},{"Name":"Galedanda","PostCode":"90206","LatLong":"6.8258,80.9291"},{"Name":"Gurutalawa","PostCode":"90208","LatLong":"6.8362,80.9122"},{"Name":"Puhulpola","PostCode":"90212","LatLong":"6.9028,80.9238"},{"Name":"Dikkapitiya","PostCode":"90214","LatLong":"6.7422,80.9733"},{"Name":"Nugatalawa","PostCode":"90216","LatLong":"6.8994,80.8806"},{"Name":"Medawela Udukinda","PostCode":"90218","LatLong":"6.8481,80.9259"},{"Name":"Perawella","PostCode":"90222","LatLong":"6.9378,80.8389"},{"Name":"Hangunnawa","PostCode":"90224","LatLong":"6.9513,80.8729"},{"Name":"Uduhawara","PostCode":"90226","LatLong":"6.9667,80.8667"},{"Name":"Uvaparanagama","PostCode":"90230","LatLong":"6.8833,80.901"},{"Name":"Ambagasdowa","PostCode":"90300","LatLong":"6.9232,80.8936"},{"Name":"Bowela","PostCode":"90302","LatLong":"6.95,80.9333"},{"Name":"Lunuwatta","PostCode":"90310","LatLong":"6.9334,80.9006"},{"Name":"Bambarapana","PostCode":"90322","LatLong":"7.0032,80.9678"},{"Name":"Dimbulana","PostCode":"90324","LatLong":"7,80.95"},{"Name":"Ambagahawatta","PostCode":"90326","LatLong":"7.0167,80.9551"},{"Name":"Maspanna","PostCode":"90328","LatLong":"7.0167,80.95"},{"Name":"Yalagamuwa","PostCode":"90329","LatLong":"7.0469,80.9525"},{"Name":"Keppetipola","PostCode":"90350","LatLong":"6.8975,80.8705"},{"Name":"Kalubululanda","PostCode":"90352","LatLong":"6.8621,80.8791"},{"Name":"Bogahakumbura","PostCode":"90354","LatLong":"6.8631,80.8639"},{"Name":"Kandepuhulpola","PostCode":"90356","LatLong":"6.838,80.8638"},{"Name":"Hewanakumbura","PostCode":"90358","LatLong":"6.8902,80.8473"},{"Name":"Boragas","PostCode":"90362","LatLong":"6.9097,80.8356"},{"Name":"Silmiyapura","PostCode":"90364","LatLong":"6.9097,80.8356"},{"Name":"Passara","PostCode":"90500","LatLong":"6.9346,81.1574"},{"Name":"Bibilegama","PostCode":"90502","LatLong":"6.8945,81.1361"},{"Name":"Miriyabedda","PostCode":"90504","LatLong":"6.9,81.1667"},{"Name":"Kotamuduna","PostCode":"90506","LatLong":"6.8929,81.1841"},{"Name":"Hingurukaduwa","PostCode":"90508","LatLong":"6.8288,81.1573"},{"Name":"Gamewela","PostCode":"90512","LatLong":"6.9186,81.2056"},{"Name":"Medawelagama","PostCode":"90518","LatLong":"6.976,81.1712"},{"Name":"Pelagahatenna","PostCode":"90522","LatLong":"6.9644,81.1584"},{"Name":"Hopton","PostCode":"90524","LatLong":"6.9644,81.1584"},{"Name":"Lunugala","PostCode":"90530","LatLong":"7.0369,81.2017"},{"Name":"Arawakumbura","PostCode":"90532","LatLong":"7.0849,81.1982"},{"Name":"Pallekiruwa","PostCode":"90534","LatLong":"7.0098,81.2362"},{"Name":"Madulsima","PostCode":"90535","LatLong":"7.0334,81.1687"},{"Name":"Metigahatenna","PostCode":"90540","LatLong":"6.9667,81.0833"},{"Name":"Atakiriya","PostCode":"90542","LatLong":"7.0698,81.1023"},{"Name":"Pitamaruwa","PostCode":"90544","LatLong":"7.1162,81.1262"},{"Name":"Kalugahakandura","PostCode":"90546","LatLong":"7.1264,81.0975"},{"Name":"Namunukula","PostCode":"90580","LatLong":"6.9041,81.1211"},{"Name":"Maussagolla","PostCode":"90582","LatLong":"6.9091,81.1323"},{"Name":"Miyanakandura","PostCode":"90584","LatLong":"6.8619,81.1486"},{"Name":"Mahiyanganaya","PostCode":"90700","LatLong":"7.2444,81.1167"},{"Name":"Uraniya","PostCode":"90702","LatLong":"7.2333,81.1"},{"Name":"Ridimaliyadda","PostCode":"90704","LatLong":"7.2333,81.1"},{"Name":"Yalwela","PostCode":"90706","LatLong":"7.2667,81.15"},{"Name":"Arawatta","PostCode":"90712","LatLong":"7.3333,81.05"},{"Name":"Dambana","PostCode":"90714","LatLong":"7.3583,81.1083"},{"Name":"Wewatta","PostCode":"90716","LatLong":"7.3833,81.1667"},{"Name":"Sorabora Colony","PostCode":"90718","LatLong":"7.3583,81.1083"},{"Name":"Aluttaramma","PostCode":"90722","LatLong":"7.2221,81.0612"},{"Name":"Hebarawa","PostCode":"90724","LatLong":"7.2221,81.0612"},{"Name":"Divulapelessa","PostCode":"90726","LatLong":"7.2221,81.0612"},{"Name":"Kuruwitenna","PostCode":"90728","LatLong":"7.2221,81.0612"},{"Name":"Mapakadawewa","PostCode":"90730","LatLong":"7.3,81.1167"},{"Name":"Uva Tissapura","PostCode":"90734","LatLong":"7.3,81.1167"},{"Name":"Aluketiyawa","PostCode":"90736","LatLong":"7.3,81.1167"},{"Name":"Keselpotha","PostCode":"90738","LatLong":"7.3,81.1167"},{"Name":"Girandurukotte","PostCode":"90750","LatLong":"7.4,81.05"},{"Name":"Galporuyaya","PostCode":"90752","LatLong":"7.4,81.05"},{"Name":"Malgoda","PostCode":"90754","LatLong":"7.4,81.05"},{"Name":"Pahalarathkinda","PostCode":"90756","LatLong":"7.4,81.05"},{"Name":"Idalgashinna","PostCode":"96167","LatLong":"6.7819,80.8931"}]},{"Name":"Colombo","Places":[{"Name":"Fort","PostCode":"00100","LatLong":"6.9392,79.8436"},{"Name":"Slave lsland","PostCode":"00200","LatLong":"7.3267,80.5226"},{"Name":"Slave Island","PostCode":"00200","LatLong":"6.9167,79.85"},{"Name":"Colpetty","PostCode":"00300","LatLong":"6.8833,79.85"},{"Name":"Bambalapitiya","PostCode":"00400","LatLong":"6.8914,79.8522"},{"Name":"Havelock Town","PostCode":"00500","LatLong":"6.8841,79.8608"},{"Name":"Kirulapone","PostCode":"00600","LatLong":"6.8753,79.8611"},{"Name":"Wellawatta","PostCode":"00600","LatLong":"6.8753,79.8611"},{"Name":"Borella","PostCode":"00800","LatLong":"6.9177,79.8742"},{"Name":"Kotahena","PostCode":"01300","LatLong":"6.9459,79.8617"},{"Name":"Mutwal","PostCode":"01500","LatLong":"6.95,79.8667"},{"Name":"Sri Jayawardenepu","PostCode":"10100","LatLong":"6.8868,79.9551"},{"Name":"Malabe","PostCode":"10115","LatLong":"6.9083,79.9649"},{"Name":"Talawatugoda","PostCode":"10116","LatLong":"6.8738,79.9378"},{"Name":"Hokandara","PostCode":"10118","LatLong":"6.891,79.9513"},{"Name":"Battaramulla","PostCode":"10120","LatLong":"6.8964,79.9181"},{"Name":"Athurugiriya","PostCode":"10150","LatLong":"6.8687,79.9998"},{"Name":"Homagama","PostCode":"10200","LatLong":"6.844,80.0024"},{"Name":"Mullegama","PostCode":"10202","LatLong":"6.8796,80.0131"},{"Name":"Habarakada","PostCode":"10204","LatLong":"6.8708,80.0092"},{"Name":"Pitipana Homagama","PostCode":"10206","LatLong":"6.848,80.0098"},{"Name":"Kiriwattuduwa","PostCode":"10208","LatLong":"6.7977,80.0146"},{"Name":"Pannipitiya","PostCode":"10230","LatLong":"6.8462,79.9448"},{"Name":"Hiripitya","PostCode":"10232","LatLong":"6.8462,79.9448"},{"Name":"Nugegoda","PostCode":"10250","LatLong":"6.8735,79.8899"},{"Name":"Maharagama","PostCode":"10280","LatLong":"6.848,79.9265"},{"Name":"Boralesgamuwa","PostCode":"10290","LatLong":"6.8382,79.9104"},{"Name":"Piliyandala","PostCode":"10300","LatLong":"6.7999,79.9249"},{"Name":"Deltara","PostCode":"10302","LatLong":"6.7841,79.9117"},{"Name":"Siddamulla","PostCode":"10304","LatLong":"6.8232,79.9586"},{"Name":"Madapatha","PostCode":"10306","LatLong":"6.768,79.929"},{"Name":"Polgasowita","PostCode":"10320","LatLong":"6.7865,79.9657"},{"Name":"Dehiwala","PostCode":"10350","LatLong":"6.8523,79.8656"},{"Name":"Mount Lavinia","PostCode":"10370","LatLong":"6.8339,79.8644"},{"Name":"Moratuwa","PostCode":"10400","LatLong":"6.773,79.8816"},{"Name":"Padukka","PostCode":"10500","LatLong":"6.8408,80.0897"},{"Name":"Horagala","PostCode":"10502","LatLong":"6.8107,80.0466"},{"Name":"Meegoda","PostCode":"10504","LatLong":"6.8479,80.0484"},{"Name":"Kahawala","PostCode":"10508","LatLong":"6.7772,80.1057"},{"Name":"Watareka","PostCode":"10511","LatLong":"6.8509,80.064"},{"Name":"Batawala","PostCode":"10513","LatLong":"6.878,80.0472"},{"Name":"Bope","PostCode":"10522","LatLong":"6.832,80.1314"},{"Name":"Handapangoda","PostCode":"10524","LatLong":"6.7939,80.1441"},{"Name":"Batugampola","PostCode":"10526","LatLong":"6.7758,80.1344"},{"Name":"Kolonnawa","PostCode":"10600","LatLong":"6.9329,79.8848"},{"Name":"Mulleriyawa New Town","PostCode":"10620","LatLong":"6.9287,80.0478"},{"Name":"Kaduwela","PostCode":"10640","LatLong":"6.9339,79.982"},{"Name":"Hanwella","PostCode":"10650","LatLong":"6.9086,80.0796"},{"Name":"Ranala","PostCode":"10654","LatLong":"6.9144,80.032"},{"Name":"Dedigamuwa","PostCode":"10656","LatLong":"6.8905,80.027"},{"Name":"Waga","PostCode":"10680","LatLong":"6.9019,80.1236"},{"Name":"Tummodara","PostCode":"10682","LatLong":"6.9019,80.1236"},{"Name":"Avissawella","PostCode":"10700","LatLong":"6.953,80.2075"},{"Name":"Napawela","PostCode":"10704","LatLong":"6.953,80.2075"},{"Name":"Puwakpitiya","PostCode":"10712","LatLong":"7.0331,80.0722"},{"Name":"Hewainna","PostCode":"10714","LatLong":"7.0999,80.0944"},{"Name":"Kalatuwawa","PostCode":"10718","LatLong":"7.1667,80.1167"},{"Name":"Kosgama","PostCode":"10730","LatLong":"6.9404,80.1276"},{"Name":"Akarawita","PostCode":"10732","LatLong":"6.9459,80.1114"}]},{"Name":"Galle","Places":[{"PostCode":"80000","LatLong":"6.0367,80.217"},{"Name":"Wakwella","PostCode":"80042","LatLong":"6.0949,80.2026"},{"Name":"Anangoda","PostCode":"80044","LatLong":"6.0663,80.2468"},{"Name":"Walahanduwa","PostCode":"80046","LatLong":"6.0568,80.2475"},{"Name":"Ankokkawala","PostCode":"80048","LatLong":"6.0471,80.2902"},{"Name":"Gonamulla Junction","PostCode":"80054","LatLong":"6.0647,80.3013"},{"Name":"Hiyare","PostCode":"80056","LatLong":"6.0647,80.3013"},{"Name":"Talagampola","PostCode":"80058","LatLong":"6.0647,80.3013"},{"Name":"Kottawagama","PostCode":"80062","LatLong":"6.1439,80.3353"},{"Name":"Nakiyadeniya","PostCode":"80064","LatLong":"6.1439,80.3353"},{"Name":"Udugama","PostCode":"80070","LatLong":"6.2211,80.3336"},{"Name":"Panangala","PostCode":"80075","LatLong":"6.2628,80.3223"},{"Name":"Hiniduma","PostCode":"80080","LatLong":"6.3126,80.3116"},{"Name":"Neluwa","PostCode":"80082","LatLong":"6.3757,80.3604"},{"Name":"Warukandeniya","PostCode":"80084","LatLong":"6.3834,80.4182"},{"Name":"Pannimulla Panagoda","PostCode":"80086","LatLong":"6.3572,80.3634"},{"Name":"Akmeemana","PostCode":"80090","LatLong":"6.1818,80.3036"},{"Name":"Meda-Keembiya","PostCode":"80092","LatLong":"6.1818,80.3036"},{"Name":"Wanduramba","PostCode":"80100","LatLong":"6.1305,80.2521"},{"Name":"Yatalamatta","PostCode":"80107","LatLong":"6.1619,80.2766"},{"Name":"Udalamatta","PostCode":"80108","LatLong":"6.1828,80.2952"},{"Name":"Nagoda","PostCode":"80110","LatLong":"6.1958,80.2742"},{"Name":"Mapalagama","PostCode":"80112","LatLong":"6.2307,80.3254"},{"Name":"Parana ThanaYamgoda","PostCode":"80114","LatLong":"6.2133,80.2998"},{"Name":"Mapalagama Central","PostCode":"80116","LatLong":"6.2133,80.2998"},{"Name":"Wanchawela","PostCode":"80120","LatLong":"6.0359,80.3156"},{"Name":"Angulugaha","PostCode":"80122","LatLong":"6.0359,80.3156"},{"Name":"lmaduwa","PostCode":"80130","LatLong":"6.1265,80.4898"},{"Name":"Hawpe","PostCode":"80132","LatLong":"6.1265,80.4898"},{"Name":"Ihala Walpola","PostCode":"80134","LatLong":"6.1265,80.4898"},{"Name":"Kananke Bazaar","PostCode":"80136","LatLong":"6.1265,80.4898"},{"Name":"Opatha","PostCode":"80142","LatLong":"6.3587,80.1412"},{"Name":"Banagala","PostCode":"80143","LatLong":"6.2882,80.2376"},{"Name":"Malgalla Talangalla","PostCode":"80144","LatLong":"6.3285,80.2408"},{"Name":"Halvitigala Colony","PostCode":"80146","LatLong":"6.3285,80.2408"},{"Name":"Tawalama","PostCode":"80148","LatLong":"6.3387,80.3437"},{"Name":"Yakkalamulla","PostCode":"80150","LatLong":"6.1098,80.3454"},{"Name":"Karagoda","PostCode":"80151","LatLong":"6.0931,80.3781"},{"Name":"Magedara","PostCode":"80152","LatLong":"6.1036,80.4062"},{"Name":"Uluvitike","PostCode":"80168","LatLong":"6.1763,80.3065"},{"Name":"Poddala","PostCode":"80170","LatLong":"6.112,80.2105"},{"Name":"Baddegama","PostCode":"80200","LatLong":"6.1652,80.1782"},{"Name":"Ampegama","PostCode":"80204","LatLong":"6.1916,80.1463"},{"Name":"Agaliya","PostCode":"80212","LatLong":"6.193,80.2006"},{"Name":"Unenwitiya","PostCode":"80214","LatLong":"6.2456,80.2234"},{"Name":"Weihena","PostCode":"80216","LatLong":"6.2982,80.2463"},{"Name":"Ginimellagaha","PostCode":"80220","LatLong":"6.1438,80.159"},{"Name":"Gonapinuwala","PostCode":"80230","LatLong":"6.1458,80.1384"},{"Name":"Hikkaduwa","PostCode":"80240","LatLong":"6.1407,80.1012"},{"Name":"Tiranagama","PostCode":"80244","LatLong":"6.1282,80.1245"},{"Name":"Dodanduwa","PostCode":"80250","LatLong":"6.0962,80.1351"},{"Name":"Ratgama","PostCode":"80260","LatLong":"6.0941,80.1429"},{"Name":"Boossa","PostCode":"80270","LatLong":"6.0733,80.1577"},{"Name":"Gintota","PostCode":"80280","LatLong":"6.0559,80.1774"},{"Name":"Ambalangoda","PostCode":"80300","LatLong":"6.2355,80.0538"},{"Name":"Godahena","PostCode":"80302","LatLong":"6.2393,80.0752"},{"Name":"Kahawa","PostCode":"80312","LatLong":"6.1832,80.0734"},{"Name":"Nindana","PostCode":"80318","LatLong":"6.2033,80.103"},{"Name":"Batapola","PostCode":"80320","LatLong":"6.2216,80.1254"},{"Name":"Kuleegoda","PostCode":"80328","LatLong":"6.2216,80.1254"},{"Name":"Meetiyagoda","PostCode":"80330","LatLong":"6.1915,80.0895"},{"Name":"Aluthwala","PostCode":"80332","LatLong":"6.1776,80.1386"},{"Name":"Watugedara","PostCode":"80340","LatLong":"6.2545,80.0576"},{"Name":"Uragasmanhandiya","PostCode":"80350","LatLong":"6.3429,80.0927"},{"Name":"Uragaha","PostCode":"80352","LatLong":"6.3589,80.1181"},{"Name":"Rantotuwila","PostCode":"80354","LatLong":"6.3847,80.097"},{"Name":"Karandeniya","PostCode":"80360","LatLong":"6.2704,80.0794"},{"Name":"Elpitiya","PostCode":"80400","LatLong":"6.2908,80.1626"},{"Name":"Ella Tanabaddegama","PostCode":"80402","LatLong":"6.2899,80.1978"},{"Name":"Talgaspe","PostCode":"80406","LatLong":"6.3081,80.1985"},{"Name":"Porawagama","PostCode":"80408","LatLong":"6.2707,80.2324"},{"Name":"Nawadagala","PostCode":"80416","LatLong":"6.3113,80.1333"},{"Name":"Pitigala","PostCode":"80420","LatLong":"6.3517,80.2162"},{"Name":"Amugoda","PostCode":"80422","LatLong":"6.3205,80.2173"},{"Name":"Mattaka","PostCode":"80424","LatLong":"6.3041,80.2522"},{"Name":"lhalahewessa","PostCode":"80432","LatLong":"6.2995,80.1968"},{"Name":"Ganegoda","PostCode":"80440","LatLong":"6.3223,80.1516"},{"Name":"Ethkandura","PostCode":"80458","LatLong":"6.2995,80.1968"},{"Name":"Kahaduwa","PostCode":"80460","LatLong":"6.2159,80.2072"},{"Name":"Talgaswela","PostCode":"80470","LatLong":"6.2995,80.1968"},{"Name":"Bentota","PostCode":"80500","LatLong":"6.4254,79.9948"},{"Name":"Gonagalpura","PostCode":"80502","LatLong":"6.4015,80.0291"},{"Name":"Haburugala","PostCode":"80506","LatLong":"6.4001,80.0361"},{"Name":"Miriswatta","PostCode":"80508","LatLong":"6.379,80.0563"},{"Name":"lnduruwa","PostCode":"80510","LatLong":"6.3557,80.0304"},{"Name":"Balapitiya","PostCode":"80550","LatLong":"6.278,80.0366"},{"Name":"Ahungalla","PostCode":"80562","LatLong":"6.3136,80.0322"},{"Name":"Kosgoda","PostCode":"80570","LatLong":"6.338,80.0262"},{"Name":"Unawatuna","PostCode":"80600","LatLong":"6.0212,80.2503"},{"Name":"Talpe","PostCode":"80615","LatLong":"5.9999,80.2787"},{"Name":"Habaraduwa","PostCode":"80630","LatLong":"5.9977,80.2958"},{"Name":"Ahangama","PostCode":"80650","LatLong":"5.9896,80.3598"},{"Name":"Dikkumbura","PostCode":"80654","LatLong":"6.0116,80.3729"}]},{"Name":"Gampaha","Places":[{"Name":"Pugoda","PostCode":"10660","LatLong":"6.9911,80.1197"},{"Name":"Kapugoda","PostCode":"10662","LatLong":"6.9504,80.0916"},{"Name":"Tittapattara","PostCode":"10664","LatLong":"6.9345,80.0902"},{"PostCode":"11000","LatLong":"7.0897,79.9925"},{"Name":"Ragama","PostCode":"11010","LatLong":"7.0292,79.917"},{"Name":"Batuwatta","PostCode":"11011","LatLong":"7.0527,79.9266"},{"Name":"Walpola (WP)","PostCode":"11012","LatLong":"7.041,79.9218"},{"Name":"Ganemulla","PostCode":"11020","LatLong":"7.0652,79.963"},{"Name":"Bollete (WP)","PostCode":"11024","LatLong":"7.0652,79.963"},{"Name":"Udugampola","PostCode":"11030","LatLong":"7.1167,79.9833"},{"Name":"Madelgamuwa","PostCode":"11033","LatLong":"7.1116,79.953"},{"Name":"Uggalboda","PostCode":"11034","LatLong":"7.1273,79.9563"},{"Name":"Bemmulla","PostCode":"11040","LatLong":"7.1229,80.0239"},{"Name":"Pethiyagoda","PostCode":"11043","LatLong":"7.1229,80.0239"},{"Name":"Ambagaspitiya","PostCode":"11052","LatLong":"7.0821,80.0616"},{"Name":"Udathuthiripitiya","PostCode":"11054","LatLong":"7.0716,80.0333"},{"Name":"Mudungoda","PostCode":"11056","LatLong":"7.061,80.0049"},{"Name":"Mandawala","PostCode":"11061","LatLong":"7.0188,80.083"},{"Name":"Lunugama","PostCode":"11062","LatLong":"6.9714,80.0933"},{"Name":"Naranwala","PostCode":"11063","LatLong":"7.0006,80.0245"},{"Name":"Nedungamuwa","PostCode":"11066","LatLong":"7.0393,80.0197"},{"Name":"Wanaluwewa","PostCode":"11068","LatLong":"7.0075,80.0551"},{"Name":"Veyangoda","PostCode":"11100","LatLong":"7.1535,80.0597"},{"Name":"Dewalapola","PostCode":"11102","LatLong":"7.1659,79.9905"},{"Name":"Wattala","PostCode":"11104","LatLong":"6.9779,79.8898"},{"Name":"Watinapaha","PostCode":"11104","LatLong":"7.1891,80.0004"},{"Name":"Kumbaloluwa","PostCode":"11105","LatLong":"7.1763,80.0827"},{"Name":"Essella","PostCode":"11108","LatLong":"7.1773,80.0123"},{"Name":"Muddaragama","PostCode":"11112","LatLong":"7.2077,80.0545"},{"Name":"Mabodale","PostCode":"11114","LatLong":"7.1981,80.0166"},{"Name":"Ellakkala","PostCode":"11116","LatLong":"7.144,80.1241"},{"Name":"Attanagalla","PostCode":"11120","LatLong":"7.1152,80.1341"},{"Name":"Alawala","PostCode":"11122","LatLong":"7.1202,80.1815"},{"Name":"Urapola","PostCode":"11126","LatLong":"7.0987,80.143"},{"Name":"Nikahetikanda","PostCode":"11128","LatLong":"7.0951,80.1689"},{"Name":"Rukmale","PostCode":"11129","LatLong":"7.4074,80.0869"},{"Name":"Bopagama","PostCode":"11134","LatLong":"7.0742,80.1501"},{"Name":"Ruggahawila","PostCode":"11142","LatLong":"7.0725,80.115"},{"Name":"Kahatowita","PostCode":"11144","LatLong":"7.0725,80.115"},{"Name":"Walgammulla","PostCode":"11146","LatLong":"7.0725,80.115"},{"Name":"Pallewela","PostCode":"11150","LatLong":"7.2,80.0833"},{"Name":"Kaleliya","PostCode":"11160","LatLong":"7.195,80.1136"},{"Name":"Mirigama","PostCode":"11200","LatLong":"7.2439,80.1212"},{"Name":"Loluwagoda","PostCode":"11204","LatLong":"7.2959,80.1346"},{"Name":"Kitalawalana","PostCode":"11206","LatLong":"7.2965,80.1001"},{"Name":"Divuldeniya","PostCode":"11208","LatLong":"7.3028,80.0957"},{"Name":"Ambepussa","PostCode":"11212","LatLong":"7.2507,80.1723"},{"Name":"Pamunuwatta","PostCode":"11214","LatLong":"7.2127,80.1375"},{"Name":"Bokalagama","PostCode":"11216","LatLong":"7.2317,80.1549"},{"Name":"Nawana","PostCode":"11222","LatLong":"7.2638,80.1012"},{"Name":"Kaluaggala","PostCode":"11224","LatLong":"6.9173,80.1109"},{"Name":"Walpita","PostCode":"11226","LatLong":"7.2601,80.0493"},{"Name":"Delwagura","PostCode":"11228","LatLong":"7.2661,79.9936"},{"Name":"Kotadeniyawa","PostCode":"11232","LatLong":"7.2844,80.0625"},{"Name":"Mellawagedara","PostCode":"11234","LatLong":"7.2844,80.0625"},{"Name":"Kitulwala","PostCode":"11242","LatLong":"7.5034,80.5318"},{"Name":"Banduragoda","PostCode":"11244","LatLong":"7.2266,80.0544"},{"Name":"Divulapitiya","PostCode":"11250","LatLong":"7.224,80.0094"},{"Name":"Marandagahamula","PostCode":"11260","LatLong":"7.2405,79.9723"},{"Name":"Hunumulla","PostCode":"11262","LatLong":"7.2453,79.9974"},{"Name":"Dunagaha","PostCode":"11264","LatLong":"7.2256,79.9685"},{"Name":"Ihala Madampella","PostCode":"11265","LatLong":"7.2507,79.9509"},{"Name":"Demanhandiya","PostCode":"11270","LatLong":"7.2282,79.8964"},{"Name":"Kandana","PostCode":"11320","LatLong":"7.048,79.8937"},{"Name":"Polpithimukulana","PostCode":"11324","LatLong":"7.045,79.8781"},{"Name":"Uswetakeiyawa","PostCode":"11328","LatLong":"7.0421,79.8624"},{"Name":"Ja-Ela","PostCode":"11350","LatLong":"7.0744,79.8919"},{"Name":"Niwandama","PostCode":"11354","LatLong":"7.0815,79.9308"},{"Name":"Makewita","PostCode":"11358","LatLong":"7.1023,79.9313"},{"Name":"Pamunugama","PostCode":"11370","LatLong":"7.1006,79.8481"},{"Name":"Ekala","PostCode":"11380","LatLong":"7.099,79.913"},{"Name":"Kotugoda","PostCode":"11390","LatLong":"7.1231,79.9263"},{"Name":"Raddolugama","PostCode":"11400","LatLong":"7.1371,79.9034"},{"Name":"Seeduwa","PostCode":"11410","LatLong":"7.1305,79.8871"},{"Name":"Katunayake(FTZ)","PostCode":"11420","LatLong":"7.144,79.8887"},{"Name":"Katunayake Air Force Camp","PostCode":"11440","LatLong":"7.144,79.8887"},{"Name":"Katunayake","PostCode":"11450","LatLong":"7.1643,79.8757"},{"Name":"Negombo","PostCode":"11500","LatLong":"7.2083,79.8358"},{"Name":"Talahena","PostCode":"11504","LatLong":"7.1624,79.8246"},{"Name":"Kimbulapitiya","PostCode":"11522","LatLong":"7.2036,79.895"},{"Name":"Dagonna","PostCode":"11524","LatLong":"7.2219,79.9279"},{"Name":"Katuwellegama","PostCode":"11526","LatLong":"7.2234,79.9383"},{"Name":"Thimbirigaskatuwa","PostCode":"11532","LatLong":"7.2715,79.9484"},{"Name":"Katana","PostCode":"11534","LatLong":"7.2503,79.8957"},{"Name":"Akaragama","PostCode":"11536","LatLong":"7.2666,79.9652"},{"Name":"Badalgama","PostCode":"11538","LatLong":"7.2976,79.9844"},{"Name":"Kochchikade","PostCode":"11540","LatLong":"7.2657,79.8603"},{"Name":"Minuwangoda","PostCode":"11550","LatLong":"7.1663,79.9533"},{"Name":"Andiambalama","PostCode":"11558","LatLong":"7.1818,79.9001"},{"Name":"Wegowwa","PostCode":"11562","LatLong":"7.1715,79.9665"},{"Name":"Horampella","PostCode":"11564","LatLong":"7.1715,79.9665"},{"Name":"Yatiyana(WP)","PostCode":"11566","LatLong":"7.1715,79.9665"},{"Name":"Hinatiyana Madawala","PostCode":"11568","LatLong":"7.1715,79.9665"},{"Name":"Kelaniya","PostCode":"11600","LatLong":"6.9553,79.922"},{"Name":"Siyambalape","PostCode":"11607","LatLong":"6.9707,79.9875"},{"Name":"Heiyanthuduwa","PostCode":"11618","LatLong":"6.9618,80.0025"},{"Name":"GonawalaWP","PostCode":"11630","LatLong":"6.9618,80.0025"},{"Name":"Makola","PostCode":"11640","LatLong":"6.9769,79.958"},{"Name":"Biyagama","PostCode":"11650","LatLong":"6.9423,79.9842"},{"Name":"Malwana","PostCode":"11670","LatLong":"6.9414,80.021"},{"Name":"Biyagama IPZ","PostCode":"11672","LatLong":"6.9414,80.021"},{"Name":"Dompe","PostCode":"11680","LatLong":"6.9503,80.051"},{"Name":"Dekatana","PostCode":"11690","LatLong":"6.9694,80.0481"},{"Name":"Demalagama","PostCode":"11692","LatLong":"6.9879,80.0483"},{"Name":"Delgoda","PostCode":"11700","LatLong":"6.9909,80.008"},{"Name":"Weliveriya","PostCode":"11710","LatLong":"7.0177,80.0488"},{"Name":"Henegama","PostCode":"11715","LatLong":"7.0177,80.0488"},{"Name":"Buthpitiya","PostCode":"11720","LatLong":"7.0491,80.0514"},{"Name":"Wathurugama","PostCode":"11724","LatLong":"7.0406,80.0713"},{"Name":"Radawana","PostCode":"11725","LatLong":"7.0321,80.0912"},{"Name":"Kirindiwela","PostCode":"11730","LatLong":"7.0417,80.1282"},{"Name":"Hiswella","PostCode":"11734","LatLong":"7.0417,80.1282"},{"Name":"Pepiliyawala","PostCode":"11741","LatLong":"6.9982,80.1286"},{"Name":"Mithirigala","PostCode":"11742","LatLong":"6.9982,80.1286"},{"Name":"Peliyagoda","PostCode":"11830","LatLong":"6.9685,79.8836"},{"Name":"Kadawatha","PostCode":"11850","LatLong":"7.0276,79.993"},{"Name":"Imbulgoda","PostCode":"11856","LatLong":"7.0376,79.9913"},{"Name":"Weboda","PostCode":"11858","LatLong":"7.0176,79.9946"},{"Name":"Yakkala","PostCode":"11870","LatLong":"7.0869,80.0271"},{"Name":"Kalagedihena","PostCode":"11875","LatLong":"7.1185,80.0563"},{"Name":"Nittambuwa","PostCode":"11880","LatLong":"7.1426,80.0938"},{"Name":"Debahera","PostCode":"11889","LatLong":"7.1426,80.0938"},{"Name":"Pasyala","PostCode":"11890","LatLong":"7.1666,80.1219"},{"Name":"Radawadunna","PostCode":"11892","LatLong":"7.1785,80.1409"},{"Name":"Weweldeniya","PostCode":"11894","LatLong":"7.184,80.1466"},{"Name":"Danowita","PostCode":"11896","LatLong":"7.207,80.1769"}]},{"Name":"Hambantota","Places":[{"PostCode":"82000","LatLong":"6.1241,81.1185"},{"Name":"Bundala","PostCode":"82002","LatLong":"6.1899,81.267"},{"Name":"Weligatta","PostCode":"82004","LatLong":"6.2049,81.1976"},{"Name":"Bandagiriya Colony","PostCode":"82005","LatLong":"6.1903,81.1721"},{"Name":"Gonnoruwa","PostCode":"82006","LatLong":"6.2423,81.1053"},{"Name":"Pahala Andarawewa","PostCode":"82008","LatLong":"6.1903,81.1721"},{"Name":"Sooriyawewa Town","PostCode":"82010","LatLong":"6.1903,81.1721"},{"Name":"Migahajandur","PostCode":"82014","LatLong":"6.1903,81.1721"},{"Name":"Mahagalwewa","PostCode":"82016","LatLong":"6.1903,81.1721"},{"Name":"Ranmuduwewa","PostCode":"82018","LatLong":"6.1903,81.1721"},{"Name":"Ambalantota","PostCode":"82100","LatLong":"6.1196,81.0214"},{"Name":"Beragama","PostCode":"82102","LatLong":"6.1493,81.0413"},{"Name":"RU/Ridiyagama","PostCode":"82106","LatLong":"6.1344,81.0028"},{"Name":"Lunama","PostCode":"82108","LatLong":"6.1074,80.9783"},{"Name":"Mamadala","PostCode":"82109","LatLong":"6.1614,80.9701"},{"Name":"Barawakumbuka","PostCode":"82110","LatLong":"6.2231,80.9308"},{"Name":"Hungama","PostCode":"82120","LatLong":"6.1087,80.9309"},{"Name":"Ranna","PostCode":"82125","LatLong":"6.0985,80.8807"},{"Name":"Kahandamodara","PostCode":"82126","LatLong":"6.0705,80.8958"},{"Name":"Netolpitiya","PostCode":"82135","LatLong":"6.0634,80.8363"},{"Name":"Tangalla","PostCode":"82200","LatLong":"6.024,80.7911"},{"Name":"Angunakolapelessa","PostCode":"82220","LatLong":"6.164,80.8913"},{"Name":"Vitharandeniya","PostCode":"82232","LatLong":"6.1781,80.7994"},{"Name":"Weeraketiya","PostCode":"82240","LatLong":"6.151,80.7643"},{"Name":"Mulkirigala","PostCode":"82242","LatLong":"6.1315,80.7305"},{"Name":"Wekandawela","PostCode":"82246","LatLong":"6.1423,80.776"},{"Name":"Hakuruwela","PostCode":"82248","LatLong":"6.1443,80.8332"},{"Name":"Julampitiya","PostCode":"82252","LatLong":"6.2212,80.7383"},{"Name":"Medamulana","PostCode":"82254","LatLong":"6.1783,80.7692"},{"Name":"Middeniya","PostCode":"82270","LatLong":"6.2502,80.7634"},{"Name":"Kariyamaditta","PostCode":"82274","LatLong":"6.2554,80.8254"},{"Name":"Ratmalwala","PostCode":"82276","LatLong":"6.2686,80.85"},{"Name":"Uswewa","PostCode":"82278","LatLong":"6.2475,80.8628"},{"Name":"Nakulugamuwa","PostCode":"82300","LatLong":"6.1905,80.9357"},{"Name":"Beliatta","PostCode":"82400","LatLong":"6.0496,80.7325"},{"Name":"Goda Koggalla","PostCode":"82401","LatLong":"6.0496,80.7325"},{"Name":"Ihala Beligalla","PostCode":"82412","LatLong":"6.0947,80.7411"},{"Name":"Nihiluwa","PostCode":"82414","LatLong":"6.0833,80.7"},{"Name":"Modarawana","PostCode":"82416","LatLong":"6.1257,80.7112"},{"Name":"Yatigala","PostCode":"82418","LatLong":"6.1056,80.692"},{"Name":"Getamanna","PostCode":"82420","LatLong":"6.0333,80.6833"},{"Name":"Walasmulla","PostCode":"82450","LatLong":"6.1521,80.6941"},{"Name":"Pallekanda","PostCode":"82454","LatLong":"6.4572,80.7187"},{"Name":"Horewelagoda","PostCode":"82456","LatLong":"6.3047,80.7064"},{"Name":"Bowalagama","PostCode":"82458","LatLong":"6.3047,80.7064"},{"Name":"Ittademaliya","PostCode":"82462","LatLong":"6.1565,80.7256"},{"Name":"Katuwana","PostCode":"82500","LatLong":"6.2683,80.6971"},{"Name":"Uda Gomadiya","PostCode":"82504","LatLong":"6.2683,80.6971"},{"Name":"Kirama","PostCode":"82550","LatLong":"6.2098,80.6632"},{"Name":"Rammalawarapitiya","PostCode":"82554","LatLong":"6.2098,80.6632"},{"Name":"Gangulandeniya","PostCode":"82586","LatLong":"6.2833,80.7182"},{"Name":"Tissamaharama","PostCode":"82600","LatLong":"6.2765,81.2865"},{"Name":"Gonagamuwa Uduwila","PostCode":"82602","LatLong":"6.2466,81.2933"},{"Name":"Magama","PostCode":"82608","LatLong":"6.2167,81.3"},{"Name":"Ranakeliya","PostCode":"82612","LatLong":"6.2187,81.322"},{"Name":"Kirinda","PostCode":"82614","LatLong":"6.2186,81.3256"},{"Name":"Weerawila NewTown","PostCode":"82615","LatLong":"6.2782,81.2872"},{"Name":"Beralihela","PostCode":"82618","LatLong":"6.3391,81.2571"},{"Name":"Ellagala","PostCode":"82619","LatLong":"6.3362,81.2441"},{"Name":"Kawantissapura","PostCode":"82622","LatLong":"6.2908,81.2463"},{"Name":"Weerawila","PostCode":"82632","LatLong":"6.2594,81.2164"},{"Name":"Lunugamwehera","PostCode":"82634","LatLong":"6.3434,81.2001"},{"Name":"Padawkema","PostCode":"82636","LatLong":"6.3599,81.1778"},{"Name":"Udamattala","PostCode":"82638","LatLong":"6.3391,81.1337"}]},{"Name":"Jaffna","Places":[{"PostCode":"40000","LatLong":"9.6684,80.0074"}]},{"Name":"Kegalle","Places":[{"PostCode":"71000","LatLong":"7.2523,80.3436"},{"Name":"Deldeniya","PostCode":"71009","LatLong":"7.2863,80.3626"},{"Name":"Hiriwadunna","PostCode":"71014","LatLong":"7.287,80.3783"},{"Name":"Molagoda","PostCode":"71016","LatLong":"7.2578,80.3819"},{"Name":"Deewala Pallegama","PostCode":"71022","LatLong":"7.2393,80.2857"},{"Name":"Yattogoda","PostCode":"71029","LatLong":"7.2393,80.2857"},{"Name":"Damunupola","PostCode":"71034","LatLong":"7.1813,80.3339"},{"Name":"Watura","PostCode":"71035","LatLong":"7.1845,80.3794"},{"Name":"Debathgama","PostCode":"71037","LatLong":"7.1807,80.4251"},{"Name":"Pothukoladeniya","PostCode":"71039","LatLong":"7.1822,80.3795"},{"Name":"Aruggammana","PostCode":"71041","LatLong":"7.1305,80.2991"},{"Name":"Beligala(Sab)","PostCode":"71044","LatLong":"7.2189,80.3017"},{"Name":"Helamada","PostCode":"71046","LatLong":"7.3073,80.3043"},{"Name":"Dewalegama","PostCode":"71050","LatLong":"7.2801,80.3186"},{"Name":"Imbulgasdeniya","PostCode":"71055","LatLong":"7.3101,80.3161"},{"Name":"Nelundeniya","PostCode":"71060","LatLong":"7.2267,80.2728"},{"Name":"Tuntota","PostCode":"71062","LatLong":"7.4944,79.9094"},{"Name":"Mahapallegama","PostCode":"71063","LatLong":"7.3605,80.0911"},{"Name":"Rambukkana","PostCode":"71100","LatLong":"7.3164,80.3906"},{"Name":"Parape","PostCode":"71105","LatLong":"7.3667,80.4167"},{"Name":"Thotawella","PostCode":"71106","LatLong":"7.3563,80.3983"},{"Name":"Hewadiwela","PostCode":"71108","LatLong":"7.3858,80.3878"},{"Name":"Udagaldeniya","PostCode":"71113","LatLong":"7.3511,80.3511"},{"Name":"Dombemada","PostCode":"71115","LatLong":"7.3798,80.3469"},{"Name":"Yatagama","PostCode":"71116","LatLong":"7.3224,80.3552"},{"Name":"Pattampitiya","PostCode":"71130","LatLong":"7.3124,80.4339"},{"Name":"Undugoda","PostCode":"71200","LatLong":"7.1456,80.3633"},{"Name":"Kabagamuwa","PostCode":"71202","LatLong":"7.1335,80.3389"},{"Name":"Alawatura","PostCode":"71204","LatLong":"7.1259,80.3246"},{"Name":"Bossella","PostCode":"71208","LatLong":"7.1471,80.3992"},{"Name":"Hettimulla","PostCode":"71210","LatLong":"7.2094,80.358"},{"Name":"Maharangalla","PostCode":"71211","LatLong":"7.2094,80.358"},{"Name":"Morontota","PostCode":"71220","LatLong":"7.173,80.3612"},{"Name":"Gantuna","PostCode":"71222","LatLong":"7.173,80.3612"},{"Name":"Bulathkohupitiya","PostCode":"71230","LatLong":"7.1032,80.3344"},{"Name":"Ampagala","PostCode":"71232","LatLong":"7.0673,80.2955"},{"Name":"Wegalla","PostCode":"71234","LatLong":"7.0967,80.3041"},{"Name":"Udapotha","PostCode":"71236","LatLong":"7.0821,80.3759"},{"Name":"Dedugala","PostCode":"71237","LatLong":"7.0991,80.4016"},{"Name":"Ruwanwella","PostCode":"71300","LatLong":"7.0427,80.2517"},{"Name":"Wahakula","PostCode":"71303","LatLong":"7.0593,80.2084"},{"Name":"Waharaka","PostCode":"71304","LatLong":"7.096,80.1878"},{"Name":"Galpatha(Sab)","PostCode":"71312","LatLong":"7.0494,80.2324"},{"Name":"Imbulana","PostCode":"71313","LatLong":"7.0632,80.2544"},{"Name":"Lewangama","PostCode":"71315","LatLong":"7.0494,80.2324"},{"Name":"Gonagala","PostCode":"71318","LatLong":"7.0356,80.2104"},{"Name":"Amitirigala","PostCode":"71320","LatLong":"7.0273,80.1836"},{"Name":"Batuwita","PostCode":"71321","LatLong":"7.0537,80.1701"},{"Name":"Malmaduwa","PostCode":"71325","LatLong":"7.1364,80.2738"},{"Name":"Yatapana","PostCode":"71326","LatLong":"7.1369,80.3068"},{"Name":"Galigamuwa Town","PostCode":"71350","LatLong":"7.2032,80.2956"},{"Name":"Hakahinna","PostCode":"71352","LatLong":"7.2032,80.2956"},{"Name":"Pitagaldeniya","PostCode":"71360","LatLong":"7.1453,80.2839"},{"Name":"Atale","PostCode":"71363","LatLong":"7.1453,80.2839"},{"Name":"Kotiyakumbura","PostCode":"71370","LatLong":"7.1238,80.2864"},{"Name":"Kannattota","PostCode":"71372","LatLong":"7.0805,80.2794"},{"Name":"Dehiowita","PostCode":"71400","LatLong":"6.9776,80.2624"},{"Name":"Deloluwa","PostCode":"71401","LatLong":"6.9582,80.3174"},{"Name":"Anhettigama","PostCode":"71403","LatLong":"6.9221,80.374"},{"Name":"Noori","PostCode":"71407","LatLong":"6.9558,80.396"},{"Name":"Maliboda","PostCode":"71411","LatLong":"6.8886,80.4285"},{"Name":"Hinguralakanda","PostCode":"71417","LatLong":"6.9154,80.2972"},{"Name":"Boralankada","PostCode":"71418","LatLong":"6.9721,80.3285"},{"Name":"Deraniyagala","PostCode":"71430","LatLong":"6.9314,80.3352"},{"Name":"Miyanawita","PostCode":"71432","LatLong":"6.9037,80.35"},{"Name":"Mawanella","PostCode":"71500","LatLong":"7.2519,80.4453"},{"Name":"Kondeniya","PostCode":"71501","LatLong":"7.265,80.433"},{"Name":"Ambulugala","PostCode":"71503","LatLong":"7.2376,80.4168"},{"Name":"Galatara","PostCode":"71505","LatLong":"7.2167,80.4167"},{"Name":"Makehelwala","PostCode":"71507","LatLong":"7.2825,80.4736"},{"Name":"Alutnuwara","PostCode":"71508","LatLong":"7.2333,80.4667"},{"Name":"Ussapitiya","PostCode":"71510","LatLong":"7.2162,80.4483"},{"Name":"Hingula","PostCode":"71520","LatLong":"7.2457,80.4664"},{"Name":"Udumulla","PostCode":"71521","LatLong":"7.454,80.3993"},{"Name":"Dewanagala","PostCode":"71527","LatLong":"7.2159,80.4704"},{"Name":"Hemmatagama","PostCode":"71530","LatLong":"7.1736,80.5002"},{"Name":"Kehelpannala","PostCode":"71533","LatLong":"7.1664,80.5187"},{"Name":"Aranayaka","PostCode":"71540","LatLong":"7.1509,80.4614"},{"Name":"Talgaspitiya","PostCode":"71541","LatLong":"7.1647,80.4793"},{"Name":"Ambalakanda","PostCode":"71546","LatLong":"7.1366,80.4524"},{"Name":"Warakapola","PostCode":"71600","LatLong":"7.2226,80.1887"},{"Name":"Dorawaka","PostCode":"71601","LatLong":"7.1839,80.2198"},{"Name":"Niyadurupola","PostCode":"71602","LatLong":"7.1665,80.2189"},{"Name":"Galapitamada","PostCode":"71603","LatLong":"7.1374,80.2333"},{"Name":"Dunumala","PostCode":"71605","LatLong":"7.1746,80.2058"},{"Name":"Algama","PostCode":"71607","LatLong":"7.1627,80.1681"},{"Name":"Tulhiriya","PostCode":"71610","LatLong":"7.2699,80.2256"},{"Name":"Bopitiya (SAB)","PostCode":"71612","LatLong":"7.2523,80.2248"},{"Name":"Tholangamuwa","PostCode":"71619","LatLong":"7.2347,80.2239"},{"Name":"Weragala","PostCode":"71622","LatLong":"7.138,80.2568"},{"Name":"Yatiyantota","PostCode":"71700","LatLong":"7.0279,80.2946"},{"Name":"Weeoya","PostCode":"71702","LatLong":"7.0549,80.3693"},{"Name":"Malalpola","PostCode":"71704","LatLong":"7.0579,80.3419"},{"Name":"Berannawa","PostCode":"71706","LatLong":"7.0676,80.4123"},{"Name":"Seaforth Colony","PostCode":"71708","LatLong":"7.0663,80.4283"},{"Name":"Welihelatenna","PostCode":"71712","LatLong":"7.0281,80.3348"},{"Name":"Hakbellawaka","PostCode":"71715","LatLong":"7.0281,80.3348"},{"Name":"Migastenna Sabara","PostCode":"71716","LatLong":"7.0281,80.3348"},{"Name":"Kitulgala","PostCode":"71720","LatLong":"6.9966,80.4068"},{"Name":"Mahabage","PostCode":"71722","LatLong":"7.0225,80.4333"},{"Name":"Teligama","PostCode":"71724","LatLong":"7.0079,80.3798"}]},{"Name":"Kurunegala","Places":[{"PostCode":"60000","LatLong":"7.4863,80.3623"},{"Name":"Kudagalgamuwa","PostCode":"60003","LatLong":"7.5351,80.3321"},{"Name":"Minhettiya","PostCode":"60004","LatLong":"7.584,80.3018"},{"Name":"Doratiyawa","PostCode":"60013","LatLong":"7.4578,80.383"},{"Name":"Indulgodakanda","PostCode":"60016","LatLong":"7.4253,80.4084"},{"Name":"Demataluwa","PostCode":"60024","LatLong":"7.5219,80.2898"},{"Name":"Ithanawatta","PostCode":"60025","LatLong":"7.4478,80.3475"},{"Name":"Boyagane","PostCode":"60027","LatLong":"7.4501,80.3415"},{"Name":"Kohilagedara","PostCode":"60028","LatLong":"7.4141,80.3659"},{"Name":"Kosgolla","PostCode":"60029","LatLong":"7.4052,80.3927"},{"Name":"Hindagolla","PostCode":"60034","LatLong":"7.484,80.4118"},{"Name":"Ambakote","PostCode":"60036","LatLong":"7.492,80.4532"},{"Name":"Morathiha","PostCode":"60038","LatLong":"7.5073,80.4875"},{"Name":"Ridigama","PostCode":"60040","LatLong":"7.5473,80.4963"},{"Name":"Delwite","PostCode":"60044","LatLong":"7.5102,80.5211"},{"Name":"Iriyagolla","PostCode":"60045","LatLong":"7.4731,80.5458"},{"Name":"Alawatuwala","PostCode":"60047","LatLong":"7.5102,80.5211"},{"Name":"Panagamuwa","PostCode":"60052","LatLong":"7.5551,80.4577"},{"Name":"Pihimbuwa","PostCode":"60053","LatLong":"7.4607,80.5171"},{"Name":"Kanadeniyawala","PostCode":"60054","LatLong":"7.4382,80.541"},{"Name":"Pilessa","PostCode":"60058","LatLong":"7.4546,80.4141"},{"Name":"Mawathagama","PostCode":"60060","LatLong":"7.4086,80.3091"},{"Name":"Kahapathwala","PostCode":"60062","LatLong":"7.2934,80.4557"},{"Name":"Inguruwatta","PostCode":"60064","LatLong":"7.1783,80.6023"},{"Name":"Meetanwala","PostCode":"60066","LatLong":"7.2934,80.4557"},{"Name":"Puswelitenna","PostCode":"60072","LatLong":"7.3746,80.3664"},{"Name":"Anhandiya","PostCode":"60074","LatLong":"7.262,80.2651"},{"Name":"Buluwala","PostCode":"60076","LatLong":"7.4873,80.4676"},{"Name":"Weuda","PostCode":"60080","LatLong":"7.4104,80.4814"},{"Name":"Uhumiya","PostCode":"60094","LatLong":"7.463,80.2924"},{"Name":"Kalugamuwa","PostCode":"60096","LatLong":"7.4498,80.2614"},{"Name":"Narammala","PostCode":"60100","LatLong":"7.4337,80.1971"},{"Name":"Karagahagedara","PostCode":"60106","LatLong":"7.4996,80.0548"},{"Name":"Bogamulla","PostCode":"60107","LatLong":"7.4666,80.126"},{"Name":"Lonahettiya","PostCode":"60108","LatLong":"7.4666,80.126"},{"Name":"Pahamune","PostCode":"60112","LatLong":"7.4774,80.1961"},{"Name":"Metiyagane","PostCode":"60121","LatLong":"7.3972,80.1745"},{"Name":"Muruthenge","PostCode":"60122","LatLong":"7.3972,80.1745"},{"Name":"Dambadeniya","PostCode":"60130","LatLong":"7.3633,80.1653"},{"Name":"Ihala Katugampala","PostCode":"60135","LatLong":"7.3633,80.1653"},{"Name":"Giriulla","PostCode":"60140","LatLong":"7.3211,80.1235"},{"Name":"Narangoda","PostCode":"60152","LatLong":"7.3753,80.0813"},{"Name":"Bopitiya","PostCode":"60155","LatLong":"7.3191,80.0824"},{"Name":"Elibichchiya","PostCode":"60156","LatLong":"7.3146,80.0516"},{"Name":"Pannala","PostCode":"60160","LatLong":"7.333,80.0329"},{"Name":"Labbala","PostCode":"60162","LatLong":"7.3423,80.079"},{"Name":"Gonawila","PostCode":"60170","LatLong":"7.3204,79.9974"},{"Name":"Daraluwa","PostCode":"60174","LatLong":"7.3573,79.9829"},{"Name":"Sandalankawa","PostCode":"60176","LatLong":"7.3389,79.9901"},{"Name":"Horambawa","PostCode":"60181","LatLong":"7.4475,80.1819"},{"Name":"Alahitiyawa","PostCode":"60182","LatLong":"7.4741,80.1709"},{"Name":"Kekunagolla","PostCode":"60183","LatLong":"7.4939,80.1697"},{"Name":"Kirimetiyawa","PostCode":"60184","LatLong":"7.5104,80.136"},{"Name":"Nakkawatta","PostCode":"60186","LatLong":"7.4541,80.1358"},{"Name":"Kithalawa","PostCode":"60188","LatLong":"7.476,80.1589"},{"Name":"Wewagama","PostCode":"60195","LatLong":"7.4167,80.1"},{"Name":"Walakumburumulla","PostCode":"60198","LatLong":"7.4217,80.0119"},{"Name":"Kuliyapitiya","PostCode":"60200","LatLong":"7.4688,80.0401"},{"Name":"Yakwila","PostCode":"60202","LatLong":"7.3843,80.0355"},{"Name":"Wadumunnegedara","PostCode":"60204","LatLong":"7.4073,79.9731"},{"Name":"Welpalla","PostCode":"60206","LatLong":"7.4374,80.0554"},{"Name":"Thalahitimulla","PostCode":"60208","LatLong":"7.428,80.0194"},{"Name":"Madakumburumulla","PostCode":"60209","LatLong":"7.442,79.993"},{"Name":"Ihala Gomugomuwa","PostCode":"60211","LatLong":"7.5135,80.0754"},{"Name":"Kirindawa","PostCode":"60212","LatLong":"7.4982,80.0977"},{"Name":"Anukkane","PostCode":"60214","LatLong":"7.5013,80.1123"},{"Name":"Munamaldeniya","PostCode":"60218","LatLong":"7.5469,80.0652"},{"Name":"Magulagama","PostCode":"60221","LatLong":"7.5413,80.0941"},{"Name":"Nagollagoda","PostCode":"60226","LatLong":"7.5255,80.0643"},{"Name":"Tharana Udawela","PostCode":"60227","LatLong":"7.5255,80.0643"},{"Name":"Deegalla","PostCode":"60228","LatLong":"7.5097,80.0346"},{"Name":"llukhena","PostCode":"60232","LatLong":"7.5477,79.9797"},{"Name":"Padiwela","PostCode":"60236","LatLong":"7.5477,79.9797"},{"Name":"lhala Kadigamuwa","PostCode":"60238","LatLong":"7.5477,79.9797"},{"Name":"Welipennagahamulla","PostCode":"60240","LatLong":"7.4328,79.9253"},{"Name":"Udubaddawa","PostCode":"60250","LatLong":"7.4759,79.9655"},{"Name":"Dummalasuriya","PostCode":"60260","LatLong":"7.4893,79.8925"},{"Name":"Watuwatta","PostCode":"60262","LatLong":"7.5241,79.9193"},{"Name":"Etungahakotuwa","PostCode":"60266","LatLong":"7.5209,79.9716"},{"Name":"Alawwa","PostCode":"60280","LatLong":"7.2971,80.2343"},{"Name":"Wennoruwa","PostCode":"60284","LatLong":"7.3646,80.2183"},{"Name":"Maharachchimulla","PostCode":"60286","LatLong":"7.3434,80.2082"},{"Name":"Keppitiwalana","PostCode":"60288","LatLong":"7.326,80.1821"},{"Name":"Bujjomuwa","PostCode":"60291","LatLong":"7.4558,80.0511"},{"Name":"Nawatalwatta","PostCode":"60292","LatLong":"7.4558,80.0511"},{"Name":"Polgahawela","PostCode":"60300","LatLong":"7.3381,80.3003"},{"Name":"Metikumbura","PostCode":"60304","LatLong":"7.359,80.3139"},{"Name":"Talawattegedara","PostCode":"60306","LatLong":"7.3816,80.2989"},{"Name":"Aragoda","PostCode":"60308","LatLong":"7.3573,80.3425"},{"Name":"Panaliya","PostCode":"60312","LatLong":"7.3391,80.335"},{"Name":"Yatigaloluwa","PostCode":"60314","LatLong":"7.3315,80.2633"},{"Name":"Wadakada","PostCode":"60318","LatLong":"7.399,80.2641"},{"Name":"Pothuhera","PostCode":"60330","LatLong":"7.4214,80.3303"},{"Name":"Maspotha","PostCode":"60344","LatLong":"7.8667,80.2167"},{"Name":"Bamunukotuwa","PostCode":"60347","LatLong":"7.8667,80.2167"},{"Name":"Panadaragama","PostCode":"60348","LatLong":"7.8667,80.2167"},{"Name":"Katupota","PostCode":"60350","LatLong":"7.537,80.1899"},{"Name":"Moragane","PostCode":"60354","LatLong":"7.5501,80.1406"},{"Name":"Kosdeniya","PostCode":"60356","LatLong":"7.5724,80.1397"},{"Name":"Wariyapola","PostCode":"60400","LatLong":"7.6177,80.245"},{"Name":"Wellagala","PostCode":"60402","LatLong":"7.6176,80.2815"},{"Name":"Malagane","PostCode":"60404","LatLong":"7.6608,80.2839"},{"Name":"Minuwangete","PostCode":"60406","LatLong":"7.7167,80.25"},{"Name":"Mirihanagama","PostCode":"60408","LatLong":"7.6532,80.2651"},{"Name":"Kobeigane","PostCode":"60410","LatLong":"7.6569,80.1307"},{"Name":"Hengamuwa","PostCode":"60414","LatLong":"7.7,80.1"},{"Name":"Alahengama","PostCode":"60416","LatLong":"7.6784,80.1154"},{"Name":"Kanattewewa","PostCode":"60422","LatLong":"7.6167,80.2"},{"Name":"Bandara Koswatta","PostCode":"60424","LatLong":"7.6095,80.1721"},{"Name":"Tuttiripitigama","PostCode":"60426","LatLong":"7.6023,80.1442"},{"Name":"Hettipola","PostCode":"60430","LatLong":"7.6033,80.0752"},{"Name":"Mandapola","PostCode":"60434","LatLong":"7.6338,80.1061"},{"Name":"Sunandapura","PostCode":"60436","LatLong":"7.6377,80.0637"},{"Name":"Boraluwewa","PostCode":"60437","LatLong":"7.6833,80.05"},{"Name":"Kuratihena","PostCode":"60438","LatLong":"7.6304,80.0235"},{"Name":"Pihimbiya Ratmale","PostCode":"60439","LatLong":"7.6377,80.0637"},{"Name":"Halmillawewa","PostCode":"60441","LatLong":"7.5963,80.0034"},{"Name":"Bingiriya","PostCode":"60450","LatLong":"7.6004,79.9345"},{"Name":"Tisogama","PostCode":"60453","LatLong":"7.6049,79.9443"},{"Name":"Weerapokuna","PostCode":"60454","LatLong":"7.6476,79.9904"},{"Name":"Wellarawa","PostCode":"60456","LatLong":"7.5666,79.908"},{"Name":"Hiruwalpola","PostCode":"60458","LatLong":"7.6049,79.9443"},{"Name":"Padeniya","PostCode":"60461","LatLong":"7.6556,80.2223"},{"Name":"Awulegama","PostCode":"60462","LatLong":"7.6556,80.2223"},{"Name":"Welawa Juncton","PostCode":"60464","LatLong":"7.6556,80.2223"},{"Name":"Wannigama","PostCode":"60465","LatLong":"7.6556,80.2223"},{"Name":"Nikaweratiya","PostCode":"60470","LatLong":"7.7503,80.1159"},{"Name":"Divullegoda","PostCode":"60472","LatLong":"7.75,80.2"},{"Name":"Hulogedara","PostCode":"60474","LatLong":"7.7833,80.1833"},{"Name":"Thimbiriyawa","PostCode":"60476","LatLong":"7.7667,80.1333"},{"Name":"Hulugalla","PostCode":"60477","LatLong":"7.7825,80.1378"},{"Name":"Sirisetagama","PostCode":"60478","LatLong":"7.7777,80.1506"},{"Name":"Mahagirilla","PostCode":"60479","LatLong":"7.8333,80.1333"},{"Name":"Nabadewa","PostCode":"60482","LatLong":"7.6833,80.0667"},{"Name":"Kotawehera","PostCode":"60483","LatLong":"7.7911,80.1023"},{"Name":"Meewellawa","PostCode":"60484","LatLong":"7.85,80.15"},{"Name":"Digannewa","PostCode":"60485","LatLong":"7.8811,80.1092"},{"Name":"Hilogama","PostCode":"60486","LatLong":"7.75,80.0833"},{"Name":"Wannirasnayakapura","PostCode":"60490","LatLong":"7.6851,80.1541"},{"Name":"Kadigawa","PostCode":"60492","LatLong":"7.715,79.9896"},{"Name":"Monnekulama","PostCode":"60495","LatLong":"7.8333,80.0667"},{"Name":"Torayaya","PostCode":"60499","LatLong":"7.5069,80.4061"},{"Name":"lbbagamuwa","PostCode":"60500","LatLong":"7.5979,80.457"},{"Name":"Kirindigalla","PostCode":"60502","LatLong":"7.5617,80.4807"},{"Name":"Kumbukwewa","PostCode":"60506","LatLong":"7.6342,80.4333"},{"Name":"Kumbukgeta","PostCode":"60508","LatLong":"7.5979,80.457"},{"Name":"Maeliya","PostCode":"60512","LatLong":"7.7411,80.4169"},{"Name":"Makulpotha","PostCode":"60514","LatLong":"7.7422,80.4467"},{"Name":"Mahamukalanyaya","PostCode":"60516","LatLong":"7.7417,80.4318"},{"Name":"Periyakadneluwa","PostCode":"60518","LatLong":"7.7417,80.4318"},{"Name":"Gokaralla","PostCode":"60522","LatLong":"7.6539,80.4367"},{"Name":"Dodangaslanda","PostCode":"60530","LatLong":"7.5729,80.5377"},{"Name":"Maduragoda","PostCode":"60532","LatLong":"7.5729,80.5377"},{"Name":"Melsiripura","PostCode":"60540","LatLong":"7.6442,80.5095"},{"Name":"Diddeniya","PostCode":"60544","LatLong":"7.6729,80.4793"},{"Name":"Hiriyala Lenawa","PostCode":"60546","LatLong":"7.6668,80.4796"},{"Name":"Kimbulwanaoya","PostCode":"60548","LatLong":"7.6668,80.4796"},{"Name":"Nelliya","PostCode":"60549","LatLong":"7.6833,80.45"},{"Name":"Madahapola","PostCode":"60552","LatLong":"7.7061,80.4964"},{"Name":"Pansiyagama","PostCode":"60554","LatLong":"7.7061,80.4964"},{"Name":"Panliyadda","PostCode":"60558","LatLong":"7.7061,80.4964"},{"Name":"Wellawa","PostCode":"60570","LatLong":"7.5556,80.3728"},{"Name":"Thalwita","PostCode":"60572","LatLong":"7.583,80.3667"},{"Name":"Makulwewa","PostCode":"60578","LatLong":"7.6103,80.3607"},{"Name":"Nikadalupotha","PostCode":"60580","LatLong":"7.6097,80.3925"},{"Name":"Hunupola","PostCode":"60582","LatLong":"7.6097,80.3925"},{"Name":"Thambagalla","PostCode":"60584","LatLong":"7.6097,80.3925"},{"Name":"Nagollagama","PostCode":"60590","LatLong":"7.7667,80.3"},{"Name":"Maho","PostCode":"60600","LatLong":"7.8228,80.2778"},{"Name":"Karambe","PostCode":"60602","LatLong":"7.7833,80.3333"},{"Name":"Balalla","PostCode":"60604","LatLong":"7.8,80.25"},{"Name":"Ridibendiella","PostCode":"60606","LatLong":"7.802,80.287"},{"Name":"Medivawa","PostCode":"60612","LatLong":"7.7498,80.3762"},{"Name":"Polpitigama","PostCode":"60620","LatLong":"7.8142,80.4042"},{"Name":"Ulpotha Pallekele","PostCode":"60622","LatLong":"7.8071,80.4188"},{"Name":"Thalakolawewa","PostCode":"60624","LatLong":"7.8,80.4333"},{"Name":"Konwewa","PostCode":"60630","LatLong":"7.6833,80.4167"},{"Name":"Moragollagama","PostCode":"60640","LatLong":"7.75,80.3"},{"Name":"Siyambalangamuwa","PostCode":"60646","LatLong":"7.6734,80.4748"},{"Name":"Ambanpola","PostCode":"60650","LatLong":"7.6214,80.4958"},{"Name":"Galgamuwa","PostCode":"60700","LatLong":"7.9965,80.2675"},{"Name":"Palukadawala","PostCode":"60704","LatLong":"7.947,80.2811"},{"Name":"Ataragalla","PostCode":"60706","LatLong":"7.9718,80.2743"},{"Name":"Gallewa","PostCode":"60712","LatLong":"7.9645,80.3232"},{"Name":"Makulewa","PostCode":"60714","LatLong":"8.0987,80.3427"},{"Name":"Ehetuwewa","PostCode":"60716","LatLong":"7.9334,80.34"},{"Name":"Embogama","PostCode":"60718","LatLong":"7.915,80.3626"},{"Name":"Wannikudawewa","PostCode":"60721","LatLong":"8.0107,80.2979"},{"Name":"Wannilhalagama","PostCode":"60722","LatLong":"8.0107,80.2979"},{"Name":"Mahananneriya","PostCode":"60724","LatLong":"8.0107,80.2979"},{"Name":"Mahagalkadawala","PostCode":"60731","LatLong":"8.0617,80.2936"},{"Name":"Usgala Siyabmalangamuwa","PostCode":"60732","LatLong":"8.0862,80.2271"},{"Name":"Tambutta","PostCode":"60734","LatLong":"8.0806,80.2311"},{"Name":"Pahalagiribawa","PostCode":"60735","LatLong":"8.0862,80.2271"},{"Name":"Saliya Asokapura","PostCode":"60736","LatLong":"8.0862,80.2271"},{"Name":"Solepura","PostCode":"60737","LatLong":"8.0862,80.2271"},{"Name":"Solewewa","PostCode":"60738","LatLong":"8.0862,80.2271"},{"Name":"Warawewa","PostCode":"60739","LatLong":"8.1162,80.1565"},{"Name":"Meegalawa","PostCode":"60750","LatLong":"7.9935,80.381"},{"Name":"Girathalana","PostCode":"60752","LatLong":"7.9935,80.381"},{"Name":"Kudakatnoruwa","PostCode":"60754","LatLong":"7.9935,80.381"}]},{"Name":"Kalutara","Places":[{"PostCode":"12000","LatLong":"6.5831,79.9593"},{"Name":"Galpatha","PostCode":"12005","LatLong":"6.6053,79.9971"},{"Name":"Yatawara Junction","PostCode":"12006","LatLong":"6.6053,79.9971"},{"Name":"Koholana","PostCode":"12007","LatLong":"6.6189,80.0219"},{"Name":"Bolossagama","PostCode":"12008","LatLong":"6.6053,79.9971"},{"Name":"Remunagoda","PostCode":"12009","LatLong":"6.6138,80.01"},{"Name":"Gamagoda","PostCode":"12016","LatLong":"6.5909,80.0083"},{"Name":"Dodangoda","PostCode":"12020","LatLong":"6.5531,80.0223"},{"Name":"Bombuwala","PostCode":"12024","LatLong":"6.5721,80.0096"},{"Name":"Tebuwana","PostCode":"12025","LatLong":"6.5829,80.0466"},{"Name":"Neboda","PostCode":"12030","LatLong":"6.5891,80.084"},{"Name":"Paiyagala","PostCode":"12050","LatLong":"6.5075,80.0276"},{"Name":"Halkandawila","PostCode":"12055","LatLong":"6.5075,80.0276"},{"Name":"Maggona","PostCode":"12060","LatLong":"6.5041,79.9811"},{"Name":"Beruwala","PostCode":"12070","LatLong":"6.4788,79.9828"},{"Name":"Padagoda","PostCode":"12074","LatLong":"6.4526,80.0096"},{"Name":"Kalawila Kiranthidiya","PostCode":"12078","LatLong":"6.4657,79.9962"},{"Name":"Alutgama","PostCode":"12080","LatLong":"6.4394,79.9895"},{"Name":"Dharga Town","PostCode":"12090","LatLong":"6.424,80.0631"},{"Name":"Meegama","PostCode":"12094","LatLong":"6.424,80.0631"},{"Name":"Matugama","PostCode":"12100","LatLong":"6.5204,80.1128"},{"Name":"Yatadolawatta","PostCode":"12104","LatLong":"6.5273,80.0631"},{"Name":"Nawattuduwa","PostCode":"12106","LatLong":"6.5042,80.0934"},{"Name":"Welipenna","PostCode":"12108","LatLong":"6.465,80.1043"},{"Name":"Walagedara","PostCode":"12112","LatLong":"6.4485,80.078"},{"Name":"Pannila","PostCode":"12114","LatLong":"6.4399,80.1029"},{"Name":"Ittapana","PostCode":"12116","LatLong":"6.4217,80.0884"},{"Name":"Halwala","PostCode":"12118","LatLong":"6.4137,80.1097"},{"Name":"Paraigama","PostCode":"12122","LatLong":"6.4052,80.1253"},{"Name":"Yagirala","PostCode":"12124","LatLong":"6.3846,80.1605"},{"Name":"Mahakalupahana","PostCode":"12126","LatLong":"6.3949,80.1429"},{"Name":"Utumgama","PostCode":"12127","LatLong":"6.3949,80.1429"},{"Name":"Meegahatenna","PostCode":"12130","LatLong":"6.4394,80.1971"},{"Name":"Walallawita","PostCode":"12134","LatLong":"6.3615,80.1931"},{"Name":"Polgampola","PostCode":"12136","LatLong":"6.4681,80.1924"},{"Name":"Pelawatta","PostCode":"12138","LatLong":"6.4089,80.2166"},{"Name":"Boralugoda","PostCode":"12142","LatLong":"6.4336,80.2842"},{"Name":"Pahalahewessa","PostCode":"12144","LatLong":"6.4336,80.2842"},{"Name":"Danawala Thiniyawala","PostCode":"12148","LatLong":"6.4336,80.2842"},{"Name":"Agalawatta","PostCode":"12200","LatLong":"6.5422,80.1583"},{"Name":"Veyangalla","PostCode":"12204","LatLong":"6.5422,80.1583"},{"Name":"Mahagama","PostCode":"12210","LatLong":"6.6167,80.1667"},{"Name":"Pelanda","PostCode":"12214","LatLong":"6.6011,80.2322"},{"Name":"Molkawa","PostCode":"12216","LatLong":"6.609,80.233"},{"Name":"Kelinkanda","PostCode":"12218","LatLong":"6.5777,80.2969"},{"Name":"Kitulgoda","PostCode":"12222","LatLong":"6.4996,80.1807"},{"Name":"Bellana","PostCode":"12224","LatLong":"6.5237,80.1765"},{"Name":"Baduraliya","PostCode":"12230","LatLong":"6.5084,80.2329"},{"Name":"Morapitiya","PostCode":"12232","LatLong":"6.5352,80.263"},{"Name":"Hedigalla Colony","PostCode":"12234","LatLong":"6.5218,80.248"},{"Name":"Gurulubadda","PostCode":"12236","LatLong":"6.5218,80.248"},{"Name":"Bulathsinhala","PostCode":"12300","LatLong":"6.6744,80.1934"},{"Name":"Paragoda","PostCode":"12302","LatLong":"6.6109,80.2243"},{"Name":"Delmella","PostCode":"12304","LatLong":"6.6881,80.2057"},{"Name":"Halwatura","PostCode":"12306","LatLong":"6.6992,80.1914"},{"Name":"Diwalakada","PostCode":"12308","LatLong":"6.6994,80.1521"},{"Name":"Govinna","PostCode":"12310","LatLong":"6.6743,80.1159"},{"Name":"Anguruwatota","PostCode":"12320","LatLong":"6.6383,80.0861"},{"Name":"Uduwara","PostCode":"12322","LatLong":"6.6167,80.0667"},{"Name":"Horana","PostCode":"12400","LatLong":"6.7159,80.0626"},{"Name":"Pokunuwita","PostCode":"12404","LatLong":"6.7266,80.0369"},{"Name":"Gonapola Junction","PostCode":"12410","LatLong":"6.6927,80.0326"},{"Name":"Millaniya","PostCode":"12412","LatLong":"6.6927,80.0326"},{"Name":"Paragastota","PostCode":"12414","LatLong":"6.6685,79.9919"},{"Name":"Dombagoda","PostCode":"12416","LatLong":"6.6476,80.0471"},{"Name":"Kananwila","PostCode":"12418","LatLong":"6.762,80.0589"},{"Name":"Millewa","PostCode":"12422","LatLong":"6.7834,80.0625"},{"Name":"Miwanapalana","PostCode":"12424","LatLong":"6.7448,80.0922"},{"Name":"Kuda Uduwa","PostCode":"12426","LatLong":"6.7662,80.0784"},{"Name":"Kandanagama","PostCode":"12428","LatLong":"6.7648,80.0777"},{"Name":"Poruwedanda","PostCode":"12432","LatLong":"6.7373,80.1178"},{"Name":"lngiriya","PostCode":"12440","LatLong":"6.728,80.0609"},{"Name":"Panadura","PostCode":"12500","LatLong":"6.7132,79.9026"},{"Name":"Alubomulla","PostCode":"12524","LatLong":"6.7085,79.9489"},{"Name":"Bandaragama","PostCode":"12530","LatLong":"6.7144,79.988"},{"Name":"Welmilla Junction","PostCode":"12534","LatLong":"6.7072,80.0107"},{"Name":"Haltota","PostCode":"12538","LatLong":"6.7,80.0333"},{"Name":"Kehelwatta","PostCode":"12550","LatLong":"6.7517,79.9075"},{"Name":"Wadduwa","PostCode":"12560","LatLong":"6.6686,79.9253"},{"Name":"Morontuduwa","PostCode":"12564","LatLong":"6.6594,79.9726"},{"Name":"Waskaduwa","PostCode":"12580","LatLong":"6.6355,79.9472"}]},{"Name":"Kandy","Places":[{"PostCode":"20000","LatLong":"7.2955,80.6356"},{"Name":"Halloluwa","PostCode":"20032","LatLong":"7.2031,80.3386"},{"Name":"Yatihalagala","PostCode":"20034","LatLong":"7.2932,80.5982"},{"Name":"lhala Kobbekaduwa","PostCode":"20042","LatLong":"7.3154,80.5887"},{"Name":"Sangarajapura","PostCode":"20044","LatLong":"7.3154,80.5887"},{"Name":"Kulugammana","PostCode":"20048","LatLong":"7.3154,80.5887"},{"Name":"Uduwa","PostCode":"20052","LatLong":"7.3637,80.4845"},{"Name":"Hataraliyadda","PostCode":"20060","LatLong":"7.3369,80.4658"},{"Name":"Aludeniya","PostCode":"20062","LatLong":"7.3686,80.4672"},{"Name":"Dedunupitiya","PostCode":"20068","LatLong":"7.3353,80.4313"},{"Name":"Nugawela","PostCode":"20072","LatLong":"7.3333,80.6"},{"Name":"Werellagama","PostCode":"20080","LatLong":"7.3167,80.5833"},{"Name":"Pallekotuwa","PostCode":"20084","LatLong":"7.3373,80.5663"},{"Name":"Kumburegama","PostCode":"20086","LatLong":"7.358,80.5493"},{"Name":"Harankahawa","PostCode":"20092","LatLong":"7.4012,80.5289"},{"Name":"Udahingulwala","PostCode":"20094","LatLong":"7.4012,80.5289"},{"Name":"Gallellagama","PostCode":"20095","LatLong":"7.4012,80.5289"},{"Name":"Galagedara","PostCode":"20100","LatLong":"7.373,80.5206"},{"Name":"Poholiyadda","PostCode":"20106","LatLong":"7.3472,80.5208"},{"Name":"Wettawa","PostCode":"20108","LatLong":"7.3526,80.5147"},{"Name":"Minigamuwa","PostCode":"20109","LatLong":"7.3376,80.5026"},{"Name":"Pujapitiya","PostCode":"20112","LatLong":"7.3742,80.586"},{"Name":"Pattiya Watta","PostCode":"20118","LatLong":"7.3742,80.586"},{"Name":"Medawala Harispattuwa","PostCode":"20120","LatLong":"7.3449,80.6814"},{"Name":"Dolapihilla","PostCode":"20126","LatLong":"7.3899,80.5794"},{"Name":"Rambukwella","PostCode":"20128","LatLong":"7.3,80.7833"},{"Name":"Batugoda","PostCode":"20132","LatLong":"7.362,80.5891"},{"Name":"Watagoda Harispattuwa","PostCode":"20134","LatLong":"7.356,80.6051"},{"Name":"Ambatenna","PostCode":"20136","LatLong":"7.3501,80.6211"},{"Name":"Alawatugoda","PostCode":"20140","LatLong":"7.4042,80.6087"},{"Name":"Wilanagama","PostCode":"20142","LatLong":"7.4042,80.6087"},{"Name":"Ankumbura","PostCode":"20150","LatLong":"7.4333,80.5667"},{"Name":"Galhinna","PostCode":"20152","LatLong":"7.4162,80.5639"},{"Name":"Batagolladeniya","PostCode":"20154","LatLong":"7.4173,80.5617"},{"Name":"Ampitiya","PostCode":"20160","LatLong":"7.2715,80.656"},{"Name":"Uduwela","PostCode":"20164","LatLong":"7.2754,80.6697"},{"Name":"Tennekumbura","PostCode":"20166","LatLong":"7.2809,80.6531"},{"Name":"Kundasale","PostCode":"20168","LatLong":"7.2737,80.7001"},{"Name":"Menikhinna","PostCode":"20170","LatLong":"7.3184,80.6995"},{"Name":"Lunuketiya Maditta","PostCode":"20172","LatLong":"7.3332,80.7127"},{"Name":"Naranpanawa","PostCode":"20176","LatLong":"7.3481,80.7259"},{"Name":"Rajawella","PostCode":"20180","LatLong":"7.2959,80.7361"},{"Name":"Gomagoda","PostCode":"20184","LatLong":"7.3245,80.7313"},{"Name":"Kengalla","PostCode":"20186","LatLong":"7.2945,80.711"},{"Name":"Gurudeniya","PostCode":"20189","LatLong":"7.2642,80.6859"},{"Name":"Nattarampotha","PostCode":"20194","LatLong":"7.3022,80.6762"},{"Name":"Pilawala","PostCode":"20196","LatLong":"7.3022,80.6762"},{"Name":"Ketawala Leula","PostCode":"20198","LatLong":"7.3022,80.6762"},{"Name":"Talatuoya","PostCode":"20200","LatLong":"7.2507,80.6899"},{"Name":"Etulgama","PostCode":"20202","LatLong":"7.2425,80.6687"},{"Name":"Nugaliyadda","PostCode":"20204","LatLong":"7.2291,80.6889"},{"Name":"Kapuliyadde","PostCode":"20206","LatLong":"7.2408,80.6825"},{"Name":"Marassana","PostCode":"20210","LatLong":"7.2251,80.7352"},{"Name":"Kolabissa","PostCode":"20212","LatLong":"7.2278,80.7174"},{"Name":"Godamunna","PostCode":"20214","LatLong":"7.2305,80.6995"},{"Name":"Mahamedagama","PostCode":"20216","LatLong":"7.2278,80.7174"},{"Name":"Bawlana","PostCode":"20218","LatLong":"7.2278,80.7174"},{"Name":"Murutalawa","PostCode":"20232","LatLong":"7.2928,80.572"},{"Name":"Yahalatenna","PostCode":"20234","LatLong":"7.2928,80.572"},{"Name":"Polgolla","PostCode":"20250","LatLong":"7.3308,80.6461"},{"Name":"Madawala Bazaar","PostCode":"20260","LatLong":"7.2574,80.6715"},{"Name":"Gunnepana","PostCode":"20270","LatLong":"7.2574,80.6715"},{"Name":"Kadugannawa","PostCode":"20300","LatLong":"7.2547,80.5242"},{"Name":"Ketakumbura","PostCode":"20306","LatLong":"7.2103,80.5795"},{"Name":"Balana","PostCode":"20308","LatLong":"7.2706,80.4832"},{"Name":"Peradeniya","PostCode":"20400","LatLong":"7.2622,80.5841"},{"Name":"Uda Peradeniya","PostCode":"20404","LatLong":"7.2622,80.5841"},{"Name":"Megoda Kalugamuwa","PostCode":"20409","LatLong":"7.2622,80.5841"},{"Name":"Hindagala","PostCode":"20414","LatLong":"7.2333,80.6"},{"Name":"Nillambe","PostCode":"20418","LatLong":"7.1513,80.6419"},{"Name":"Galaha","PostCode":"20420","LatLong":"7.1979,80.6645"},{"Name":"Deltota","PostCode":"20430","LatLong":"7.1944,80.6917"},{"Name":"Handawalapitiya","PostCode":"20438","LatLong":"7.1944,80.6917"},{"Name":"Hewaheta","PostCode":"20440","LatLong":"7.107,80.7648"},{"Name":"Kiribathkumbura","PostCode":"20442","LatLong":"7.107,80.7648"},{"Name":"Pilimatalawa","PostCode":"20450","LatLong":"7.2689,80.5441"},{"Name":"Wattappola","PostCode":"20454","LatLong":"7.2373,80.5431"},{"Name":"Danture","PostCode":"20465","LatLong":"7.2825,80.5352"},{"Name":"Menikdiwela","PostCode":"20470","LatLong":"7.2892,80.5041"},{"Name":"Handessa","PostCode":"20480","LatLong":"7.2333,80.5833"},{"Name":"Leemagahakotuwa","PostCode":"20482","LatLong":"7.2333,80.5833"},{"Name":"Gampola","PostCode":"20500","LatLong":"7.1643,80.5696"},{"Name":"Udahentenna","PostCode":"20506","LatLong":"7.0969,80.5128"},{"Name":"Dolosbage","PostCode":"20510","LatLong":"7.0808,80.4693"},{"Name":"Pattitalawa","PostCode":"20511","LatLong":"7.1145,80.4699"},{"Name":"Meetalawa","PostCode":"20512","LatLong":"7.0976,80.4696"},{"Name":"Hondiyadeniya","PostCode":"20524","LatLong":"7.1049,80.5917"},{"Name":"Muruthagahamulla","PostCode":"20526","LatLong":"7.1049,80.5917"},{"Name":"Doluwa","PostCode":"20532","LatLong":"7.1794,80.598"},{"Name":"Panwilatenna","PostCode":"20544","LatLong":"7.1574,80.6373"},{"Name":"Pupuressa","PostCode":"20546","LatLong":"7.1262,80.6692"},{"Name":"Ulapane","PostCode":"20562","LatLong":"7.1031,80.5572"},{"Name":"Mawatura","PostCode":"20564","LatLong":"7.1,80.5667"},{"Name":"Atabage","PostCode":"20574","LatLong":"7.1354,80.6091"},{"Name":"Paradeka","PostCode":"20578","LatLong":"7.1123,80.607"},{"Name":"Pussellawa","PostCode":"20580","LatLong":"7.1073,80.6322"},{"Name":"Weligalla","PostCode":"20610","LatLong":"7.1907,80.5865"},{"Name":"Gelioya","PostCode":"20620","LatLong":"7.2157,80.5967"},{"Name":"Velamboda","PostCode":"20640","LatLong":"7.0447,80.5235"},{"Name":"Bambaragahaela","PostCode":"20644","LatLong":"7.0447,80.5235"},{"Name":"Nawalapitiya","PostCode":"20650","LatLong":"7.0534,80.5321"},{"Name":"Pasbage","PostCode":"20654","LatLong":"7.035,80.5244"},{"Name":"Gonawalapatana","PostCode":"20656","LatLong":"7.035,80.5244"},{"Name":"Dekinda","PostCode":"20658","LatLong":"7.0167,80.5167"},{"Name":"Mapakanda","PostCode":"20662","LatLong":"7.0243,80.5504"},{"Name":"Galaboda","PostCode":"20664","LatLong":"6.9864,80.5295"},{"Name":"Weligampola","PostCode":"20666","LatLong":"7.0243,80.5504"},{"Name":"Rambukpitiya","PostCode":"20676","LatLong":"7.0359,80.5174"},{"Name":"Mailapitiya","PostCode":"20702","LatLong":"7.1998,80.7552"},{"Name":"Unuwinna","PostCode":"20708","LatLong":"7.1998,80.7552"},{"Name":"Hanguranketha","PostCode":"20710","LatLong":"7.1252,80.7879"},{"Name":"Gonagantenna","PostCode":"20712","LatLong":"7.1252,80.7879"},{"Name":"Marymount Colony","PostCode":"20714","LatLong":"7.1252,80.7879"},{"Name":"Udawatta","PostCode":"20722","LatLong":"7.1727,80.8149"},{"Name":"lllagolla","PostCode":"20724","LatLong":"7.1727,80.8149"},{"Name":"Rikillagaskada","PostCode":"20730","LatLong":"7.144,80.7834"},{"Name":"Ekiriya","PostCode":"20732","LatLong":"7.1474,80.7562"},{"Name":"Pallebowala","PostCode":"20734","LatLong":"7.1402,80.7792"},{"Name":"Karandagolla","PostCode":"20738","LatLong":"7.1293,80.798"},{"Name":"Elamulla","PostCode":"20742","LatLong":"7.0542,80.7792"},{"Name":"Mandaram Nuwara","PostCode":"20744","LatLong":"7.0642,80.7844"},{"Name":"Maturata","PostCode":"20748","LatLong":"7.0742,80.7897"},{"Name":"Katugastota","PostCode":"20800","LatLong":"7.3276,80.6212"},{"Name":"Udatalawinna","PostCode":"20802","LatLong":"7.343,80.6463"},{"Name":"Wattegama","PostCode":"20810","LatLong":"7.3493,80.6808"},{"Name":"Doragamuwa","PostCode":"20816","LatLong":"7.3638,80.6557"},{"Name":"Rathukohodigala","PostCode":"20818","LatLong":"7.3566,80.6683"},{"Name":"Jambugahapitiya","PostCode":"20822","LatLong":"7.3792,80.6429"},{"Name":"Dunuwila","PostCode":"20824","LatLong":"7.3792,80.6429"},{"Name":"Makkanigama","PostCode":"20828","LatLong":"7.3792,80.6429"},{"Name":"Panvila","PostCode":"20830","LatLong":"7.0665,80.6919"},{"Name":"Tawalantenna","PostCode":"20838","LatLong":"7.0665,80.6919"},{"Name":"Madulkele","PostCode":"20840","LatLong":"7.3979,80.731"},{"Name":"Akurana","PostCode":"20850","LatLong":"7.3667,80.6167"},{"Name":"Teldeniya","PostCode":"20900","LatLong":"7.2969,80.7686"},{"Name":"Kumbukkandura","PostCode":"20902","LatLong":"7.3147,80.7616"},{"Name":"Senarathwela","PostCode":"20904","LatLong":"7.3147,80.7616"},{"Name":"Putuhapuwa","PostCode":"20906","LatLong":"7.3325,80.7545"},{"Name":"Werapitya","PostCode":"20908","LatLong":"7.3147,80.7616"},{"Name":"Wendaruwa","PostCode":"20914","LatLong":"7.3076,80.887"},{"Name":"Udispattuwa","PostCode":"20916","LatLong":"7.3076,80.887"},{"Name":"Makuldeniya","PostCode":"20921","LatLong":"7.3333,80.7833"},{"Name":"Rangala","PostCode":"20922","LatLong":"7.3539,80.7853"},{"Name":"Mimure","PostCode":"20923","LatLong":"7.4333,80.8333"},{"Name":"Kahataliyadda","PostCode":"20924","LatLong":"7.376,80.8213"},{"Name":"Kalugala","PostCode":"20926","LatLong":"7.3833,80.8833"},{"Name":"Kobonila","PostCode":"20928","LatLong":"7.376,80.8213"},{"Name":"Bopana","PostCode":"20932","LatLong":"7.3,80.9"},{"Name":"Uduwahinna","PostCode":"20934","LatLong":"7.2833,80.8917"},{"Name":"Madugalla","PostCode":"20938","LatLong":"7.2667,80.8833"},{"Name":"Medamahanuwara","PostCode":"20940","LatLong":"7.3,80.85"},{"Name":"Mahadoraliyadda","PostCode":"20945","LatLong":"7.3,80.85"},{"Name":"Hunnasgiriya","PostCode":"20948","LatLong":"7.3,80.85"},{"Name":"Ududumbara","PostCode":"20950","LatLong":"7.3076,80.887"},{"Name":"Hasalaka","PostCode":"20960","LatLong":"7.2879,80.9616"},{"Name":"Ulpothagama","PostCode":"20965","LatLong":"7.1592,80.9898"},{"Name":"Batumulla","PostCode":"20966","LatLong":"7.4167,80.9333"},{"Name":"Barawardhana Oya","PostCode":"20967","LatLong":"7.2879,80.9616"},{"Name":"Kolongoda","PostCode":"20971","LatLong":"7.3076,80.887"},{"Name":"Weragantota","PostCode":"20982","LatLong":"7.3167,80.9833"},{"Name":"Minipe","PostCode":"20983","LatLong":"7.2182,80.9775"},{"Name":"Handaganawa","PostCode":"20984","LatLong":"7.2833,80.9833"},{"Name":"Ambagahapelessa","PostCode":"20986","LatLong":"7.2197,80.9958"},{"Name":"Rantembe","PostCode":"20990","LatLong":"7.3076,80.887"}]},{"Name":"Mannar","Places":[{"PostCode":"41000","LatLong":"8.9833,79.9"}]},{"Name":"Matara","Places":[{"PostCode":"81000","LatLong":"5.9485,80.5353"},{"Name":"Naimana","PostCode":"81017","LatLong":"6.0249,80.5641"},{"Name":"Kekanadurra","PostCode":"81020","LatLong":"6.0249,80.5641"},{"Name":"Ratmale","PostCode":"81030","LatLong":"5.9667,80.65"},{"Name":"Aparekka","PostCode":"81032","LatLong":"6,80.6"},{"Name":"Yatiyana","PostCode":"81034","LatLong":"6.0333,80.6"},{"Name":"Diyagaha","PostCode":"81038","LatLong":"5.9833,80.5667"},{"Name":"Palatuwa","PostCode":"81050","LatLong":"5.9833,80.5167"},{"Name":"Sultanagoda","PostCode":"81051","LatLong":"5.9667,80.5"},{"Name":"Telijjawila","PostCode":"81060","LatLong":"6.0249,80.5641"},{"Name":"Ransegoda","PostCode":"81064","LatLong":"6.0249,80.5641"},{"Name":"Makandura","PostCode":"81070","LatLong":"6.1368,80.5568"},{"Name":"Mulatiyana Junction","PostCode":"81071","LatLong":"6.1919,80.5697"},{"Name":"Gomilamawarala","PostCode":"81072","LatLong":"6.1919,80.5697"},{"Name":"Rotumba","PostCode":"81074","LatLong":"6.2469,80.5826"},{"Name":"Karagoda Uyangoda","PostCode":"81082","LatLong":"6.0249,80.5641"},{"Name":"Nadugala","PostCode":"81092","LatLong":"5.9833,80.5333"},{"Name":"Kamburupitiya","PostCode":"81100","LatLong":"6.0833,80.5667"},{"Name":"Karaputugala","PostCode":"81106","LatLong":"6.0833,80.6"},{"Name":"Horapawita","PostCode":"81108","LatLong":"6.1069,80.5866"},{"Name":"Devinuwara (Dondra)","PostCode":"81160","LatLong":"5.9319,80.6069"},{"Name":"Gandara","PostCode":"81170","LatLong":"5.9333,80.6"},{"Name":"Kottegoda","PostCode":"81180","LatLong":"6.0278,80.592"},{"Name":"Dikwella","PostCode":"81200","LatLong":"5.9667,80.6833"},{"Name":"Walasgala","PostCode":"81220","LatLong":"5.9911,80.7019"},{"Name":"Urugamuwa","PostCode":"81230","LatLong":"6.0116,80.6437"},{"Name":"Thihagoda","PostCode":"81280","LatLong":"6.0167,80.5667"},{"Name":"Puhulwella","PostCode":"81290","LatLong":"6.05,80.6167"},{"Name":"Walakanda","PostCode":"81294","LatLong":"6.0333,80.65"},{"Name":"Hakmana","PostCode":"81300","LatLong":"6.0836,80.6445"},{"Name":"Narawelpita","PostCode":"81302","LatLong":"6.0836,80.6445"},{"Name":"Miella","PostCode":"81312","LatLong":"6.1175,80.6797"},{"Name":"Denagama","PostCode":"81314","LatLong":"6.1146,80.6606"},{"Name":"Radawela","PostCode":"81316","LatLong":"6.1337,80.6142"},{"Name":"Karatota","PostCode":"81318","LatLong":"6.0667,80.6667"},{"Name":"Deiyandara","PostCode":"81320","LatLong":"6.1446,80.5978"},{"Name":"Parapamulla","PostCode":"81322","LatLong":"6.1596,80.6211"},{"Name":"Handugala","PostCode":"81326","LatLong":"6.1895,80.6193"},{"Name":"Akuressa","PostCode":"81400","LatLong":"6.1007,80.4693"},{"Name":"Athuraliya","PostCode":"81402","LatLong":"6.1083,80.4884"},{"Name":"Wilpita","PostCode":"81404","LatLong":"6.1041,80.5134"},{"Name":"Godapitiya","PostCode":"81408","LatLong":"6.1201,80.4825"},{"Name":"Bopagoda","PostCode":"81412","LatLong":"6.1564,80.4872"},{"Name":"Urumutta","PostCode":"81414","LatLong":"6.1563,80.5151"},{"Name":"Maramba","PostCode":"81416","LatLong":"6.1563,80.5011"},{"Name":"Diyalape","PostCode":"81422","LatLong":"6.1215,80.4552"},{"Name":"Maliduwa","PostCode":"81424","LatLong":"6.1252,80.4069"},{"Name":"Pitabeddara","PostCode":"81450","LatLong":"6.2014,80.4593"},{"Name":"Deegala Lenama","PostCode":"81452","LatLong":"6.2223,80.465"},{"Name":"Derangala","PostCode":"81454","LatLong":"6.2432,80.4706"},{"Name":"Kiriwelkele","PostCode":"81456","LatLong":"6.2223,80.465"},{"Name":"Siyambalagoda","PostCode":"81462","LatLong":"6.0667,80.7667"},{"Name":"Morawaka","PostCode":"81470","LatLong":"6.2594,80.4889"},{"Name":"Pahala Millawa","PostCode":"81472","LatLong":"6.297,80.469"},{"Name":"Paragala","PostCode":"81474","LatLong":"6.2328,80.5321"},{"Name":"Alapaladeniya","PostCode":"81475","LatLong":"6.2738,80.4557"},{"Name":"Dellawa","PostCode":"81477","LatLong":"6.3355,80.4488"},{"Name":"Kalubowitiyana","PostCode":"81478","LatLong":"6.3167,80.4"},{"Name":"Waralla","PostCode":"81479","LatLong":"6.2739,80.5333"},{"Name":"Kotapola","PostCode":"81480","LatLong":"6.296,80.5421"},{"Name":"Deniyaya","PostCode":"81500","LatLong":"6.3461,80.5515"},{"Name":"Viharahena","PostCode":"81508","LatLong":"6.3664,80.5903"},{"Name":"Kiriweldola","PostCode":"81514","LatLong":"6.3679,80.5306"},{"Name":"Kolawenigama","PostCode":"81522","LatLong":"6.3235,80.5101"},{"Name":"Mediripitiya","PostCode":"81524","LatLong":"6.3392,80.4921"},{"Name":"Lankagama","PostCode":"81526","LatLong":"6.355,80.4742"},{"Name":"Moragala Kirillapone","PostCode":"81532","LatLong":"6.2886,80.5975"},{"Name":"Pothdeniya","PostCode":"81538","LatLong":"6.2886,80.5975"},{"Name":"Beralapanathara","PostCode":"81541","LatLong":"6.3412,80.5424"},{"Name":"Urubokka","PostCode":"81600","LatLong":"6.3041,80.6312"},{"Name":"Dampahala","PostCode":"81612","LatLong":"6.2717,80.631"},{"Name":"Bengamuwa","PostCode":"81614","LatLong":"6.2592,80.6012"},{"Name":"Pasgoda","PostCode":"81615","LatLong":"6.2654,80.6161"},{"Name":"Weligama","PostCode":"81700","LatLong":"5.975,80.4297"},{"Name":"Penetiyana","PostCode":"81722","LatLong":"6.0333,80.45"},{"Name":"Denipitiya","PostCode":"81730","LatLong":"5.9667,80.45"},{"Name":"Mirissa","PostCode":"81740","LatLong":"5.9333,80.45"},{"Name":"Kamburugamuwa","PostCode":"81750","LatLong":"5.9486,80.5006"}]},{"Name":"Moneragala","Places":[{"Name":"Sewanagala","PostCode":"70250","LatLong":"6.3424,80.7847"},{"Name":"Kiriibbanwewa","PostCode":"70252","LatLong":"6.3424,80.7847"},{"Name":"Ekamutugama","PostCode":"70254","LatLong":"6.3424,80.7847"},{"Name":"Mahagama Colony","PostCode":"70256","LatLong":"6.3424,80.7847"},{"Name":"Monaragala","PostCode":"91000","LatLong":"6.8714,81.3487"},{"Name":"Pangura","PostCode":"91002","LatLong":"6.9825,81.3244"},{"Name":"Nakkala","PostCode":"91003","LatLong":"6.8875,81.2939"},{"Name":"Hulandawa","PostCode":"91004","LatLong":"6.8515,81.3427"},{"Name":"Wedikumbura","PostCode":"91005","LatLong":"6.8349,81.3879"},{"Name":"Marawa","PostCode":"91006","LatLong":"6.8169,81.3743"},{"Name":"Obbegoda","PostCode":"91007","LatLong":"6.9242,81.3493"},{"Name":"Galabedda","PostCode":"91008","LatLong":"6.9196,81.3805"},{"Name":"Dombagahawela","PostCode":"91010","LatLong":"6.9016,81.4425"},{"Name":"Ethimalewewa","PostCode":"91020","LatLong":"6.7689,81.4863"},{"Name":"Wilaoya","PostCode":"91022","LatLong":"6.8261,81.4907"},{"Name":"Kotiyagala","PostCode":"91024","LatLong":"6.7117,81.4818"},{"Name":"Siyambalanduwa","PostCode":"91030","LatLong":"6.9067,81.5461"},{"Name":"Kandaudapanguwa","PostCode":"91032","LatLong":"6.975,81.5149"},{"Name":"Buddama","PostCode":"91038","LatLong":"7.0434,81.4838"},{"Name":"Inginiyagala","PostCode":"91040","LatLong":"7.2233,81.541"},{"Name":"Nelliyadda","PostCode":"91042","LatLong":"7.2233,81.541"},{"Name":"Dambagalla","PostCode":"91050","LatLong":"6.9557,81.367"},{"Name":"Mariarawa","PostCode":"91052","LatLong":"6.9754,81.473"},{"Name":"Uva Gangodagama","PostCode":"91054","LatLong":"7.0113,81.4147"},{"Name":"Ruwalwela","PostCode":"91056","LatLong":"7.0262,81.386"},{"Name":"Baduluwela","PostCode":"91058","LatLong":"7.0878,81.4329"},{"Name":"Okkampitiya","PostCode":"91060","LatLong":"6.7456,81.3057"},{"Name":"Badalkumbura","PostCode":"91070","LatLong":"6.8922,81.2396"},{"Name":"Kumbukkana","PostCode":"91098","LatLong":"6.8235,81.3068"},{"Name":"Buttala","PostCode":"91100","LatLong":"6.7608,81.2488"},{"Name":"Moretuwegama","PostCode":"91108","LatLong":"6.7608,81.2488"},{"Name":"Uva Pelwatta","PostCode":"91112","LatLong":"6.7608,81.2488"},{"Name":"Warunagama","PostCode":"91198","LatLong":"6.7608,81.2488"},{"Name":"Wellawaya","PostCode":"91200","LatLong":"6.7264,81.1046"},{"Name":"Siyambalagune","PostCode":"91202","LatLong":"6.8043,81.1386"},{"Name":"Randeniya","PostCode":"91204","LatLong":"6.7856,81.109"},{"Name":"Weherayaya Handapanagala","PostCode":"91206","LatLong":"6.7721,81.1174"},{"Name":"Ettiliwewa","PostCode":"91250","LatLong":"6.682,81.1048"},{"Name":"Balaharuwa","PostCode":"91295","LatLong":"6.5716,81.049"},{"Name":"Uva Kudaoya","PostCode":"91298","LatLong":"6.5219,81.1228"},{"Name":"Tanamalwila","PostCode":"91300","LatLong":"6.4331,81.1285"},{"Name":"Angunakolawewa","PostCode":"91302","LatLong":"6.4004,81.0877"},{"Name":"Suriara","PostCode":"91306","LatLong":"6.4555,81.0577"},{"Name":"Hambegamuwa","PostCode":"91308","LatLong":"6.5331,80.9568"},{"Name":"Kotawehera Mankada","PostCode":"91312","LatLong":"6.4555,81.0577"},{"Name":"Kataragama","PostCode":"91400","LatLong":"6.4134,81.3346"},{"Name":"Sella Kataragama","PostCode":"91405","LatLong":"6.4134,81.3346"},{"Name":"Bibile","PostCode":"91500","LatLong":"7.1577,81.2192"},{"Name":"Ekiriyankumbura","PostCode":"91502","LatLong":"7.3,81.2167"},{"Name":"Pitakumbura","PostCode":"91505","LatLong":"7.1841,81.2816"},{"Name":"Nilgala","PostCode":"91508","LatLong":"7.1925,81.3759"},{"Name":"Kotagama","PostCode":"91512","LatLong":"7.1236,81.1902"},{"Name":"Diyakobala","PostCode":"91514","LatLong":"7.1056,81.2314"},{"Name":"Ayiwela","PostCode":"91516","LatLong":"7.1084,81.2411"},{"Name":"Nannapurawa","PostCode":"91519","LatLong":"7.0847,81.2629"},{"Name":"Medagana","PostCode":"91550","LatLong":"6.9979,81.2821"},{"Name":"Kandawinna","PostCode":"91552","LatLong":"6.9979,81.2821"},{"Name":"Bakinigahawela","PostCode":"91554","LatLong":"6.9979,81.2821"}]},{"Name":"Mullaitivu","Places":[{"Name":"Mullativu","PostCode":"42000","LatLong":"9.1762,80.5686"}]},{"Name":"Matale","Places":[{"PostCode":"21000","LatLong":"7.4698,80.6217"},{"Name":"Alwatta","PostCode":"21004","LatLong":"7.4432,80.662"},{"Name":"Udatenna","PostCode":"21006","LatLong":"7.4167,80.65"},{"Name":"Leliambe","PostCode":"21008","LatLong":"7.4324,80.6501"},{"Name":"Wehigala","PostCode":"21009","LatLong":"7.4,80.6667"},{"Name":"Elkaduwa","PostCode":"21012","LatLong":"7.4145,80.6825"},{"Name":"Karagahinna","PostCode":"21014","LatLong":"7.3601,80.382"},{"Name":"Katudeniya","PostCode":"21016","LatLong":"7.3058,80.0814"},{"Name":"Ovilikanda","PostCode":"21020","LatLong":"7.45,80.5667"},{"Name":"Dankanda","PostCode":"21032","LatLong":"7.5293,80.6989"},{"Name":"Kiwula","PostCode":"21042","LatLong":"7.5193,80.5657"},{"Name":"Muwandeniya","PostCode":"21044","LatLong":"7.5167,80.5333"},{"Name":"Dunkolawatta","PostCode":"21046","LatLong":"7.5193,80.5657"},{"Name":"Walawela","PostCode":"21048","LatLong":"7.5219,80.5981"},{"Name":"Udasgiriya","PostCode":"21051","LatLong":"7.5324,80.5774"},{"Name":"Dullewa","PostCode":"21054","LatLong":"7.508,80.6003"},{"Name":"Melipitiya","PostCode":"21055","LatLong":"7.5492,80.5874"},{"Name":"Yatawatta","PostCode":"21056","LatLong":"7.5649,80.5821"},{"Name":"Selagama","PostCode":"21058","LatLong":"7.5916,80.5899"},{"Name":"Metihakka","PostCode":"21062","LatLong":"7.5368,80.6582"},{"Name":"Imbulgolla","PostCode":"21064","LatLong":"7.5716,80.6707"},{"Name":"Kaikawala","PostCode":"21066","LatLong":"7.5072,80.6569"},{"Name":"Gammaduwa","PostCode":"21068","LatLong":"7.5686,80.6961"},{"Name":"Palapathwela","PostCode":"21070","LatLong":"7.6083,80.6595"},{"Name":"Kavudupelella","PostCode":"21072","LatLong":"7.5813,80.6267"},{"Name":"Madawala Ulpotha","PostCode":"21074","LatLong":"7.6083,80.6595"},{"Name":"Opalgala","PostCode":"21076","LatLong":"7.6353,80.6923"},{"Name":"Nalanda","PostCode":"21082","LatLong":"7.6606,80.6424"},{"Name":"Naula","PostCode":"21090","LatLong":"7.7047,80.6542"},{"Name":"Lenadora","PostCode":"21094","LatLong":"7.7519,80.6608"},{"Name":"Dambulla","PostCode":"21100","LatLong":"7.86,80.6517"},{"Name":"Kandalama","PostCode":"21106","LatLong":"7.8667,80.7167"},{"Name":"Erawula Junction","PostCode":"21108","LatLong":"7.8633,80.6842"},{"Name":"Kalundawa","PostCode":"21112","LatLong":"7.8,80.7167"},{"Name":"Wewalawewa","PostCode":"21114","LatLong":"7.8103,80.6669"},{"Name":"Talakiriyagama","PostCode":"21116","LatLong":"7.8206,80.6172"},{"Name":"Sigiriya","PostCode":"21120","LatLong":"7.9518,80.7426"},{"Name":"Kibissa","PostCode":"21122","LatLong":"7.9412,80.7252"},{"Name":"Inamaluwa","PostCode":"21124","LatLong":"7.9314,80.6845"},{"Name":"Mahawela","PostCode":"21140","LatLong":"7.5869,80.6072"},{"Name":"Akuramboda","PostCode":"21142","LatLong":"7.6467,80.6014"},{"Name":"Mananwatta","PostCode":"21144","LatLong":"7.6168,80.6043"},{"Name":"Pallepola","PostCode":"21152","LatLong":"7.6246,80.6006"},{"Name":"Millawana","PostCode":"21154","LatLong":"7.6503,80.5772"},{"Name":"Madipola","PostCode":"21156","LatLong":"7.6833,80.5833"},{"Name":"Wahacotte","PostCode":"21160","LatLong":"7.7142,80.5972"},{"Name":"Galewela","PostCode":"21200","LatLong":"7.7589,80.5683"},{"Name":"Dewahuwa","PostCode":"21206","LatLong":"7.7589,80.5683"},{"Name":"Bambaragaswewa","PostCode":"21212","LatLong":"7.7833,80.5333"},{"Name":"Beligamuwa","PostCode":"21214","LatLong":"7.7167,80.55"},{"Name":"Ukuwela","PostCode":"21300","LatLong":"7.4228,80.6167"},{"Name":"Rattota","PostCode":"21400","LatLong":"7.5205,80.6798"},{"Name":"Etanawala","PostCode":"21402","LatLong":"7.5205,80.6798"},{"Name":"Gangala Puwakpitiya","PostCode":"21404","LatLong":"7.5205,80.6798"},{"Name":"lllukkumbura","PostCode":"21406","LatLong":"7.5205,80.6798"},{"Name":"Welangahawatte","PostCode":"21408","LatLong":"7.5205,80.6798"},{"Name":"Kongahawela","PostCode":"21500","LatLong":"7.6742,80.7171"},{"Name":"Pubbiliya","PostCode":"21502","LatLong":"7.7333,80.7167"},{"Name":"Ambana","PostCode":"21504","LatLong":"7.6579,80.6909"},{"Name":"Talagoda Junction","PostCode":"21506","LatLong":"7.6885,80.7082"},{"Name":"Ataragallewa","PostCode":"21512","LatLong":"7.6622,80.7728"},{"Name":"Hattota Amuna","PostCode":"21514","LatLong":"7.6622,80.7728"},{"Name":"Laggala Pallegama","PostCode":"21520","LatLong":"7.6622,80.7728"},{"Name":"Ranamuregama","PostCode":"21524","LatLong":"7.6622,80.7728"},{"Name":"Wilgamuwa","PostCode":"21530","LatLong":"7.6622,80.7728"},{"Name":"Perakanatta","PostCode":"21532","LatLong":"7.6622,80.7728"},{"Name":"Nugagolla","PostCode":"21534","LatLong":"7.6622,80.7728"},{"Name":"Handungamuwa","PostCode":"21536","LatLong":"7.6622,80.7728"},{"Name":"Dunuwilapitiya","PostCode":"21538","LatLong":"7.6622,80.7728"},{"Name":"Devagiriya","PostCode":"21552","LatLong":"7.5833,80.9667"},{"Name":"Maraka","PostCode":"21554","LatLong":"7.5833,80.9667"}]},{"Name":"Nuwara Eliya","Places":[{"Name":"Kotmale","PostCode":"20560","LatLong":"7.0142,80.5897"},{"Name":"Maswela","PostCode":"20566","LatLong":"7.0667,80.6333"},{"Name":"Doragala","PostCode":"20567","LatLong":"7.071,80.5867"},{"Name":"Nayapana Janapadaya","PostCode":"20568","LatLong":"7.071,80.5867"},{"Name":"Katukitula","PostCode":"20588","LatLong":"7.0741,80.6584"},{"Name":"Ramboda","PostCode":"20590","LatLong":"7.0457,80.6876"},{"Name":"Labukele","PostCode":"20592","LatLong":"7.0457,80.6876"},{"Name":"Ketaboola","PostCode":"20660","LatLong":"7.0243,80.5504"},{"Name":"Hapugastalawa","PostCode":"20668","LatLong":"7.0621,80.5713"},{"Name":"Harangalagama","PostCode":"20669","LatLong":"7.0243,80.5504"},{"Name":"Nawathispane","PostCode":"20670","LatLong":"7.0359,80.5174"},{"Name":"Ambagamuwa Udabulathgama","PostCode":"20678","LatLong":"7.0359,80.5174"},{"Name":"Ginigathena","PostCode":"20680","LatLong":"6.9903,80.4877"},{"Name":"Pitawala","PostCode":"20682","LatLong":"6.9984,80.4513"},{"Name":"Dagampitiya","PostCode":"20684","LatLong":"6.9759,80.4738"},{"Name":"Ambatalawa","PostCode":"20686","LatLong":"6.9658,80.4958"},{"Name":"Kelanigama","PostCode":"20688","LatLong":"6.9826,80.4772"},{"Name":"Padiyapelella","PostCode":"20750","LatLong":"7.0877,80.8044"},{"Name":"Munwatta","PostCode":"20752","LatLong":"7.1174,80.8099"},{"Name":"Hatton","PostCode":"22000","LatLong":"6.8916,80.5955"},{"Name":"Dunukedeniya","PostCode":"22002","LatLong":"7,80.6333"},{"Name":"Rozella","PostCode":"22008","LatLong":"6.9317,80.5495"},{"Name":"Watawala","PostCode":"22010","LatLong":"6.9442,80.5377"},{"Name":"Patana","PostCode":"22012","LatLong":"7.5158,80.6829"},{"Name":"Wijebahukanda","PostCode":"22018","LatLong":"7.011,80.6238"},{"Name":"Maldeniya","PostCode":"22021","LatLong":"7.0276,80.652"},{"Name":"Hedunuwewa","PostCode":"22024","LatLong":"7.0276,80.652"},{"Name":"Widulipura","PostCode":"22032","LatLong":"6.9268,80.4888"},{"Name":"Laxapana","PostCode":"22034","LatLong":"6.9268,80.4888"},{"Name":"Morahenagama","PostCode":"22036","LatLong":"6.9268,80.4888"},{"Name":"Kottellena","PostCode":"22040","LatLong":"6.9359,80.4583"},{"Name":"Hangarapitiya","PostCode":"22044","LatLong":"6.9182,80.472"},{"Name":"Hitigegama","PostCode":"22046","LatLong":"6.9536,80.4446"},{"Name":"Dikoya","PostCode":"22050","LatLong":"6.8713,80.6"},{"Name":"Norwood","PostCode":"22058","LatLong":"6.8377,80.6079"},{"Name":"Bogawantalawa","PostCode":"22060","LatLong":"6.7994,80.665"},{"Name":"Maskeliya","PostCode":"22070","LatLong":"6.8343,80.5676"},{"Name":"Nissanka Uyana","PostCode":"22075","LatLong":"6.8343,80.5676"},{"Name":"Kotagala","PostCode":"22080","LatLong":"6.9284,80.6061"},{"Name":"Lindula","PostCode":"22090","LatLong":"6.9217,80.685"},{"Name":"Agarapathana","PostCode":"22094","LatLong":"6.9217,80.685"},{"Name":"Bopattalawa","PostCode":"22095","LatLong":"6.9217,80.685"},{"Name":"Dayagama Bazaar","PostCode":"22096","LatLong":"6.9217,80.685"},{"Name":"Talawakele","PostCode":"22100","LatLong":"6.9371,80.6581"},{"Name":"Watagoda","PostCode":"22110","LatLong":"6.9704,80.6493"},{"Name":"Pundaluoya","PostCode":"22120","LatLong":"7.0151,80.6697"},{"Name":"Nanuoya","PostCode":"22150","LatLong":"6.9742,80.659"},{"PostCode":"22200","LatLong":"6.9708,80.7829"},{"Name":"Santhipura","PostCode":"22202","LatLong":"6.9708,80.7829"},{"Name":"Haggala","PostCode":"22208","LatLong":"6.9708,80.7829"},{"Name":"Ruwaneliya","PostCode":"22212","LatLong":"6.873,80.8106"},{"Name":"Mipilimana","PostCode":"22214","LatLong":"6.873,80.8106"},{"Name":"Ambewela","PostCode":"22216","LatLong":"6.873,80.8106"},{"Name":"Kandapola","PostCode":"22220","LatLong":"6.9894,80.8127"},{"Name":"Gonakele","PostCode":"22226","LatLong":"7.0568,80.8074"},{"Name":"Halgranoya","PostCode":"22240","LatLong":"7.0486,80.8898"},{"Name":"Rupaha","PostCode":"22245","LatLong":"7.036,80.904"},{"Name":"Kumbukwela","PostCode":"22246","LatLong":"7.0612,80.8757"},{"Name":"Udapussallawa","PostCode":"22250","LatLong":"7.0308,80.9105"},{"Name":"Kurupanawela","PostCode":"22252","LatLong":"7.009,80.9052"},{"Name":"Mipanawa","PostCode":"22254","LatLong":"7.0373,80.923"},{"Name":"Madulla","PostCode":"22256","LatLong":"7.0462,80.9034"},{"Name":"Harasbedda","PostCode":"22262","LatLong":"7.0493,80.8744"},{"Name":"Walapane","PostCode":"22270","LatLong":"7.1141,80.8511"},{"Name":"Kumbalgamuwa","PostCode":"22272","LatLong":"7.1141,80.8511"},{"Name":"Keerthi Bandarapura","PostCode":"22274","LatLong":"7.1141,80.8511"},{"Name":"Nildandahinna","PostCode":"22280","LatLong":"7.0679,80.8939"},{"Name":"Kalaganwatta","PostCode":"22282","LatLong":"7.1,80.9"},{"Name":"Udamadura","PostCode":"22285","LatLong":"7.0854,80.9165"},{"Name":"Teripeha","PostCode":"22287","LatLong":"7.1181,80.9179"}]},{"Name":"Polonnaruwa","Places":[{"PostCode":"51000","LatLong":"7.9397,81.0027"},{"Name":"Kalingaela","PostCode":"51002","LatLong":"7.9615,81.043"},{"Name":"Onegama","PostCode":"51004","LatLong":"7.9833,81.0833"},{"Name":"Lakshauyana","PostCode":"51006","LatLong":"7.9615,81.043"},{"Name":"Unagalavehera","PostCode":"51008","LatLong":"7.9615,81.043"},{"Name":"Alutwewa","PostCode":"51014","LatLong":"7.95,80.55"},{"Name":"Parakramasamudraya","PostCode":"51016","LatLong":"7.95,80.55"},{"Name":"Jayanthipura","PostCode":"51024","LatLong":"8,81"},{"Name":"Giritale","PostCode":"51026","LatLong":"7.9833,80.9333"},{"Name":"Dimbulagala","PostCode":"51031","LatLong":"7.9167,80.55"},{"Name":"Kashyapapura","PostCode":"51032","LatLong":"7.9167,80.55"},{"Name":"Pelatiyawa","PostCode":"51033","LatLong":"7.9167,80.55"},{"Name":"Ellewewa","PostCode":"51034","LatLong":"7.9167,80.55"},{"Name":"Kalukele Badanagala","PostCode":"51037","LatLong":"7.9167,80.55"},{"Name":"Nuwaragala","PostCode":"51039","LatLong":"7.9167,80.55"},{"Name":"Wijayabapura","PostCode":"51042","LatLong":"8.0167,81.0833"},{"Name":"Talpotha","PostCode":"51044","LatLong":"8.0167,81.0833"},{"Name":"Palugasdamana","PostCode":"51046","LatLong":"8.0167,81.0833"},{"Name":"Tambala","PostCode":"51049","LatLong":"8.0167,81.0833"},{"Name":"Pulastigama","PostCode":"51050","LatLong":"7.9675,80.9572"},{"Name":"Sungavila","PostCode":"51052","LatLong":"7.9675,80.9572"},{"Name":"Sevanapitiya","PostCode":"51062","LatLong":"7.9667,81.1667"},{"Name":"Mutugala","PostCode":"51064","LatLong":"7.9667,81.1667"},{"Name":"Nawasenapura","PostCode":"51066","LatLong":"7.9667,81.1667"},{"Name":"Welikanda","PostCode":"51070","LatLong":"7.9516,81.2452"},{"Name":"Aselapura","PostCode":"51072","LatLong":"7.9516,81.2452"},{"Name":"Mahawela Sinhapura","PostCode":"51076","LatLong":"7.9516,81.2452"},{"Name":"Tamankaduwa","PostCode":"51089","LatLong":"7.9675,80.9572"},{"Name":"Mampitiya","PostCode":"51090","LatLong":"7.9675,80.9572"},{"Name":"Dalukana","PostCode":"51092","LatLong":"7.9675,80.9572"},{"Name":"Dewagala","PostCode":"51094","LatLong":"7.9675,80.9572"},{"Name":"Nelumwewa","PostCode":"51096","LatLong":"7.9675,80.9572"},{"Name":"Hansayapalama","PostCode":"51098","LatLong":"7.9675,80.9572"},{"Name":"Aralaganwila","PostCode":"51100","LatLong":"7.8912,80.7957"},{"Name":"Pimburattewa","PostCode":"51102","LatLong":"7.8912,80.7957"},{"Name":"Divuldamana","PostCode":"51104","LatLong":"7.8912,80.7957"},{"Name":"Damminna","PostCode":"51106","LatLong":"7.8912,80.7957"},{"Name":"Maduruoya","PostCode":"51108","LatLong":"7.8912,80.7957"},{"Name":"Diyabeduma","PostCode":"51225","LatLong":"7.8833,80.8833"},{"Name":"Attanakadawala","PostCode":"51235","LatLong":"7.85,80.8667"},{"Name":"Kottapitiya","PostCode":"51244","LatLong":"7.8125,80.84"},{"Name":"Jayasiripura","PostCode":"51246","LatLong":"7.8125,80.84"},{"Name":"Bakamuna","PostCode":"51250","LatLong":"7.7833,80.8167"},{"Name":"Orubendi Siyambalawa","PostCode":"51256","LatLong":"7.7539,80.8025"},{"Name":"Elahera","PostCode":"51258","LatLong":"7.7244,80.7883"},{"Name":"Galoya Junction","PostCode":"51375","LatLong":"7.8912,80.7957"},{"Name":"Sinhagama","PostCode":"51378","LatLong":"7.8912,80.7957"},{"Name":"Hingurakgoda","PostCode":"51400","LatLong":"8.0333,80.95"},{"Name":"Hingurakdamana","PostCode":"51408","LatLong":"8.0375,81.0297"},{"Name":"Minneriya","PostCode":"51410","LatLong":"8.0465,80.9025"},{"Name":"Kumaragama","PostCode":"51412","LatLong":"7.7569,80.3862"},{"Name":"Kawudulla","PostCode":"51414","LatLong":"7.7569,80.3862"},{"Name":"Galamuna","PostCode":"51416","LatLong":"7.4673,79.8699"},{"Name":"Yodaela","PostCode":"51422","LatLong":"7.5781,79.8681"},{"Name":"Yudaganawa","PostCode":"51424","LatLong":"7.5781,79.8681"},{"Name":"Divulankadawala","PostCode":"51428","LatLong":"7.5781,79.8681"},{"Name":"Medirigiriya","PostCode":"51500","LatLong":"7.9,80.4833"},{"Name":"Diyasenpura","PostCode":"51504","LatLong":"7.9,80.4833"},{"Name":"Mahatalakolawewa","PostCode":"51506","LatLong":"7.9,80.4833"},{"Name":"Meegaswewa","PostCode":"51508","LatLong":"7.9,80.4833"},{"Name":"Kawuduluwewa Stagell","PostCode":"51514","LatLong":"7.9,80.4833"},{"Name":"Maha Ambagaswewa","PostCode":"51518","LatLong":"7.9,80.4833"}]},{"Name":"Puttalam","Places":[{"Name":"Chilaw","PostCode":"61000","LatLong":"7.5758,79.7953"},{"Name":"Udappuwa","PostCode":"61004","LatLong":"7.7477,79.7878"},{"Name":"Wijeyakatupotha","PostCode":"61006","LatLong":"7.6618,79.7915"},{"Name":"Wilpotha","PostCode":"61008","LatLong":"7.6618,79.7915"},{"Name":"Adippala","PostCode":"61012","LatLong":"7.5789,79.8428"},{"Name":"Mugunuwatawana","PostCode":"61014","LatLong":"7.5861,79.855"},{"Name":"Ilippadeniya","PostCode":"61018","LatLong":"7.5716,79.8307"},{"Name":"Karawitagara","PostCode":"61022","LatLong":"7.5303,79.7929"},{"Name":"Ambakandawila","PostCode":"61024","LatLong":"7.5303,79.7929"},{"Name":"Kumarakattuwa","PostCode":"61032","LatLong":"7.6577,79.8982"},{"Name":"Pallama","PostCode":"61040","LatLong":"7.6841,79.9183"},{"Name":"Serukele","PostCode":"61042","LatLong":"7.7313,79.9163"},{"Name":"Waikkal","PostCode":"61110","LatLong":"7.2833,79.85"},{"Name":"Nainamadama","PostCode":"61120","LatLong":"7.374,79.8842"},{"Name":"Dankotuwa","PostCode":"61130","LatLong":"7.2964,79.8715"},{"Name":"Bujjampola","PostCode":"61136","LatLong":"7.3299,79.9272"},{"Name":"Lihiriyagama","PostCode":"61138","LatLong":"7.3461,79.9286"},{"Name":"Yogiyana","PostCode":"61144","LatLong":"7.2915,79.9212"},{"Name":"Lunuwila","PostCode":"61150","LatLong":"7.3462,79.8634"},{"Name":"Ihala Kottaramulla","PostCode":"61154","LatLong":"7.382,79.8749"},{"Name":"Koswatta","PostCode":"61158","LatLong":"7.3692,79.893"},{"Name":"Pothuwatawana","PostCode":"61162","LatLong":"7.4921,79.9109"},{"Name":"Wennappuwa","PostCode":"61170","LatLong":"7.3454,79.8386"},{"Name":"Katuneriya","PostCode":"61180","LatLong":"7.3685,79.8314"},{"Name":"Nattandiya","PostCode":"61190","LatLong":"7.4123,79.8624"},{"Name":"Dunkannawa","PostCode":"61192","LatLong":"7.4265,79.8985"},{"Name":"Muttibendiwila","PostCode":"61195","LatLong":"7.4541,79.8806"},{"Name":"Watugahamulla","PostCode":"61198","LatLong":"7.4662,79.9101"},{"Name":"Marawila","PostCode":"61210","LatLong":"7.4106,79.828"},{"Name":"Mahawewa","PostCode":"61220","LatLong":"7.5139,79.9207"},{"Name":"Toduwawa","PostCode":"61224","LatLong":"7.4925,79.8061"},{"Name":"Kudawewa","PostCode":"61226","LatLong":"7.8857,80.0312"},{"Name":"Madampe","PostCode":"61230","LatLong":"7.4979,79.8381"},{"Name":"Galmuruwa","PostCode":"61233","LatLong":"7.5,79.8833"},{"Name":"Panirendawa","PostCode":"61234","LatLong":"7.5575,79.8846"},{"Name":"Kakkapalliya","PostCode":"61236","LatLong":"7.5306,79.8189"},{"Name":"Bangadeniya","PostCode":"61238","LatLong":"7.627,79.8195"},{"Name":"Rajakadaluwa","PostCode":"61242","LatLong":"7.6519,79.8339"},{"Name":"Nalladarankattuwa","PostCode":"61244","LatLong":"7.6946,79.8363"},{"Name":"Battuluoya","PostCode":"61246","LatLong":"7.6733,79.8351"},{"Name":"Mundel","PostCode":"61250","LatLong":"7.8087,79.8246"},{"Name":"Kottantivu","PostCode":"61252","LatLong":"7.8513,79.7899"},{"Name":"Baranankattuwa","PostCode":"61262","LatLong":"7.7931,79.8601"},{"Name":"Angunawila","PostCode":"61264","LatLong":"7.7753,79.8581"},{"Name":"Mangalaeliya","PostCode":"61266","LatLong":"7.8501,79.8156"},{"Name":"Madurankuliya","PostCode":"61270","LatLong":"7.8701,79.8229"},{"Name":"Mahakumbukkadawala","PostCode":"61272","LatLong":"7.8393,79.8924"},{"Name":"Mukkutoduwawa","PostCode":"61274","LatLong":"7.901,79.7534"},{"Name":"Palaviya","PostCode":"61280","LatLong":"7.6767,79.8497"},{"PostCode":"61300","LatLong":"8.0362,79.8283"},{"Name":"Ismailpuram","PostCode":"61302","LatLong":"8.0362,79.8283"},{"Name":"Vanathawilluwa","PostCode":"61306","LatLong":"8.0362,79.8283"},{"Name":"Karativponparappi","PostCode":"61307","LatLong":"8.0362,79.8283"},{"Name":"Eluwankulama","PostCode":"61308","LatLong":"8.0362,79.8283"},{"Name":"Sirambiadiya","PostCode":"61312","LatLong":"8.112,80.0059"},{"Name":"Karuwalagaswewa","PostCode":"61314","LatLong":"8.0638,79.9757"},{"Name":"Ihala Puliyankulama","PostCode":"61316","LatLong":"8.1601,80.036"},{"Name":"Tabbowa","PostCode":"61322","LatLong":"8.0993,79.8684"},{"Name":"Saliyawewa Junction","PostCode":"61324","LatLong":"8.0993,79.8684"},{"Name":"Puttalam Cement Factory","PostCode":"61326","LatLong":"8.0993,79.8684"},{"Name":"Attawilluwa","PostCode":"61328","LatLong":"8.0993,79.8684"},{"Name":"Mampuri","PostCode":"61341","LatLong":"7.9991,79.7391"},{"Name":"Norachcholai","PostCode":"61342","LatLong":"7.9991,79.7391"},{"Name":"Ettale","PostCode":"61343","LatLong":"7.9991,79.7391"},{"Name":"Talawila Church","PostCode":"61344","LatLong":"7.9991,79.7391"},{"Name":"Palliwasalturai","PostCode":"61354","LatLong":"8.0993,79.8684"},{"Name":"Kurinjanpitiya","PostCode":"61356","LatLong":"8.0993,79.8684"},{"Name":"Kandakuliya","PostCode":"61358","LatLong":"8.0993,79.8684"},{"Name":"Kalpitiya","PostCode":"61360","LatLong":"8.2372,79.7628"},{"Name":"Kirimundalama","PostCode":"61362","LatLong":"8.2372,79.7628"},{"Name":"Anamaduwa","PostCode":"61500","LatLong":"7.8786,80.008"},{"Name":"Uridyawa","PostCode":"61502","LatLong":"7.8226,79.9715"},{"Name":"Siyambalagashene","PostCode":"61504","LatLong":"7.8226,79.9715"},{"Name":"Mudalakkuliya","PostCode":"61506","LatLong":"7.8124,79.96"},{"Name":"Andigama","PostCode":"61508","LatLong":"7.7768,79.9465"},{"Name":"Mahauswewa","PostCode":"61512","LatLong":"7.9536,80.0573"},{"Name":"Inginimitiya","PostCode":"61514","LatLong":"7.9468,80.1277"},{"Name":"Kuruketiyawa","PostCode":"61516","LatLong":"8.0246,80.0513"},{"Name":"Nawagattegama","PostCode":"61520","LatLong":"8,80.1167"},{"Name":"Kottukachchiya","PostCode":"61532","LatLong":"7.9524,79.928"},{"Name":"Kalladiya","PostCode":"61534","LatLong":"7.9524,79.928"}]},{"Name":"Ratnapura","Places":[{"PostCode":"70000","LatLong":"6.6828,80.3992"},{"Name":"Malwala Junction","PostCode":"70001","LatLong":"6.707,80.4336"},{"Name":"Gillimale","PostCode":"70002","LatLong":"6.7292,80.439"},{"Name":"Sri Palabaddala","PostCode":"70004","LatLong":"6.7838,80.4462"},{"Name":"Kudawa","PostCode":"70005","LatLong":"6.7432,80.4772"},{"Name":"Hidellana","PostCode":"70012","LatLong":"6.7161,80.3795"},{"Name":"Kahangama","PostCode":"70016","LatLong":"6.6983,80.3688"},{"Name":"Dodampe","PostCode":"70017","LatLong":"6.7272,80.3255"},{"Name":"Karangoda","PostCode":"70018","LatLong":"6.6821,80.3674"},{"Name":"Dambuluwana","PostCode":"70019","LatLong":"6.7105,80.3324"},{"Name":"Medagalatur","PostCode":"70021","LatLong":"6.6405,80.2867"},{"Name":"Ayagama","PostCode":"70024","LatLong":"6.6358,80.3083"},{"Name":"Gawaragiriya","PostCode":"70026","LatLong":"6.6453,80.2652"},{"Name":"Elapatha","PostCode":"70032","LatLong":"6.6546,80.3712"},{"Name":"Udaniriella","PostCode":"70034","LatLong":"6.6546,80.3712"},{"Name":"Ratna Hangamuwa","PostCode":"70036","LatLong":"6.6546,80.3712"},{"Name":"Niralagama","PostCode":"70038","LatLong":"6.6546,80.3712"},{"Name":"Marapana","PostCode":"70041","LatLong":"6.6444,80.4446"},{"Name":"Dela","PostCode":"70042","LatLong":"6.6195,80.4502"},{"Name":"Udakarawita","PostCode":"70044","LatLong":"6.581,80.4534"},{"Name":"Pebotuwa","PostCode":"70045","LatLong":"6.5434,80.4528"},{"Name":"Delwala","PostCode":"70046","LatLong":"6.5169,80.4658"},{"Name":"Lellopitiya","PostCode":"70056","LatLong":"6.6627,80.4847"},{"Name":"Gallella","PostCode":"70062","LatLong":"6.855,80.3554"},{"Name":"Wewelwatta","PostCode":"70066","LatLong":"6.855,80.3554"},{"Name":"Pelmadulla","PostCode":"70070","LatLong":"6.6222,80.541"},{"Name":"Opanayaka","PostCode":"70080","LatLong":"6.6081,80.6181"},{"Name":"Akarella","PostCode":"70082","LatLong":"6.5773,80.6686"},{"Name":"Balangoda","PostCode":"70100","LatLong":"6.6466,80.7007"},{"Name":"Talakolahinna","PostCode":"70101","LatLong":"6.6112,80.7142"},{"Name":"Weligepola","PostCode":"70104","LatLong":"6.5683,80.715"},{"Name":"Hatangala","PostCode":"70105","LatLong":"6.5366,80.7455"},{"Name":"Handagiriya","PostCode":"70106","LatLong":"6.5239,80.8085"},{"Name":"Hatarabage","PostCode":"70108","LatLong":"6.6552,80.7571"},{"Name":"Mahawalatenna","PostCode":"70112","LatLong":"6.5881,80.746"},{"Name":"Wikiliya","PostCode":"70114","LatLong":"6.6192,80.7415"},{"Name":"Rajawaka","PostCode":"70116","LatLong":"6.6003,80.7976"},{"Name":"Mulgama","PostCode":"70117","LatLong":"6.6427,80.8155"},{"Name":"Tanjantenna","PostCode":"70118","LatLong":"6.6328,80.8548"},{"Name":"Kaltota","PostCode":"70122","LatLong":"6.6821,80.6757"},{"Name":"Welipathayaya","PostCode":"70124","LatLong":"6.6821,80.6757"},{"Name":"Meddekanda","PostCode":"70127","LatLong":"6.6763,80.6625"},{"Name":"Morahela","PostCode":"70129","LatLong":"6.6878,80.689"},{"Name":"Pinnawala","PostCode":"70130","LatLong":"6.7087,80.6789"},{"Name":"Bolthumbe","PostCode":"70131","LatLong":"6.71,80.6398"},{"Name":"Pambagolla","PostCode":"70133","LatLong":"6.7282,80.6921"},{"Name":"lmbulpe","PostCode":"70134","LatLong":"6.71,80.6398"},{"Name":"Rassagala","PostCode":"70135","LatLong":"6.6922,80.6385"},{"Name":"Gurubewilagama","PostCode":"70136","LatLong":"6.6911,80.576"},{"Name":"Waleboda","PostCode":"70138","LatLong":"6.7298,80.6135"},{"Name":"Belihuloya","PostCode":"70140","LatLong":"6.7181,80.7671"},{"Name":"Samanalawewa","PostCode":"70142","LatLong":"6.7181,80.7671"},{"Name":"Ihalagama","PostCode":"70144","LatLong":"6.7181,80.7671"},{"Name":"Halpe","PostCode":"70145","LatLong":"6.7181,80.7671"},{"Name":"Kahawatta","PostCode":"70150","LatLong":"6.5825,80.5755"},{"Name":"Panapitiya","PostCode":"70152","LatLong":"6.526,80.5581"},{"Name":"Udaha Hawupe","PostCode":"70154","LatLong":"6.5393,80.5484"},{"Name":"Gabbela","PostCode":"70156","LatLong":"6.5168,80.5451"},{"Name":"Madalagama","PostCode":"70158","LatLong":"6.5317,80.515"},{"Name":"Godakawela","PostCode":"70160","LatLong":"6.5063,80.6434"},{"Name":"Ranwala","PostCode":"70162","LatLong":"6.9022,80.4267"},{"Name":"Hapugastenna","PostCode":"70164","LatLong":"7.0881,80.1713"},{"Name":"NawinnaPinnakanda","PostCode":"70165","LatLong":"6.8322,80.4138"},{"Name":"Pallebedda","PostCode":"70170","LatLong":"6.4544,80.7388"},{"Name":"Halwinna","PostCode":"70171","LatLong":"6.443,80.7175"},{"Name":"Kolambageara","PostCode":"70180","LatLong":"6.636,80.6645"},{"Name":"Udawalawe","PostCode":"70190","LatLong":"6.636,80.6645"},{"Name":"Gangeyaya","PostCode":"70195","LatLong":"6.636,80.6645"},{"Name":"Embilipitiya","PostCode":"70200","LatLong":"6.3439,80.8489"},{"Name":"Tunkama","PostCode":"70205","LatLong":"6.29,80.8943"},{"Name":"Mulendiyawala","PostCode":"70212","LatLong":"6.2945,80.7625"},{"Name":"Omalpe","PostCode":"70215","LatLong":"6.3292,80.6918"},{"Name":"Panamura","PostCode":"70218","LatLong":"6.3118,80.7271"},{"Name":"Padalangala","PostCode":"70230","LatLong":"6.2675,80.9022"},{"Name":"Atakalanpanna","PostCode":"70294","LatLong":"6.5293,80.6085"},{"Name":"Hiramadagama","PostCode":"70296","LatLong":"6.5293,80.6085"},{"Name":"Makandura Sabara","PostCode":"70298","LatLong":"6.5293,80.6085"},{"Name":"Rakwana","PostCode":"70300","LatLong":"6.4725,80.6106"},{"Name":"Demuwatha","PostCode":"70332","LatLong":"6.4188,80.6387"},{"Name":"Pothupitiya","PostCode":"70338","LatLong":"6.4188,80.6387"},{"Name":"Ittakanda","PostCode":"70342","LatLong":"6.4003,80.6288"},{"Name":"Bomluwageaina","PostCode":"70344","LatLong":"6.4003,80.6288"},{"Name":"Ullinduwawa","PostCode":"70345","LatLong":"6.3649,80.6089"},{"Name":"Bulutota","PostCode":"70346","LatLong":"6.4357,80.6488"},{"Name":"Vijeriya","PostCode":"70348","LatLong":"6.4003,80.6288"},{"Name":"Kolonna","PostCode":"70350","LatLong":"6.4021,80.6865"},{"Name":"Kella Junction","PostCode":"70352","LatLong":"6.4021,80.6865"},{"Name":"Nivitigala","PostCode":"70400","LatLong":"6.6094,80.4186"},{"Name":"Kolombugama","PostCode":"70403","LatLong":"6.5681,80.4947"},{"Name":"Doloswalakanda","PostCode":"70404","LatLong":"6.5573,80.467"},{"Name":"Watapotha","PostCode":"70408","LatLong":"6.5905,80.5033"},{"Name":"Kalawana","PostCode":"70450","LatLong":"6.5391,80.4039"},{"Name":"Daugala","PostCode":"70455","LatLong":"6.4952,80.4232"},{"Name":"Waturawa","PostCode":"70456","LatLong":"6.489,80.4276"},{"Name":"Veddagala","PostCode":"70459","LatLong":"6.4574,80.4381"},{"Name":"Panapola","PostCode":"70461","LatLong":"6.4329,80.455"},{"Name":"Nawalakanda","PostCode":"70469","LatLong":"6.5124,80.3315"},{"Name":"Pimbura","PostCode":"70472","LatLong":"6.5728,80.169"},{"Name":"Kiriella","PostCode":"70480","LatLong":"6.7446,80.2662"},{"Name":"Matuwagalagama","PostCode":"70482","LatLong":"6.7745,80.2344"},{"Name":"Karandana","PostCode":"70488","LatLong":"6.8045,80.2027"},{"Name":"Ellagawa","PostCode":"70492","LatLong":"6.7359,80.2188"},{"Name":"Minipura Dumbara","PostCode":"70494","LatLong":"6.7359,80.2188"},{"Name":"Dumbara Manana","PostCode":"70495","LatLong":"6.7359,80.2188"},{"Name":"Kuruwita","PostCode":"70500","LatLong":"6.7765,80.3621"},{"Name":"Sudagala","PostCode":"70502","LatLong":"6.7928,80.3913"},{"Name":"Batatota","PostCode":"70504","LatLong":"6.8267,80.3673"},{"Name":"Eratna","PostCode":"70506","LatLong":"6.7987,80.3736"},{"Name":"Teppanawa","PostCode":"70512","LatLong":"6.7804,80.3164"},{"Name":"Parakaduwa","PostCode":"70550","LatLong":"6.8271,80.3126"},{"Name":"Ellaulla","PostCode":"70552","LatLong":"6.8559,80.3123"},{"Name":"Godagampola","PostCode":"70556","LatLong":"6.8848,80.3119"},{"Name":"Eheliyagoda","PostCode":"70600","LatLong":"6.8502,80.2624"},{"Name":"Erepola","PostCode":"70602","LatLong":"6.8126,80.2427"},{"Name":"Mitipola","PostCode":"70604","LatLong":"6.8279,80.2251"},{"Name":"Ellawala","PostCode":"70606","LatLong":"6.8092,80.2699"},{"Name":"Panawala","PostCode":"70612","LatLong":"6.8867,80.2716"},{"Name":"Getahetta","PostCode":"70620","LatLong":"6.9052,80.2193"}]},{"Name":"Trincomalee","Places":[{"PostCode":"31000","LatLong":"8.5711,81.2335"},{"Name":"Sampaltivu","PostCode":"31006","LatLong":"8.6263,81.2127"},{"Name":"Nilaveli","PostCode":"31010","LatLong":"8.6833,81.2"},{"Name":"Kumburupiddy","PostCode":"31012","LatLong":"8.7353,81.1623"},{"Name":"Kuchchaveli","PostCode":"31014","LatLong":"8.8146,81.099"},{"Name":"Tiriyayi","PostCode":"31016","LatLong":"8.7444,81.1538"},{"Name":"Gomarankadawala","PostCode":"31026","LatLong":"8.6749,80.9548"},{"Name":"Buckmigama","PostCode":"31028","LatLong":"8.6749,80.9548"},{"Name":"Kanniya","PostCode":"31032","LatLong":"8.6333,81.0317"},{"Name":"Pankulam","PostCode":"31034","LatLong":"8.6333,81.0317"},{"Name":"Mahadivulwewa","PostCode":"31036","LatLong":"8.6333,81.0317"},{"Name":"Rottawewa","PostCode":"31038","LatLong":"8.6333,81.0317"},{"Name":"Tampalakamam","PostCode":"31046","LatLong":"8.4995,81.0972"},{"Name":"Chinabay","PostCode":"31050","LatLong":"8.5164,81.1891"},{"Name":"Vellamanal","PostCode":"31053","LatLong":"8.5164,81.1891"},{"Name":"Kinniya","PostCode":"31100","LatLong":"8.4981,81.1779"},{"Name":"Maharugiramam","PostCode":"31106","LatLong":"8.4981,81.1779"},{"Name":"Kurinchakemy","PostCode":"31112","LatLong":"8.4981,81.1779"},{"Name":"Mutur","PostCode":"31200","LatLong":"8.45,81.2667"},{"Name":"Kaddaiparichchan","PostCode":"31212","LatLong":"8.45,81.2833"},{"Name":"Sampur","PostCode":"31216","LatLong":"8.4854,81.291"},{"Name":"Kiliveddy","PostCode":"31220","LatLong":"8.4477,81.2874"},{"Name":"Somapura","PostCode":"31222","LatLong":"8.4477,81.2874"},{"Name":"Mallikativu","PostCode":"31224","LatLong":"8.4477,81.2874"},{"Name":"Dehiwatte","PostCode":"31226","LatLong":"8.4477,81.2874"},{"Name":"Neelapola","PostCode":"31228","LatLong":"8.4477,81.2874"},{"Name":"Serunuwara","PostCode":"31232","LatLong":"8.4477,81.2874"},{"Name":"Lankapatuna","PostCode":"31234","LatLong":"8.4477,81.2874"},{"Name":"Echchilampattai","PostCode":"31236","LatLong":"8.4477,81.2874"},{"Name":"Mawadichenai","PostCode":"31238","LatLong":"8.4477,81.2874"},{"Name":"Toppur","PostCode":"31250","LatLong":"8.4055,81.3086"},{"Name":"Seruwila","PostCode":"31260","LatLong":"8.4477,81.2874"},{"Name":"Kantalai","PostCode":"31300","LatLong":"8.3683,81.0281"},{"Name":"Agbopura","PostCode":"31304","LatLong":"8.3249,80.9794"},{"Name":"Kantalai Sugar Factory","PostCode":"31306","LatLong":"8.3466,81.0037"},{"Name":"Wanela","PostCode":"31308","LatLong":"8.3466,81.0037"},{"Name":"Mullipothana","PostCode":"31312","LatLong":"8.3466,81.0037"},{"Name":"Sirajnagar","PostCode":"31314","LatLong":"8.3466,81.0037"},{"Name":"Galmetiyawa","PostCode":"31318","LatLong":"8.3466,81.0037"}]},{"Name":"Vavuniya","Places":[{"PostCode":"43000","LatLong":"8.7514,80.4971"}]}]}